<?xml version="1.0" encoding="UTF-8"?>
<kml xmlns="http://www.opengis.net/kml/2.2">
  <Document>
    <name>F1 Zone A KH to Fashion show</name>
    <Style id="icon-1899-DB4436-nodesc-normal">
      <IconStyle>
        <color>ff3644db</color>
        <scale>1</scale>
        <Icon>
          <href>https://www.gstatic.com/mapspro/images/stock/503-wht-blank_maps.png</href>
        </Icon>
        <hotSpot x="32" xunits="pixels" y="64" yunits="insetPixels"/>
      </IconStyle>
      <LabelStyle>
        <scale>0</scale>
      </LabelStyle>
      <BalloonStyle>
        <text><![CDATA[<h3>$[name]</h3>]]></text>
      </BalloonStyle>
    </Style>
    <Style id="icon-1899-DB4436-nodesc-highlight">
      <IconStyle>
        <color>ff3644db</color>
        <scale>1</scale>
        <Icon>
          <href>https://www.gstatic.com/mapspro/images/stock/503-wht-blank_maps.png</href>
        </Icon>
        <hotSpot x="32" xunits="pixels" y="64" yunits="insetPixels"/>
      </IconStyle>
      <LabelStyle>
        <scale>1</scale>
      </LabelStyle>
      <BalloonStyle>
        <text><![CDATA[<h3>$[name]</h3>]]></text>
      </BalloonStyle>
    </Style>
    <StyleMap id="icon-1899-DB4436-nodesc">
      <Pair>
        <key>normal</key>
        <styleUrl>#icon-1899-DB4436-nodesc-normal</styleUrl>
      </Pair>
      <Pair>
        <key>highlight</key>
        <styleUrl>#icon-1899-DB4436-nodesc-highlight</styleUrl>
      </Pair>
    </StyleMap>
    <Style id="line-1267FF-5000-nodesc-normal">
      <LineStyle>
        <color>ffff6712</color>
        <width>5</width>
      </LineStyle>
      <BalloonStyle>
        <text><![CDATA[<h3>$[name]</h3>]]></text>
      </BalloonStyle>
    </Style>
    <Style id="line-1267FF-5000-nodesc-highlight">
      <LineStyle>
        <color>ffff6712</color>
        <width>7.5</width>
      </LineStyle>
      <BalloonStyle>
        <text><![CDATA[<h3>$[name]</h3>]]></text>
      </BalloonStyle>
    </Style>
    <StyleMap id="line-1267FF-5000-nodesc">
      <Pair>
        <key>normal</key>
        <styleUrl>#line-1267FF-5000-nodesc-normal</styleUrl>
      </Pair>
      <Pair>
        <key>highlight</key>
        <styleUrl>#line-1267FF-5000-nodesc-highlight</styleUrl>
      </Pair>
    </StyleMap>
    <Placemark>
      <name>F1 Zone A KH to Fashion show</name>
      <styleUrl>#line-1267FF-5000-nodesc</styleUrl>
      <LineString>
        <tessellate>1</tessellate>
        <coordinates>
          -115.239936,36.0778173,0
          -115.2395858,36.0778563,0
          -115.2392439,36.0778658,0
          -115.238796,36.0779072,0
          -115.2381779,36.0779186,0
          -115.2378663,36.0779275,0
          -115.237564,36.0779294,0
          -115.2367546,36.0779487,0
          -115.2363446,36.07796,0
          -115.2359433,36.0779713,0
          -115.2351753,36.0779697,0
          -115.2348403,36.0779736,0
          -115.2345053,36.0779802,0
          -115.234102,36.0779867,0
          -115.2336966,36.0779954,0
          -115.2337106,36.078256,0
          -115.2337332,36.0785384,0
          -115.2337399,36.0787189,0
          -115.2337672,36.0792536,0
          -115.2337796,36.0795194,0
          -115.2337872,36.0797895,0
          -115.2337899,36.0798379,0
          -115.2338166,36.0803465,0
          -115.2338419,36.0808578,0
          -115.2338585,36.0812436,0
          -115.2338772,36.0816284,0
          -115.2339158,36.0825357,0
          -115.2339385,36.0829942,0
          -115.2339478,36.0832213,0
          -115.2339638,36.0834467,0
          -115.2339895,36.0840581,0
          -115.2340017,36.0843638,0
          -115.2340152,36.0846673,0
          -115.2340159,36.0846881,0
          -115.2340199,36.0847216,0
          -115.2340166,36.0847751,0
          -115.2339938,36.08486,0
          -115.2339912,36.0848733,0
          -115.2339858,36.0848987,0
          -115.2339912,36.0850016,0
          -115.2339728,36.0852232,0
          -115.2337017,36.0852282,0
          -115.2334334,36.0852304,0
          -115.2333438,36.0852342,0
          -115.2331422,36.0852336,0
          -115.2329446,36.0852357,0
          -115.2325386,36.0852399,0
          -115.2321929,36.0852441,0
          -115.2318606,36.0852537,0
          -115.231293,36.0852652,0
          -115.2310085,36.0852661,0
          -115.2307246,36.0852713,0
          -115.23021,36.0852829,0
          -115.229952,36.085286,0
          -115.2296926,36.0852924,0
          -115.229374,36.0852956,0
          -115.2290607,36.0852978,0
          -115.228686,36.0853069,0
          -115.2280971,36.0853136,0
          -115.2277925,36.0853142,0
          -115.2276389,36.0853221,0
          -115.2274853,36.0853365,0
          -115.2272153,36.0853442,0
          -115.2270803,36.0853437,0
          -115.2270128,36.0853472,0
          -115.2269352,36.0853649,0
          -115.2268369,36.0853601,0
          -115.2267433,36.085339,0
          -115.2265726,36.0853414,0
          -115.2264132,36.0853547,0
          -115.2263148,36.0853543,0
          -115.2262545,36.085329,0
          -115.2258299,36.0853402,0
          -115.2256163,36.0853452,0
          -115.2254053,36.085353,0
          -115.2253299,36.0853546,0
          -115.2252233,36.085353,0
          -115.2248636,36.0853672,0
          -115.2245026,36.0853803,0
          -115.2243783,36.0853902,0
          -115.2242587,36.0854082,0
          -115.2242026,36.085413,0
          -115.2241653,36.0854195,0
          -115.2240791,36.0854242,0
          -115.2238125,36.0854388,0
          -115.2234685,36.0854591,0
          -115.2231299,36.0854788,0
          -115.222569,36.0855123,0
          -115.222014,36.0855426,0
          -115.2218346,36.0855521,0
          -115.2214003,36.0855734,0
          -115.2209546,36.0855937,0
          -115.2200666,36.0856459,0
          -115.2194106,36.085683,0
          -115.2187633,36.0857164,0
          -115.2182473,36.0857499,0
          -115.2178833,36.0857686,0
          -115.2173653,36.0857942,0
          -115.2165986,36.0858383,0
          -115.215646,36.0858972,0
          -115.2152087,36.085918,0
          -115.2145126,36.0859561,0
          -115.2140113,36.0859826,0
          -115.2137779,36.0859958,0
          -115.2135525,36.0860134,0
          -115.2131373,36.0860369,0
          -115.2129013,36.0860464,0
          -115.2125612,36.0860591,0
          -115.2124013,36.086067,0
          -115.2122413,36.0860837,0
          -115.2119053,36.0861034,0
          -115.2115693,36.0861167,0
          -115.2111253,36.0861418,0
          -115.2109493,36.0861532,0
          -115.210084,36.0861983,0
          -115.2097226,36.086214,0
          -115.2095592,36.0862202,0
          -115.2093353,36.0862367,0
          -115.2092546,36.0862381,0
          -115.2091826,36.0862376,0
          -115.2091393,36.0862408,0
          -115.2091099,36.0862446,0
          -115.2090672,36.086247,0
          -115.2089118,36.0862519,0
          -115.2080353,36.0863025,0
          -115.2077838,36.0863134,0
          -115.2069133,36.0863041,0
          -115.2066446,36.0863022,0
          -115.2065692,36.0863106,0
          -115.2065219,36.0863179,0
          -115.2064806,36.0863208,0
          -115.2064479,36.0863224,0
          -115.206373,36.0863194,0
          -115.2062851,36.0863188,0
          -115.2061217,36.0863161,0
          -115.2057065,36.0863188,0
          -115.2049313,36.0863156,0
          -115.2047658,36.0863145,0
          -115.2046019,36.0863148,0
          -115.2043473,36.0863164,0
          -115.2038553,36.0863148,0
          -115.2033,36.0863137,0
          -115.2027799,36.0863148,0
          -115.2025131,36.0863143,0
          -115.2021379,36.0863119,0
          -115.201956,36.0863108,0
          -115.2019084,36.0863102,0
          -115.2015013,36.0863097,0
          -115.2010506,36.086307,0
          -115.200384,36.086307,0
          -115.2003005,36.0863092,0
          -115.2001571,36.0863108,0
          -115.1999551,36.0863075,0
          -115.1991853,36.0863019,0
          -115.1984527,36.0862972,0
          -115.1981207,36.0862983,0
          -115.1980419,36.0862994,0
          -115.1978086,36.0862983,0
          -115.1969067,36.0863037,0
          -115.1965,36.0863021,0
          -115.1958426,36.0863043,0
          -115.19531,36.0863002,0
          -115.1952473,36.0862872,0
          -115.1951785,36.0862819,0
          -115.1948439,36.0863005,0
          -115.1945093,36.0863051,0
          -115.1943779,36.0862987,0
          -115.1942465,36.0862956,0
          -115.1936289,36.086302,0
          -115.1930287,36.0863116,0
          -115.1926973,36.0863089,0
          -115.192238,36.0862845,0
          -115.191726,36.0862813,0
          -115.1916352,36.0862845,0
          -115.1915118,36.0862856,0
          -115.1912075,36.086284,0
          -115.1910812,36.0863028,0
          -115.1908886,36.0863093,0
          -115.1906819,36.0863087,0
          -115.1899653,36.086308,0
          -115.1897812,36.0863061,0
          -115.1897612,36.0863393,0
          -115.1897539,36.0863657,0
          -115.1897294,36.0864668,0
          -115.1897264,36.0865679,0
          -115.1897217,36.0867271,0
          -115.1897344,36.0870784,0
          -115.1897497,36.0872663,0
          -115.1897604,36.0875895,0
          -115.1897637,36.0881114,0
          -115.1897523,36.0882247,0
          -115.1897497,36.0883988,0
          -115.1897456,36.0886585,0
          -115.1897457,36.088975,0
          -115.189745,36.0891539,0
          -115.1897383,36.0894655,0
          -115.1897403,36.0896809,0
          -115.189741,36.0897785,0
          -115.1897443,36.0899665,0
          -115.1897453,36.0900976,0
          -115.189744,36.0902263,0
          -115.1897453,36.0903096,0
          -115.189748,36.0903971,0
          -115.189744,36.0906387,0
          -115.189744,36.0907791,0
          -115.1897461,36.0908638,0
          -115.1897447,36.090989,0
          -115.1897407,36.0911238,0
          -115.1897407,36.0912393,0
          -115.1897394,36.0917892,0
          -115.1897421,36.0923103,0
          -115.1897448,36.0926371,0
          -115.1897481,36.0926952,0
          -115.1897434,36.092743,0
          -115.1897534,36.0928117,0
          -115.1897591,36.0928462,0
          -115.1897585,36.0928774,0
          -115.189788,36.0929624,0
          -115.1897779,36.0932344,0
          -115.1897853,36.0935895,0
          -115.189778,36.093692,0
          -115.1897747,36.0938785,0
          -115.189774,36.0943326,0
          -115.189778,36.0944698,0
          -115.1897768,36.0945661,0
          -115.1897762,36.0946642,0
          -115.1897722,36.0949213,0
          -115.1897722,36.0952352,0
          -115.1897695,36.0954284,0
          -115.1897769,36.095943,0
          -115.1897742,36.0960774,0
          -115.1897816,36.0962109,0
          -115.189793,36.0964255,0
          -115.1898037,36.0966642,0
          -115.1897682,36.0967508,0
          -115.1897635,36.0968438,0
          -115.1897642,36.0972267,0
          -115.1897662,36.09796,0
          -115.1897675,36.0983142,0
          -115.1897668,36.0986576,0
          -115.1897662,36.0987938,0
          -115.1897615,36.0990643,0
          -115.1897652,36.0993685,0
          -115.1897655,36.0996652,0
          -115.1897749,36.0999044,0
          -115.1897915,36.0999982,0
          -115.1897816,36.100112,0
          -115.1898065,36.1002006,0
          -115.1897857,36.1002184,0
          -115.1897658,36.100409,0
          -115.1897598,36.1004906,0
          -115.1897532,36.1008268,0
          -115.1897646,36.1009597,0
          -115.1897731,36.1010087,0
          -115.1897669,36.1010779,0
          -115.1897589,36.101146,0
          -115.1897556,36.1013023,0
          -115.1898059,36.1014611,0
          -115.1898045,36.1015406,0
          -115.1898177,36.1017073,0
          -115.1898337,36.101877,0
          -115.1898025,36.1018991,0
          -115.1898003,36.101925,0
          -115.189835,36.1019595,0
          -115.189837,36.102153,0
          -115.189825,36.1022717,0
          -115.1898176,36.1023628,0
          -115.1898076,36.1028714,0
          -115.1898089,36.1031373,0
          -115.189818,36.1033768,0
          -115.189817,36.1036076,0
          -115.1898183,36.103749,0
          -115.189823,36.1039608,0
          -115.1898123,36.1041669,0
          -115.1898103,36.1043687,0
          -115.1898123,36.1044598,0
          -115.1898184,36.1045684,0
          -115.1898164,36.1046073,0
          -115.1897799,36.1046693,0
          -115.1897769,36.1051194,0
          -115.1897733,36.1053428,0
          -115.1897698,36.1055625,0
          -115.1897485,36.1059257,0
          -115.1897385,36.1059873,0
          -115.1897319,36.106059,0
          -115.1897226,36.1061179,0
          -115.1897119,36.1061695,0
          -115.1896965,36.1062306,0
          -115.1896845,36.1062952,0
          -115.1896459,36.1064435,0
          -115.1896061,36.1065333,0
          -115.1895934,36.1065555,0
          -115.18958,36.1065783,0
          -115.1895733,36.1066058,0
          -115.1895408,36.1066701,0
          -115.1894847,36.1067758,0
          -115.1894707,36.106799,0
          -115.1894587,36.1068166,0
          -115.1894474,36.1068385,0
          -115.1894333,36.1068566,0
          -115.1894199,36.1068786,0
          -115.1893467,36.1069906,0
          -115.189322,36.1070298,0
          -115.1892694,36.1070925,0
          -115.1892433,36.107123,0
          -115.1892253,36.1071458,0
          -115.189196,36.1071823,0
          -115.1891053,36.1072895,0
          -115.1889999,36.1074268,0
          -115.1889806,36.1074562,0
          -115.1888953,36.1075895,0
          -115.1888853,36.1075995,0
          -115.1888653,36.1076295,0
          -115.1888053,36.1077095,0
          -115.1887893,36.1077246,0
          -115.1887793,36.1077379,0
          -115.1887653,36.1077595,0
          -115.1887053,36.1078495,0
          -115.1886953,36.1078695,0
          -115.1886853,36.1078895,0
          -115.1886753,36.1078995,0
          -115.1886653,36.1079095,0
          -115.1886653,36.1079195,0
          -115.1886253,36.1079895,0
          -115.1885927,36.1080432,0
          -115.1885753,36.1080595,0
          -115.1885653,36.1080795,0
          -115.1884939,36.1081503,0
          -115.1884573,36.1081862,0
          -115.1884353,36.1082095,0
          -115.1883759,36.1082503,0
          -115.1882679,36.1083208,0
          -115.1882071,36.108346,0
          -115.1881138,36.108377,0
          -115.1880805,36.1083849,0
          -115.1880424,36.1083965,0
          -115.1879666,36.108413,0
          -115.1878232,36.1084127,0
          -115.1877325,36.1084127,0
          -115.1876757,36.1084089,0
          -115.1876099,36.1084043,0
          -115.1875373,36.1083932,0
          -115.1875203,36.1083906,0
          -115.1875053,36.1083995,0
          -115.1874692,36.1084109,0
          -115.1874391,36.108409,0
          -115.1873985,36.1084209,0
          -115.187335,36.1084366,0
          -115.1872804,36.1084268,0
          -115.1871577,36.1084063,0
          -115.1870196,36.1083801,0
          -115.1868284,36.1083474,0
          -115.1864099,36.1082833,0
          -115.1861839,36.1082501,0
          -115.1859613,36.1082223,0
          -115.1858693,36.1082123,0
          -115.1856026,36.108185,0
          -115.1854945,36.1081777,0
          -115.1849253,36.1081436,0
          -115.1847206,36.1081452,0
          -115.1842952,36.1081406,0
          -115.1839718,36.108168,0
          -115.1833832,36.108152,0
          -115.183347,36.1082282,0
          -115.1833176,36.1083344,0
          -115.183263,36.1086208,0
          -115.1831896,36.10877,0
          -115.1831537,36.1088481,0
          -115.1831238,36.1088773,0
          -115.1830572,36.1088976,0
          -115.1830252,36.108907,0
          -115.1829925,36.10891,0
          -115.1829525,36.1089138,0
          -115.1829145,36.1089146,0
          -115.1828724,36.1089113,0
          -115.1827982,36.1089113,0
          -115.1825511,36.1089048,0
          -115.1824399,36.108904,0
          -115.1823857,36.1089013,0
          -115.1823031,36.1088997,0
          -115.1822238,36.1089038,0
          -115.1819156,36.108867,0
          -115.1818243,36.1088602,0
          -115.1817665,36.1088548,0
          -115.1816996,36.1088481,0
          -115.1816203,36.1088508,0
          -115.1815336,36.1088502,0
          -115.1814028,36.1088481,0
          -115.181306,36.1088546,0
          -115.1811891,36.1088795,0
          -115.1811452,36.1090871,0
          -115.1811389,36.1093532,0
          -115.1811342,36.1096517,0
          -115.1811309,36.1097892,0
          -115.1811329,36.1098733,0
          -115.1811329,36.1099522,0
          -115.1811356,36.110046,0
          -115.1811389,36.1101268,0
          -115.1811482,36.1103128,0
          -115.1811629,36.1105822,0
          -115.1811749,36.1108006,0
          -115.1811909,36.1110833,0
          -115.1812056,36.1112093,0
          -115.1812196,36.111329,0
          -115.1812283,36.1113663,0
          -115.1812363,36.1113982,0
          -115.1812517,36.1114609,0
          -115.1812603,36.1115166,0
          -115.1812856,36.1115623,0
          -115.181297,36.1115977,0
          -115.1813163,36.1116501,0
          -115.181345,36.1117093,0
          -115.1813903,36.1117782,0
          -115.181405,36.1118045,0
          -115.181429,36.1118396,0
          -115.1814596,36.1118847,0
          -115.181505,36.1119309,0
          -115.181525,36.1119596,0
          -115.1815477,36.1119848,0
          -115.1815766,36.1120233,0
          -115.1816073,36.1120509,0
          -115.1817239,36.1121676,0
          -115.1817899,36.1122193,0
          -115.1818579,36.1122736,0
          -115.1820606,36.1124114,0
          -115.1821093,36.1124436,0
          -115.1822899,36.1125587,0
          -115.1825019,36.1127047,0
          -115.1828626,36.1129371,0
          -115.1829446,36.113003,0
          -115.1830259,36.1130871,0
          -115.1831065,36.1131714,0
          -115.1831679,36.113256,0
          -115.1831979,36.113306,0
          -115.1832532,36.113396,0
          -115.1832792,36.1134509,0
          -115.1833252,36.113559,0
          -115.1833518,36.1136322,0
          -115.1833626,36.1138452,0
          -115.1833692,36.1141368,0
          -115.1833705,36.1147062,0
          -115.1833655,36.1148033,0
          -115.1833555,36.1149452,0
          -115.1833522,36.1150784,0
          -115.1833435,36.1151705,0
          -115.1833322,36.1152184,0
          -115.1833115,36.1153149,0
          -115.1832848,36.1153838,0
          -115.1832475,36.1154603,0
          -115.1831875,36.1155849,0
          -115.1831262,36.1157108,0
          -115.1830615,36.1158414,0
          -115.1829968,36.1159681,0
          -115.1828269,36.1162902,0
          -115.1827885,36.116363,0
          -115.1827159,36.1165068,0
          -115.1826118,36.1166814,0
          -115.1825052,36.1168935,0
          -115.1823452,36.1171887,0
          -115.1822585,36.1173535,0
          -115.1822085,36.1174514,0
          -115.1821585,36.1175452,0
          -115.1821359,36.1175952,0
          -115.1821045,36.1176425,0
          -115.1820739,36.1176984,0
          -115.1820385,36.1177535,0
          -115.1819845,36.1178141,0
          -115.1818426,36.1180119,0
          -115.1818193,36.1180484,0
          -115.1817979,36.1180735,0
          -115.1817766,36.1181057,0
          -115.1817606,36.1181284,0
          -115.1817453,36.1181595,0
          -115.1817172,36.1181857,0
          -115.1816992,36.11822,0
          -115.1816759,36.1182495,0
          -115.1816632,36.118279,0
          -115.1816472,36.1183022,0
          -115.1816338,36.1183344,0
          -115.1816152,36.1183695,0
          -115.1815979,36.1184033,0
          -115.1815859,36.1184365,0
          -115.1815759,36.1184617,0
          -115.1815659,36.1184871,0
          -115.1815572,36.1185187,0
          -115.1815479,36.1185482,0
          -115.1815365,36.1185841,0
          -115.1815259,36.1186255,0
          -115.1815159,36.1186571,0
          -115.1815059,36.1186944,0
          -115.1815026,36.1187309,0
          -115.1814979,36.1187668,0
          -115.1814932,36.1188082,0
          -115.1814906,36.1188511,0
          -115.1814953,36.1188895,0
          -115.1814953,36.1189195,0
          -115.1814953,36.1189495,0
          -115.1814953,36.1189895,0
          -115.1814953,36.1190195,0
          -115.1814853,36.1191795,0
          -115.1814853,36.1191995,0
          -115.1814853,36.1192195,0
          -115.1814786,36.1192663,0
          -115.1814753,36.1193095,0
          -115.1814686,36.119349,0
          -115.1814606,36.119389,0
          -115.1814553,36.1194195,0
          -115.1814453,36.1194495,0
          -115.1814353,36.1194895,0
          -115.1814253,36.1195195,0
          -115.1814153,36.1195395,0
          -115.1814153,36.1195495,0
          -115.1814053,36.1195695,0
          -115.1813879,36.1195984,0
          -115.1813759,36.1196195,0
          -115.1813619,36.1196422,0
          -115.1813553,36.1196695,0
          -115.1813353,36.1197095,0
          -115.1813153,36.1197395,0
          -115.1812953,36.1197695,0
          -115.1812253,36.1198495,0
          -115.1811353,36.1199695,0
          -115.1811153,36.1199895,0
          -115.1810553,36.1200395,0
          -115.1810453,36.1200495,0
          -115.1809953,36.1200895,0
          -115.1809353,36.1201395,0
          -115.1809153,36.1201495,0
          -115.1808453,36.1201895,0
          -115.1807553,36.1202595,0
          -115.1806453,36.1203295,0
          -115.1806053,36.1203595,0
          -115.1805753,36.1203795,0
          -115.1804553,36.1204395,0
          -115.1803853,36.1204795,0
          -115.1803253,36.1205095,0
          -115.1801553,36.1206195,0
          -115.1800653,36.1206795,0
          -115.1799802,36.1207381,0
          -115.1798095,36.1208952,0
          -115.1797575,36.1209435,0
          -115.1796918,36.1210133,0
          -115.1796363,36.1210587,0
          -115.1795843,36.1211322,0
          -115.1795227,36.12123,0
          -115.1793143,36.1215586,0
          -115.1792203,36.1216913,0
          -115.1790589,36.1219473,0
          -115.1788773,36.1222396,0
          -115.1787343,36.1224778,0
          -115.1786149,36.1226748,0
          -115.1785648,36.1227895,0
          -115.1785198,36.1228744,0
          -115.1784138,36.12306,0
          -115.1782103,36.1234395,0
          -115.1779768,36.1238438,0
          -115.1778688,36.1240338,0
          -115.1777628,36.1242135,0
          -115.1776568,36.1243714,0
          -115.1774865,36.1246468,0
          -115.1774274,36.1247389,0
          -115.1769538,36.1254589,0
          -115.1768881,36.1255603,0
          -115.1766496,36.1259654,0
          -115.1765437,36.1260887,0
          -115.1764435,36.1262188,0
          -115.1762512,36.1264854,0
          -115.1761825,36.1266168,0
          -115.1760726,36.1267849,0
          -115.1759695,36.1269435,0
          -115.1758426,36.1271292,0
          -115.1757048,36.127343,0
          -115.1756478,36.1274222,0
          -115.1755493,36.1275263,0
          -115.1754054,36.127741,0
          -115.1753688,36.1277665,0
          -115.175325,36.1277568,0
          -115.1752856,36.1277473,0
          -115.175274,36.127743,0
          -115.1752553,36.1277395,0
          -115.1752353,36.1277295,0
          -115.1751953,36.1277195,0
          -115.1751253,36.1276995,0
          -115.1750753,36.1276895,0
          -115.1750203,36.1276844,0
          -115.1749933,36.1276727,0
          -115.1750447,36.1273584,0
          -115.1750537,36.1272944,0
          -115.1750564,36.1272138,0
          -115.1750363,36.1271744,0
          -115.1750066,36.1271525,0
          -115.1749753,36.1271414,0
          -115.1748453,36.1271206,0
          -115.1746373,36.1270941,0
          -115.1745646,36.1270873,0
          -115.1744956,36.1270803,0
          -115.1743853,36.1270695,0
          -115.1740453,36.1270444,0
          -115.1740026,36.1270408,0
          -115.173928,36.1270341,0
          -115.1739136,36.1270292,0
          -115.1738956,36.1270208,0
          -115.1738853,36.1270111,0
          -115.1738793,36.1270003,0
          -115.173877,36.1269906,0
          -115.1738777,36.1269806,0
          -115.1739137,36.1268012,0
          -115.173944,36.1265857,0
          -115.1739427,36.126543,0
          -115.1739277,36.1265116,0
          -115.1738876,36.1264863,0
          -115.173863,36.1264738,0
          -115.173706,36.1264441,0
          -115.1736756,36.1264368,0
          -115.1735153,36.1263938,0
          -115.1734553,36.1263792,0
          -115.173274,36.1263265,0
          -115.1732053,36.1263038,0
          -115.1731,36.1262722,0
          -115.1725136,36.1260515,0
          -115.1723158,36.1260425,0
          -115.172118,36.1260475,0
          -115.1719175,36.1260602,0
          -115.1717131,36.1260771,0
          -115.1713593,36.1261148,0
          -115.170976,36.1261324,0
          -115.1709817,36.1262156,0
          -115.170999,36.1262659,0
          -115.1710472,36.126287,0
          -115.1710891,36.1263035,0
          -115.1711772,36.1263059,0
          -115.171282,36.1262752,0
        </coordinates>
      </LineString>
    </Placemark>
    <Placemark>
      <name>6775 W Patrick Ln, Las Vegas, NV 89118, USA</name>
      <styleUrl>#icon-1899-DB4436-nodesc</styleUrl>
      <Point>
        <coordinates>
          -115.2399404,36.0778143,0
        </coordinates>
      </Point>
    </Placemark>
    <Placemark>
      <name>100 Spring Mountain Rd, Las Vegas, NV 89109, USA</name>
      <styleUrl>#icon-1899-DB4436-nodesc</styleUrl>
      <Point>
        <coordinates>
          -115.171282,36.1262752,0
        </coordinates>
      </Point>
    </Placemark>
  </Document>
</kml>
