{
    "type":  "FeatureCollection",
    "features":  [
                     {
                         "type":  "Feature",
                         "properties":  {
                                            "name":  "F1 KH to ZONE C Miracle Mile"
                                        },
                         "geometry":  {
                                          "coordinates":  [
                                                              [
                                                                  -115.2399383,
                                                                  36.0778008
                                                              ],
                                                              [
                                                                  -115.2397792,
                                                                  36.0778521
                                                              ],
                                                              [
                                                                  -115.2396039,
                                                                  36.0778623
                                                              ],
                                                              [
                                                                  -115.2392265,
                                                                  36.0778734
                                                              ],
                                                              [
                                                                  -115.2387826,
                                                                  36.0779116
                                                              ],
                                                              [
                                                                  -115.2381846,
                                                                  36.0779192
                                                              ],
                                                              [
                                                                  -115.23757,
                                                                  36.0779305
                                                              ],
                                                              [
                                                                  -115.23595,
                                                                  36.0779707
                                                              ],
                                                              [
                                                                  -115.235565,
                                                                  36.0779737
                                                              ],
                                                              [
                                                                  -115.23518,
                                                                  36.0779659
                                                              ],
                                                              [
                                                                  -115.2345087,
                                                                  36.0779727
                                                              ],
                                                              [
                                                                  -115.23371,
                                                                  36.077984
                                                              ],
                                                              [
                                                                  -115.2336965,
                                                                  36.0781197
                                                              ],
                                                              [
                                                                  -115.2337126,
                                                                  36.0782555
                                                              ],
                                                              [
                                                                  -115.2337326,
                                                                  36.0785411
                                                              ],
                                                              [
                                                                  -115.2337466,
                                                                  36.0788891
                                                              ],
                                                              [
                                                                  -115.2337676,
                                                                  36.0793406
                                                              ],
                                                              [
                                                                  -115.2337926,
                                                                  36.0797922
                                                              ],
                                                              [
                                                                  -115.2338156,
                                                                  36.0803239
                                                              ],
                                                              [
                                                                  -115.2338452,
                                                                  36.0808589
                                                              ],
                                                              [
                                                                  -115.2338592,
                                                                  36.0812434
                                                              ],
                                                              [
                                                                  -115.2338745,
                                                                  36.0816343
                                                              ],
                                                              [
                                                                  -115.2339135,
                                                                  36.0825357
                                                              ],
                                                              [
                                                                  -115.233941,
                                                                  36.082995
                                                              ],
                                                              [
                                                                  -115.2339618,
                                                                  36.0834467
                                                              ],
                                                              [
                                                                  -115.2339862,
                                                                  36.0840584
                                                              ],
                                                              [
                                                                  -115.2339998,
                                                                  36.0846613
                                                              ],
                                                              [
                                                                  -115.2339603,
                                                                  36.0847811
                                                              ],
                                                              [
                                                                  -115.2339757,
                                                                  36.0850022
                                                              ],
                                                              [
                                                                  -115.2339594,
                                                                  36.0851841
                                                              ],
                                                              [
                                                                  -115.2333844,
                                                                  36.0852017
                                                              ],
                                                              [
                                                                  -115.2325379,
                                                                  36.0852106
                                                              ],
                                                              [
                                                                  -115.2318526,
                                                                  36.0852228
                                                              ],
                                                              [
                                                                  -115.2307233,
                                                                  36.0852436
                                                              ],
                                                              [
                                                                  -115.2297,
                                                                  36.0852593
                                                              ],
                                                              [
                                                                  -115.228676,
                                                                  36.0852739
                                                              ],
                                                              [
                                                                  -115.2280897,
                                                                  36.0852773
                                                              ],
                                                              [
                                                                  -115.2277698,
                                                                  36.0852811
                                                              ],
                                                              [
                                                                  -115.2276071,
                                                                  36.085295
                                                              ],
                                                              [
                                                                  -115.2274498,
                                                                  36.0853175
                                                              ],
                                                              [
                                                                  -115.2271898,
                                                                  36.0853225
                                                              ],
                                                              [
                                                                  -115.2270666,
                                                                  36.0853217
                                                              ],
                                                              [
                                                                  -115.2269433,
                                                                  36.0853405
                                                              ],
                                                              [
                                                                  -115.22675,
                                                                  36.08532
                                                              ],
                                                              [
                                                                  -115.2265813,
                                                                  36.0853198
                                                              ],
                                                              [
                                                                  -115.2264307,
                                                                  36.0853235
                                                              ],
                                                              [
                                                                  -115.2263553,
                                                                  36.0853244
                                                              ],
                                                              [
                                                                  -115.22628,
                                                                  36.08531
                                                              ],
                                                              [
                                                                  -115.2261094,
                                                                  36.0852991
                                                              ],
                                                              [
                                                                  -115.2258584,
                                                                  36.0853077
                                                              ],
                                                              [
                                                                  -115.2254087,
                                                                  36.0853227
                                                              ],
                                                              [
                                                                  -115.22451,
                                                                  36.0853592
                                                              ],
                                                              [
                                                                  -115.2240945,
                                                                  36.0853874
                                                              ],
                                                              [
                                                                  -115.2231078,
                                                                  36.0854496
                                                              ],
                                                              [
                                                                  -115.2219939,
                                                                  36.0855096
                                                              ],
                                                              [
                                                                  -115.220952,
                                                                  36.0855563
                                                              ],
                                                              [
                                                                  -115.2200526,
                                                                  36.0856128
                                                              ],
                                                              [
                                                                  -115.218766,
                                                                  36.0856828
                                                              ],
                                                              [
                                                                  -115.2178431,
                                                                  36.0857382
                                                              ],
                                                              [
                                                                  -115.2166127,
                                                                  36.085802
                                                              ],
                                                              [
                                                                  -115.2156433,
                                                                  36.0858652
                                                              ],
                                                              [
                                                                  -115.2145079,
                                                                  36.0859241
                                                              ],
                                                              [
                                                                  -115.2135612,
                                                                  36.0859755
                                                              ],
                                                              [
                                                                  -115.2129257,
                                                                  36.0860163
                                                              ],
                                                              [
                                                                  -115.2126026,
                                                                  36.0860259
                                                              ],
                                                              [
                                                                  -115.2122902,
                                                                  36.0860463
                                                              ],
                                                              [
                                                                  -115.2119385,
                                                                  36.086072
                                                              ],
                                                              [
                                                                  -115.2115679,
                                                                  36.0860891
                                                              ],
                                                              [
                                                                  -115.21009,
                                                                  36.0861626
                                                              ],
                                                              [
                                                                  -115.2091152,
                                                                  36.0862094
                                                              ],
                                                              [
                                                                  -115.2090243,
                                                                  36.0862118
                                                              ],
                                                              [
                                                                  -115.2089057,
                                                                  36.0861999
                                                              ],
                                                              [
                                                                  -115.2085265,
                                                                  36.0862114
                                                              ],
                                                              [
                                                                  -115.2080172,
                                                                  36.086238
                                                              ],
                                                              [
                                                                  -115.2077792,
                                                                  36.0862787
                                                              ],
                                                              [
                                                                  -115.20692,
                                                                  36.0862798
                                                              ],
                                                              [
                                                                  -115.2066406,
                                                                  36.0862746
                                                              ],
                                                              [
                                                                  -115.2065259,
                                                                  36.0862794
                                                              ],
                                                              [
                                                                  -115.2064018,
                                                                  36.0862896
                                                              ],
                                                              [
                                                                  -115.20573,
                                                                  36.0862874
                                                              ],
                                                              [
                                                                  -115.2049427,
                                                                  36.0862809
                                                              ],
                                                              [
                                                                  -115.2047063,
                                                                  36.0862932
                                                              ],
                                                              [
                                                                  -115.20447,
                                                                  36.0863056
                                                              ],
                                                              [
                                                                  -115.2042066,
                                                                  36.0862763
                                                              ],
                                                              [
                                                                  -115.2036991,
                                                                  36.0862752
                                                              ],
                                                              [
                                                                  -115.2032792,
                                                                  36.0862785
                                                              ],
                                                              [
                                                                  -115.2028007,
                                                                  36.0862768
                                                              ],
                                                              [
                                                                  -115.2021674,
                                                                  36.0862766
                                                              ],
                                                              [
                                                                  -115.201518,
                                                                  36.0862755
                                                              ],
                                                              [
                                                                  -115.2010741,
                                                                  36.0862723
                                                              ],
                                                              [
                                                                  -115.2004027,
                                                                  36.0862706
                                                              ],
                                                              [
                                                                  -115.2000276,
                                                                  36.0862679
                                                              ],
                                                              [
                                                                  -115.1996034,
                                                                  36.0862675
                                                              ],
                                                              [
                                                                  -115.1991927,
                                                                  36.0862709
                                                              ],
                                                              [
                                                                  -115.1988207,
                                                                  36.0862648
                                                              ],
                                                              [
                                                                  -115.1984487,
                                                                  36.0862652
                                                              ],
                                                              [
                                                                  -115.1978307,
                                                                  36.0862658
                                                              ],
                                                              [
                                                                  -115.1973607,
                                                                  36.0862666
                                                              ],
                                                              [
                                                                  -115.1969013,
                                                                  36.0862679
                                                              ],
                                                              [
                                                                  -115.1964933,
                                                                  36.0862706
                                                              ],
                                                              [
                                                                  -115.1958601,
                                                                  36.0862701
                                                              ],
                                                              [
                                                                  -115.1953435,
                                                                  36.086266
                                                              ],
                                                              [
                                                                  -115.195202,
                                                                  36.0862428
                                                              ],
                                                              [
                                                                  -115.194867,
                                                                  36.0862626
                                                              ],
                                                              [
                                                                  -115.1945321,
                                                                  36.086265
                                                              ],
                                                              [
                                                                  -115.1942921,
                                                                  36.0862593
                                                              ],
                                                              [
                                                                  -115.1936601,
                                                                  36.0862705
                                                              ],
                                                              [
                                                                  -115.1930301,
                                                                  36.0862785
                                                              ],
                                                              [
                                                                  -115.1926899,
                                                                  36.0862736
                                                              ],
                                                              [
                                                                  -115.1922521,
                                                                  36.0862677
                                                              ],
                                                              [
                                                                  -115.1919787,
                                                                  36.0862804
                                                              ],
                                                              [
                                                                  -115.1917073,
                                                                  36.0862817
                                                              ],
                                                              [
                                                                  -115.1911753,
                                                                  36.086284
                                                              ],
                                                              [
                                                                  -115.1909518,
                                                                  36.0863017
                                                              ],
                                                              [
                                                                  -115.1907168,
                                                                  36.0863109
                                                              ],
                                                              [
                                                                  -115.1903424,
                                                                  36.0863086
                                                              ],
                                                              [
                                                                  -115.1899948,
                                                                  36.0863095
                                                              ],
                                                              [
                                                                  -115.1897826,
                                                                  36.0863369
                                                              ],
                                                              [
                                                                  -115.189764,
                                                                  36.086415
                                                              ],
                                                              [
                                                                  -115.189766,
                                                                  36.0865711
                                                              ],
                                                              [
                                                                  -115.1897659,
                                                                  36.08672
                                                              ],
                                                              [
                                                                  -115.1897706,
                                                                  36.0870746
                                                              ],
                                                              [
                                                                  -115.1897906,
                                                                  36.0872522
                                                              ],
                                                              [
                                                                  -115.1897993,
                                                                  36.0875846
                                                              ],
                                                              [
                                                                  -115.1897993,
                                                                  36.0881189
                                                              ],
                                                              [
                                                                  -115.1897879,
                                                                  36.0883733
                                                              ],
                                                              [
                                                                  -115.1897885,
                                                                  36.0886384
                                                              ],
                                                              [
                                                                  -115.1897839,
                                                                  36.0889424
                                                              ],
                                                              [
                                                                  -115.1897832,
                                                                  36.0891284
                                                              ],
                                                              [
                                                                  -115.1897846,
                                                                  36.0894589
                                                              ],
                                                              [
                                                                  -115.1897859,
                                                                  36.08976
                                                              ],
                                                              [
                                                                  -115.1897893,
                                                                  36.08998
                                                              ],
                                                              [
                                                                  -115.1897903,
                                                                  36.0902473
                                                              ],
                                                              [
                                                                  -115.1897849,
                                                                  36.0904122
                                                              ],
                                                              [
                                                                  -115.1897823,
                                                                  36.090636
                                                              ],
                                                              [
                                                                  -115.1897843,
                                                                  36.0908633
                                                              ],
                                                              [
                                                                  -115.1897829,
                                                                  36.0911254
                                                              ],
                                                              [
                                                                  -115.1897809,
                                                                  36.0914627
                                                              ],
                                                              [
                                                                  -115.1897816,
                                                                  36.0918022
                                                              ],
                                                              [
                                                                  -115.1897793,
                                                                  36.0920643
                                                              ],
                                                              [
                                                                  -115.189777,
                                                                  36.0923151
                                                              ],
                                                              [
                                                                  -115.1897776,
                                                                  36.0926349
                                                              ],
                                                              [
                                                                  -115.18979,
                                                                  36.09286
                                                              ],
                                                              [
                                                                  -115.1897746,
                                                                  36.0930434
                                                              ],
                                                              [
                                                                  -115.1897773,
                                                                  36.0932295
                                                              ],
                                                              [
                                                                  -115.1897763,
                                                                  36.0934103
                                                              ],
                                                              [
                                                                  -115.1897767,
                                                                  36.0936595
                                                              ],
                                                              [
                                                                  -115.189778,
                                                                  36.0938616
                                                              ],
                                                              [
                                                                  -115.1897774,
                                                                  36.0940619
                                                              ],
                                                              [
                                                                  -115.1897747,
                                                                  36.0942589
                                                              ],
                                                              [
                                                                  -115.18978,
                                                                  36.09444
                                                              ],
                                                              [
                                                                  -115.1897735,
                                                                  36.0947792
                                                              ],
                                                              [
                                                                  -115.1897742,
                                                                  36.0950047
                                                              ],
                                                              [
                                                                  -115.1897675,
                                                                  36.0952525
                                                              ],
                                                              [
                                                                  -115.1897701,
                                                                  36.0954668
                                                              ],
                                                              [
                                                                  -115.1897719,
                                                                  36.095709
                                                              ],
                                                              [
                                                                  -115.1897682,
                                                                  36.0959484
                                                              ],
                                                              [
                                                                  -115.1897662,
                                                                  36.0961919
                                                              ],
                                                              [
                                                                  -115.1897615,
                                                                  36.0964357
                                                              ],
                                                              [
                                                                  -115.1897615,
                                                                  36.0967405
                                                              ],
                                                              [
                                                                  -115.1897736,
                                                                  36.0969126
                                                              ],
                                                              [
                                                                  -115.1897695,
                                                                  36.0972495
                                                              ],
                                                              [
                                                                  -115.1897709,
                                                                  36.0976131
                                                              ],
                                                              [
                                                                  -115.1897689,
                                                                  36.097967
                                                              ],
                                                              [
                                                                  -115.1897705,
                                                                  36.0983223
                                                              ],
                                                              [
                                                                  -115.1897689,
                                                                  36.0986695
                                                              ],
                                                              [
                                                                  -115.1897669,
                                                                  36.0988778
                                                              ],
                                                              [
                                                                  -115.1897662,
                                                                  36.0991282
                                                              ],
                                                              [
                                                                  -115.1897652,
                                                                  36.0994056
                                                              ],
                                                              [
                                                                  -115.1897669,
                                                                  36.0996754
                                                              ],
                                                              [
                                                                  -115.1897695,
                                                                  36.0998232
                                                              ],
                                                              [
                                                                  -115.1897882,
                                                                  36.0999775
                                                              ],
                                                              [
                                                                  -115.1897844,
                                                                  36.1002151
                                                              ],
                                                              [
                                                                  -115.1897592,
                                                                  36.1004635
                                                              ],
                                                              [
                                                                  -115.1897324,
                                                                  36.1008192
                                                              ],
                                                              [
                                                                  -115.1897334,
                                                                  36.101127
                                                              ],
                                                              [
                                                                  -115.1897519,
                                                                  36.1012434
                                                              ],
                                                              [
                                                                  -115.1897489,
                                                                  36.101363
                                                              ],
                                                              [
                                                                  -115.1897762,
                                                                  36.1016802
                                                              ],
                                                              [
                                                                  -115.1897995,
                                                                  36.1019422
                                                              ],
                                                              [
                                                                  -115.1897881,
                                                                  36.1022701
                                                              ],
                                                              [
                                                                  -115.189773,
                                                                  36.1025761
                                                              ],
                                                              [
                                                                  -115.1897667,
                                                                  36.102874
                                                              ],
                                                              [
                                                                  -115.1897653,
                                                                  36.1031589
                                                              ],
                                                              [
                                                                  -115.1897717,
                                                                  36.103396
                                                              ],
                                                              [
                                                                  -115.1897714,
                                                                  36.1036417
                                                              ],
                                                              [
                                                                  -115.1897673,
                                                                  36.1039548
                                                              ],
                                                              [
                                                                  -115.1897647,
                                                                  36.1041783
                                                              ],
                                                              [
                                                                  -115.1897613,
                                                                  36.1044262
                                                              ],
                                                              [
                                                                  -115.1897619,
                                                                  36.1045447
                                                              ],
                                                              [
                                                                  -115.1897765,
                                                                  36.10466
                                                              ],
                                                              [
                                                                  -115.1897782,
                                                                  36.1051123
                                                              ],
                                                              [
                                                                  -115.1897777,
                                                                  36.1053401
                                                              ],
                                                              [
                                                                  -115.1897812,
                                                                  36.1055673
                                                              ],
                                                              [
                                                                  -115.1897588,
                                                                  36.105747
                                                              ],
                                                              [
                                                                  -115.1897452,
                                                                  36.10591
                                                              ],
                                                              [
                                                                  -115.1897186,
                                                                  36.1061353
                                                              ],
                                                              [
                                                                  -115.1896613,
                                                                  36.1063828
                                                              ],
                                                              [
                                                                  -115.1895435,
                                                                  36.1066587
                                                              ],
                                                              [
                                                                  -115.1894558,
                                                                  36.1068203
                                                              ],
                                                              [
                                                                  -115.1893581,
                                                                  36.1069743
                                                              ],
                                                              [
                                                                  -115.1892087,
                                                                  36.1071643
                                                              ],
                                                              [
                                                                  -115.1889746,
                                                                  36.1074546
                                                              ],
                                                              [
                                                                  -115.1887806,
                                                                  36.1077367
                                                              ],
                                                              [
                                                                  -115.1886152,
                                                                  36.1079846
                                                              ],
                                                              [
                                                                  -115.188563,
                                                                  36.108072
                                                              ],
                                                              [
                                                                  -115.1884919,
                                                                  36.1081508
                                                              ],
                                                              [
                                                                  -115.1883773,
                                                                  36.1082513
                                                              ],
                                                              [
                                                                  -115.1882011,
                                                                  36.1083465
                                                              ],
                                                              [
                                                                  -115.1880865,
                                                                  36.1083808
                                                              ],
                                                              [
                                                                  -115.1879733,
                                                                  36.1084043
                                                              ],
                                                              [
                                                                  -115.18785,
                                                                  36.1084117
                                                              ],
                                                              [
                                                                  -115.1877266,
                                                                  36.1084072
                                                              ],
                                                              [
                                                                  -115.18747,
                                                                  36.10839
                                                              ],
                                                              [
                                                                  -115.18732,
                                                                  36.1084057
                                                              ],
                                                              [
                                                                  -115.18708,
                                                                  36.10836
                                                              ],
                                                              [
                                                                  -115.186868,
                                                                  36.1083251
                                                              ],
                                                              [
                                                                  -115.18642,
                                                                  36.108254
                                                              ],
                                                              [
                                                                  -115.18597,
                                                                  36.1081957
                                                              ],
                                                              [
                                                                  -115.18562,
                                                                  36.1081692
                                                              ],
                                                              [
                                                                  -115.1852743,
                                                                  36.1081355
                                                              ],
                                                              [
                                                                  -115.1850032,
                                                                  36.1081238
                                                              ],
                                                              [
                                                                  -115.184732,
                                                                  36.1081154
                                                              ],
                                                              [
                                                                  -115.18431,
                                                                  36.1081124
                                                              ],
                                                              [
                                                                  -115.1839987,
                                                                  36.1081057
                                                              ],
                                                              [
                                                                  -115.1834,
                                                                  36.1080946
                                                              ],
                                                              [
                                                                  -115.18296,
                                                                  36.10809
                                                              ],
                                                              [
                                                                  -115.18267,
                                                                  36.10809
                                                              ],
                                                              [
                                                                  -115.182228,
                                                                  36.1080862
                                                              ],
                                                              [
                                                                  -115.181804,
                                                                  36.1080799
                                                              ],
                                                              [
                                                                  -115.18138,
                                                                  36.1080713
                                                              ],
                                                              [
                                                                  -115.18102,
                                                                  36.10807
                                                              ],
                                                              [
                                                                  -115.18044,
                                                                  36.1080462
                                                              ],
                                                              [
                                                                  -115.1802579,
                                                                  36.108026
                                                              ],
                                                              [
                                                                  -115.1800617,
                                                                  36.1080215
                                                              ],
                                                              [
                                                                  -115.1797373,
                                                                  36.1080218
                                                              ],
                                                              [
                                                                  -115.17958,
                                                                  36.108
                                                              ],
                                                              [
                                                                  -115.1795,
                                                                  36.10798
                                                              ],
                                                              [
                                                                  -115.17946,
                                                                  36.10797
                                                              ],
                                                              [
                                                                  -115.1791607,
                                                                  36.10796
                                                              ],
                                                              [
                                                                  -115.17878,
                                                                  36.10797
                                                              ],
                                                              [
                                                                  -115.1786113,
                                                                  36.107987
                                                              ],
                                                              [
                                                                  -115.178472,
                                                                  36.1080149
                                                              ],
                                                              [
                                                                  -115.17812,
                                                                  36.10811
                                                              ],
                                                              [
                                                                  -115.178034,
                                                                  36.1081338
                                                              ],
                                                              [
                                                                  -115.17786,
                                                                  36.1081043
                                                              ],
                                                              [
                                                                  -115.1777589,
                                                                  36.1081119
                                                              ],
                                                              [
                                                                  -115.17769,
                                                                  36.1081
                                                              ],
                                                              [
                                                                  -115.17757,
                                                                  36.10807
                                                              ],
                                                              [
                                                                  -115.17748,
                                                                  36.10807
                                                              ],
                                                              [
                                                                  -115.17735,
                                                                  36.10809
                                                              ],
                                                              [
                                                                  -115.17718,
                                                                  36.10816
                                                              ],
                                                              [
                                                                  -115.17708,
                                                                  36.10826
                                                              ],
                                                              [
                                                                  -115.17702,
                                                                  36.10835
                                                              ],
                                                              [
                                                                  -115.1769923,
                                                                  36.1084295
                                                              ],
                                                              [
                                                                  -115.17699,
                                                                  36.10851
                                                              ],
                                                              [
                                                                  -115.1769996,
                                                                  36.1085872
                                                              ],
                                                              [
                                                                  -115.17702,
                                                                  36.10866
                                                              ],
                                                              [
                                                                  -115.17705,
                                                                  36.10874
                                                              ],
                                                              [
                                                                  -115.17708,
                                                                  36.1088
                                                              ],
                                                              [
                                                                  -115.1771233,
                                                                  36.1088637
                                                              ]
                                                          ],
                                          "type":  "LineString"
                                      }
                     }
                 ]
}
