<?xml version="1.0" encoding="UTF-8"?>
<kml xmlns="http://www.opengis.net/kml/2.2">
  <Document>
    <name>F1 KH to ZONE C Miracle Mile</name>
    <Style id="icon-1899-DB4436-nodesc-normal">
      <IconStyle>
        <color>ff3644db</color>
        <scale>1</scale>
        <Icon>
          <href>https://www.gstatic.com/mapspro/images/stock/503-wht-blank_maps.png</href>
        </Icon>
        <hotSpot x="32" xunits="pixels" y="64" yunits="insetPixels"/>
      </IconStyle>
      <LabelStyle>
        <scale>0</scale>
      </LabelStyle>
      <BalloonStyle>
        <text><![CDATA[<h3>$[name]</h3>]]></text>
      </BalloonStyle>
    </Style>
    <Style id="icon-1899-DB4436-nodesc-highlight">
      <IconStyle>
        <color>ff3644db</color>
        <scale>1</scale>
        <Icon>
          <href>https://www.gstatic.com/mapspro/images/stock/503-wht-blank_maps.png</href>
        </Icon>
        <hotSpot x="32" xunits="pixels" y="64" yunits="insetPixels"/>
      </IconStyle>
      <LabelStyle>
        <scale>1</scale>
      </LabelStyle>
      <BalloonStyle>
        <text><![CDATA[<h3>$[name]</h3>]]></text>
      </BalloonStyle>
    </Style>
    <StyleMap id="icon-1899-DB4436-nodesc">
      <Pair>
        <key>normal</key>
        <styleUrl>#icon-1899-DB4436-nodesc-normal</styleUrl>
      </Pair>
      <Pair>
        <key>highlight</key>
        <styleUrl>#icon-1899-DB4436-nodesc-highlight</styleUrl>
      </Pair>
    </StyleMap>
    <Style id="line-1267FF-5000-nodesc-normal">
      <LineStyle>
        <color>ffff6712</color>
        <width>5</width>
      </LineStyle>
      <BalloonStyle>
        <text><![CDATA[<h3>$[name]</h3>]]></text>
      </BalloonStyle>
    </Style>
    <Style id="line-1267FF-5000-nodesc-highlight">
      <LineStyle>
        <color>ffff6712</color>
        <width>7.5</width>
      </LineStyle>
      <BalloonStyle>
        <text><![CDATA[<h3>$[name]</h3>]]></text>
      </BalloonStyle>
    </Style>
    <StyleMap id="line-1267FF-5000-nodesc">
      <Pair>
        <key>normal</key>
        <styleUrl>#line-1267FF-5000-nodesc-normal</styleUrl>
      </Pair>
      <Pair>
        <key>highlight</key>
        <styleUrl>#line-1267FF-5000-nodesc-highlight</styleUrl>
      </Pair>
    </StyleMap>
    <Placemark>
      <name>F1 KH to ZONE C Miracle Mile</name>
      <styleUrl>#line-1267FF-5000-nodesc</styleUrl>
      <LineString>
        <tessellate>1</tessellate>
        <coordinates>
          -115.2399383,36.0778008,0
          -115.2397792,36.0778521,0
          -115.2396039,36.0778623,0
          -115.2392265,36.0778734,0
          -115.2387826,36.0779116,0
          -115.2381846,36.0779192,0
          -115.23757,36.0779305,0
          -115.23595,36.0779707,0
          -115.235565,36.0779737,0
          -115.23518,36.0779659,0
          -115.2345087,36.0779727,0
          -115.23371,36.077984,0
          -115.2336965,36.0781197,0
          -115.2337126,36.0782555,0
          -115.2337326,36.0785411,0
          -115.2337466,36.0788891,0
          -115.2337676,36.0793406,0
          -115.2337926,36.0797922,0
          -115.2338156,36.0803239,0
          -115.2338452,36.0808589,0
          -115.2338592,36.0812434,0
          -115.2338745,36.0816343,0
          -115.2339135,36.0825357,0
          -115.233941,36.082995,0
          -115.2339618,36.0834467,0
          -115.2339862,36.0840584,0
          -115.2339998,36.0846613,0
          -115.2339603,36.0847811,0
          -115.2339757,36.0850022,0
          -115.2339594,36.0851841,0
          -115.2333844,36.0852017,0
          -115.2325379,36.0852106,0
          -115.2318526,36.0852228,0
          -115.2307233,36.0852436,0
          -115.2297,36.0852593,0
          -115.228676,36.0852739,0
          -115.2280897,36.0852773,0
          -115.2277698,36.0852811,0
          -115.2276071,36.085295,0
          -115.2274498,36.0853175,0
          -115.2271898,36.0853225,0
          -115.2270666,36.0853217,0
          -115.2269433,36.0853405,0
          -115.22675,36.08532,0
          -115.2265813,36.0853198,0
          -115.2264307,36.0853235,0
          -115.2263553,36.0853244,0
          -115.22628,36.08531,0
          -115.2261094,36.0852991,0
          -115.2258584,36.0853077,0
          -115.2254087,36.0853227,0
          -115.22451,36.0853592,0
          -115.2240945,36.0853874,0
          -115.2231078,36.0854496,0
          -115.2219939,36.0855096,0
          -115.220952,36.0855563,0
          -115.2200526,36.0856128,0
          -115.218766,36.0856828,0
          -115.2178431,36.0857382,0
          -115.2166127,36.085802,0
          -115.2156433,36.0858652,0
          -115.2145079,36.0859241,0
          -115.2135612,36.0859755,0
          -115.2129257,36.0860163,0
          -115.2126026,36.0860259,0
          -115.2122902,36.0860463,0
          -115.2119385,36.086072,0
          -115.2115679,36.0860891,0
          -115.21009,36.0861626,0
          -115.2091152,36.0862094,0
          -115.2090243,36.0862118,0
          -115.2089057,36.0861999,0
          -115.2085265,36.0862114,0
          -115.2080172,36.086238,0
          -115.2077792,36.0862787,0
          -115.20692,36.0862798,0
          -115.2066406,36.0862746,0
          -115.2065259,36.0862794,0
          -115.2064018,36.0862896,0
          -115.20573,36.0862874,0
          -115.2049427,36.0862809,0
          -115.2047063,36.0862932,0
          -115.20447,36.0863056,0
          -115.2042066,36.0862763,0
          -115.2036991,36.0862752,0
          -115.2032792,36.0862785,0
          -115.2028007,36.0862768,0
          -115.2021674,36.0862766,0
          -115.201518,36.0862755,0
          -115.2010741,36.0862723,0
          -115.2004027,36.0862706,0
          -115.2000276,36.0862679,0
          -115.1996034,36.0862675,0
          -115.1991927,36.0862709,0
          -115.1988207,36.0862648,0
          -115.1984487,36.0862652,0
          -115.1978307,36.0862658,0
          -115.1973607,36.0862666,0
          -115.1969013,36.0862679,0
          -115.1964933,36.0862706,0
          -115.1958601,36.0862701,0
          -115.1953435,36.086266,0
          -115.195202,36.0862428,0
          -115.194867,36.0862626,0
          -115.1945321,36.086265,0
          -115.1942921,36.0862593,0
          -115.1936601,36.0862705,0
          -115.1930301,36.0862785,0
          -115.1926899,36.0862736,0
          -115.1922521,36.0862677,0
          -115.1919787,36.0862804,0
          -115.1917073,36.0862817,0
          -115.1911753,36.086284,0
          -115.1909518,36.0863017,0
          -115.1907168,36.0863109,0
          -115.1903424,36.0863086,0
          -115.1899948,36.0863095,0
          -115.1897826,36.0863369,0
          -115.189764,36.086415,0
          -115.189766,36.0865711,0
          -115.1897659,36.08672,0
          -115.1897706,36.0870746,0
          -115.1897906,36.0872522,0
          -115.1897993,36.0875846,0
          -115.1897993,36.0881189,0
          -115.1897879,36.0883733,0
          -115.1897885,36.0886384,0
          -115.1897839,36.0889424,0
          -115.1897832,36.0891284,0
          -115.1897846,36.0894589,0
          -115.1897859,36.08976,0
          -115.1897893,36.08998,0
          -115.1897903,36.0902473,0
          -115.1897849,36.0904122,0
          -115.1897823,36.090636,0
          -115.1897843,36.0908633,0
          -115.1897829,36.0911254,0
          -115.1897809,36.0914627,0
          -115.1897816,36.0918022,0
          -115.1897793,36.0920643,0
          -115.189777,36.0923151,0
          -115.1897776,36.0926349,0
          -115.18979,36.09286,0
          -115.1897746,36.0930434,0
          -115.1897773,36.0932295,0
          -115.1897763,36.0934103,0
          -115.1897767,36.0936595,0
          -115.189778,36.0938616,0
          -115.1897774,36.0940619,0
          -115.1897747,36.0942589,0
          -115.18978,36.09444,0
          -115.1897735,36.0947792,0
          -115.1897742,36.0950047,0
          -115.1897675,36.0952525,0
          -115.1897701,36.0954668,0
          -115.1897719,36.095709,0
          -115.1897682,36.0959484,0
          -115.1897662,36.0961919,0
          -115.1897615,36.0964357,0
          -115.1897615,36.0967405,0
          -115.1897736,36.0969126,0
          -115.1897695,36.0972495,0
          -115.1897709,36.0976131,0
          -115.1897689,36.097967,0
          -115.1897705,36.0983223,0
          -115.1897689,36.0986695,0
          -115.1897669,36.0988778,0
          -115.1897662,36.0991282,0
          -115.1897652,36.0994056,0
          -115.1897669,36.0996754,0
          -115.1897695,36.0998232,0
          -115.1897882,36.0999775,0
          -115.1897844,36.1002151,0
          -115.1897592,36.1004635,0
          -115.1897324,36.1008192,0
          -115.1897334,36.101127,0
          -115.1897519,36.1012434,0
          -115.1897489,36.101363,0
          -115.1897762,36.1016802,0
          -115.1897995,36.1019422,0
          -115.1897881,36.1022701,0
          -115.189773,36.1025761,0
          -115.1897667,36.102874,0
          -115.1897653,36.1031589,0
          -115.1897717,36.103396,0
          -115.1897714,36.1036417,0
          -115.1897673,36.1039548,0
          -115.1897647,36.1041783,0
          -115.1897613,36.1044262,0
          -115.1897619,36.1045447,0
          -115.1897765,36.10466,0
          -115.1897782,36.1051123,0
          -115.1897777,36.1053401,0
          -115.1897812,36.1055673,0
          -115.1897588,36.105747,0
          -115.1897452,36.10591,0
          -115.1897186,36.1061353,0
          -115.1896613,36.1063828,0
          -115.1895435,36.1066587,0
          -115.1894558,36.1068203,0
          -115.1893581,36.1069743,0
          -115.1892087,36.1071643,0
          -115.1889746,36.1074546,0
          -115.1887806,36.1077367,0
          -115.1886152,36.1079846,0
          -115.188563,36.108072,0
          -115.1884919,36.1081508,0
          -115.1883773,36.1082513,0
          -115.1882011,36.1083465,0
          -115.1880865,36.1083808,0
          -115.1879733,36.1084043,0
          -115.18785,36.1084117,0
          -115.1877266,36.1084072,0
          -115.18747,36.10839,0
          -115.18732,36.1084057,0
          -115.18708,36.10836,0
          -115.186868,36.1083251,0
          -115.18642,36.108254,0
          -115.18597,36.1081957,0
          -115.18562,36.1081692,0
          -115.1852743,36.1081355,0
          -115.1850032,36.1081238,0
          -115.184732,36.1081154,0
          -115.18431,36.1081124,0
          -115.1839987,36.1081057,0
          -115.1834,36.1080946,0
          -115.18296,36.10809,0
          -115.18267,36.10809,0
          -115.182228,36.1080862,0
          -115.181804,36.1080799,0
          -115.18138,36.1080713,0
          -115.18102,36.10807,0
          -115.18044,36.1080462,0
          -115.1802579,36.108026,0
          -115.1800617,36.1080215,0
          -115.1797373,36.1080218,0
          -115.17958,36.108,0
          -115.1795,36.10798,0
          -115.17946,36.10797,0
          -115.1791607,36.10796,0
          -115.17878,36.10797,0
          -115.1786113,36.107987,0
          -115.178472,36.1080149,0
          -115.17812,36.10811,0
          -115.178034,36.1081338,0
          -115.17786,36.1081043,0
          -115.1777589,36.1081119,0
          -115.17769,36.1081,0
          -115.17757,36.10807,0
          -115.17748,36.10807,0
          -115.17735,36.10809,0
          -115.17718,36.10816,0
          -115.17708,36.10826,0
          -115.17702,36.10835,0
          -115.1769923,36.1084295,0
          -115.17699,36.10851,0
          -115.1769996,36.1085872,0
          -115.17702,36.10866,0
          -115.17705,36.10874,0
          -115.17708,36.1088,0
          -115.1771233,36.1088637,0
        </coordinates>
      </LineString>
    </Placemark>
    <Placemark>
      <name>6775 W Patrick Ln, Las Vegas, NV 89118, USA</name>
      <styleUrl>#icon-1899-DB4436-nodesc</styleUrl>
      <Point>
        <coordinates>
          -115.2399383,36.0778008,0
        </coordinates>
      </Point>
    </Placemark>
    <Placemark>
      <name>2550 W Harmon Ave, Las Vegas, NV 89109, USA</name>
      <styleUrl>#icon-1899-DB4436-nodesc</styleUrl>
      <Point>
        <coordinates>
          -115.1771233,36.1088637,0
        </coordinates>
      </Point>
    </Placemark>
  </Document>
</kml>
