<?xml version="1.0" encoding="UTF-8"?>
<kml xmlns="http://www.opengis.net/kml/2.2">
  <Document>
    <name>F1 KH to ZONE D PARK MGM RIDESHARE</name>
    <Style id="icon-1899-DB4436-nodesc-normal">
      <IconStyle>
        <color>ff3644db</color>
        <scale>1</scale>
        <Icon>
          <href>https://www.gstatic.com/mapspro/images/stock/503-wht-blank_maps.png</href>
        </Icon>
        <hotSpot x="32" xunits="pixels" y="64" yunits="insetPixels"/>
      </IconStyle>
      <LabelStyle>
        <scale>0</scale>
      </LabelStyle>
      <BalloonStyle>
        <text><![CDATA[<h3>$[name]</h3>]]></text>
      </BalloonStyle>
    </Style>
    <Style id="icon-1899-DB4436-nodesc-highlight">
      <IconStyle>
        <color>ff3644db</color>
        <scale>1</scale>
        <Icon>
          <href>https://www.gstatic.com/mapspro/images/stock/503-wht-blank_maps.png</href>
        </Icon>
        <hotSpot x="32" xunits="pixels" y="64" yunits="insetPixels"/>
      </IconStyle>
      <LabelStyle>
        <scale>1</scale>
      </LabelStyle>
      <BalloonStyle>
        <text><![CDATA[<h3>$[name]</h3>]]></text>
      </BalloonStyle>
    </Style>
    <StyleMap id="icon-1899-DB4436-nodesc">
      <Pair>
        <key>normal</key>
        <styleUrl>#icon-1899-DB4436-nodesc-normal</styleUrl>
      </Pair>
      <Pair>
        <key>highlight</key>
        <styleUrl>#icon-1899-DB4436-nodesc-highlight</styleUrl>
      </Pair>
    </StyleMap>
    <Style id="line-1267FF-5000-nodesc-normal">
      <LineStyle>
        <color>ffff6712</color>
        <width>5</width>
      </LineStyle>
      <BalloonStyle>
        <text><![CDATA[<h3>$[name]</h3>]]></text>
      </BalloonStyle>
    </Style>
    <Style id="line-1267FF-5000-nodesc-highlight">
      <LineStyle>
        <color>ffff6712</color>
        <width>7.5</width>
      </LineStyle>
      <BalloonStyle>
        <text><![CDATA[<h3>$[name]</h3>]]></text>
      </BalloonStyle>
    </Style>
    <StyleMap id="line-1267FF-5000-nodesc">
      <Pair>
        <key>normal</key>
        <styleUrl>#line-1267FF-5000-nodesc-normal</styleUrl>
      </Pair>
      <Pair>
        <key>highlight</key>
        <styleUrl>#line-1267FF-5000-nodesc-highlight</styleUrl>
      </Pair>
    </StyleMap>
    <Placemark>
      <name>6775 W Patrick Ln, Las Vegas, NV 89118, USA</name>
      <styleUrl>#icon-1899-DB4436-nodesc</styleUrl>
      <Point>
        <coordinates>
          -115.2399435,36.0777911,0
        </coordinates>
      </Point>
    </Placemark>
    <Placemark>
      <name>3770 S Las Vegas Blvd, Las Vegas, NV 89109, USA</name>
      <styleUrl>#icon-1899-DB4436-nodesc</styleUrl>
      <Point>
        <coordinates>
          -115.1773817,36.1051918,0
        </coordinates>
      </Point>
    </Placemark>
    <Placemark>
      <name>F1 KH to ZONE D PARK MGM RIDESHARE</name>
      <styleUrl>#line-1267FF-5000-nodesc</styleUrl>
      <LineString>
        <tessellate>1</tessellate>
        <coordinates>
          -115.2399432,36.077793,0
          -115.2398002,36.0778577,0
          -115.2392087,36.077885,0
          -115.2387621,36.0779102,0
          -115.2384756,36.0779148,0
          -115.238187,36.0779205,0
          -115.2378783,36.0779281,0
          -115.2375807,36.0779324,0
          -115.2371746,36.0779397,0
          -115.2367652,36.0779499,0
          -115.2363578,36.0779624,0
          -115.2359664,36.0779718,0
          -115.2355737,36.0779755,0
          -115.2353764,36.0779719,0
          -115.2351508,36.0779694,0
          -115.2348339,36.077972,0
          -115.2345097,36.0779786,0
          -115.2341144,36.077985,0
          -115.2339056,36.0779862,0
          -115.2337802,36.0779861,0
          -115.2337097,36.0780119,0
          -115.2336923,36.0780683,0
          -115.2336977,36.078134,0
          -115.2337085,36.0782598,0
          -115.2337241,36.0784036,0
          -115.2337356,36.0785416,0
          -115.2337436,36.0787214,0
          -115.2337542,36.0789878,0
          -115.2337682,36.0792553,0
          -115.2337739,36.0793883,0
          -115.2337799,36.079522,0
          -115.2337857,36.0796558,0
          -115.2337902,36.0797919,0
          -115.2337959,36.0798858,0
          -115.2338093,36.0801286,0
          -115.2338228,36.0803731,0
          -115.2338328,36.0806164,0
          -115.2338369,36.080741,0
          -115.2338436,36.0808619,0
          -115.2338616,36.0812461,0
          -115.2338706,36.0814401,0
          -115.2338751,36.0815365,0
          -115.2338775,36.0816902,0
          -115.2338999,36.0821282,0
          -115.2339192,36.0825686,0
          -115.2339306,36.0827881,0
          -115.2339413,36.0830102,0
          -115.2339511,36.0832305,0
          -115.2339608,36.0834495,0
          -115.2339878,36.0840585,0
          -115.2340013,36.0843636,0
          -115.2340068,36.0845196,0
          -115.2339797,36.0847235,0
          -115.233962,36.0847869,0
          -115.2339563,36.084854,0
          -115.2339754,36.0850043,0
          -115.233978,36.0851113,0
          -115.2339753,36.0851645,0
          -115.233943,36.085189,0
          -115.233686,36.0851955,0
          -115.2334545,36.085199,0
          -115.2332416,36.0852023,0
          -115.2329245,36.0852077,0
          -115.2326127,36.0852117,0
          -115.2322533,36.0852188,0
          -115.2318928,36.0852255,0
          -115.2313129,36.0852385,0
          -115.2310331,36.085242,0
          -115.2307421,36.0852491,0
          -115.2302266,36.0852576,0
          -115.2299685,36.0852605,0
          -115.2297128,36.0852612,0
          -115.2293863,36.0852669,0
          -115.2290875,36.0852691,0
          -115.2287022,36.0852782,0
          -115.2281033,36.0852869,0
          -115.2277968,36.0852904,0
          -115.227647,36.0852946,0
          -115.2274984,36.0853156,0
          -115.2273617,36.0853262,0
          -115.2272264,36.0853266,0
          -115.2270824,36.0853281,0
          -115.227045,36.0853285,0
          -115.2270076,36.0853305,0
          -115.2269417,36.0853475,0
          -115.2268933,36.0853494,0
          -115.226849,36.0853431,0
          -115.2267497,36.0853238,0
          -115.226665,36.0853203,0
          -115.2265804,36.0853233,0
          -115.2264307,36.0853325,0
          -115.226316,36.0853301,0
          -115.2262468,36.0852956,0
          -115.2258313,36.0853085,0
          -115.2256208,36.0853152,0
          -115.2250567,36.0853289,0
          -115.2245097,36.0853562,0
          -115.224121,36.085386,0
          -115.2235701,36.0854217,0
          -115.2231028,36.0854466,0
          -115.2225603,36.0854768,0
          -115.2220204,36.085506,0
          -115.2214887,36.0855332,0
          -115.2209852,36.0855577,0
          -115.2205321,36.0855867,0
          -115.220069,36.0856147,0
          -115.2194194,36.0856497,0
          -115.2187838,36.0856858,0
          -115.2182396,36.0857177,0
          -115.2176718,36.0857455,0
          -115.2171618,36.0857745,0
          -115.2165882,36.085806,0
          -115.216119,36.0858317,0
          -115.2156256,36.085865,0
          -115.2151963,36.0858879,0
          -115.2145237,36.0859233,0
          -115.2140217,36.0859487,0
          -115.213569,36.0859763,0
          -115.212907,36.0860157,0
          -115.2122792,36.0860384,0
          -115.2120886,36.086064,0
          -115.2118979,36.0860766,0
          -115.2113873,36.0860937,0
          -115.2109101,36.0861193,0
          -115.2104724,36.0861419,0
          -115.2100736,36.0861628,0
          -115.209581,36.0861874,0
          -115.2090924,36.0862078,0
          -115.2089222,36.086204,0
          -115.2088183,36.0861948,0
          -115.2087143,36.0862008,0
          -115.2084984,36.0862116,0
          -115.2080605,36.0862372,0
          -115.2076682,36.0862421,0
          -115.2072926,36.0862483,0
          -115.2068976,36.0862513,0
          -115.2066646,36.0862437,0
          -115.2064317,36.0862557,0
          -115.2057592,36.0862551,0
          -115.2053515,36.0862511,0
          -115.204939,36.0862497,0
          -115.2046385,36.0862636,0
          -115.2044625,36.0862752,0
          -115.2042893,36.0862424,0
          -115.2038228,36.0862414,0
          -115.2033191,36.0862424,0
          -115.2027998,36.0862414,0
          -115.2024565,36.0862414,0
          -115.2019671,36.0862406,0
          -115.2014721,36.0862379,0
          -115.2010228,36.0862357,0
          -115.2003964,36.0862346,0
          -115.1999448,36.0862314,0
          -115.1992165,36.0862311,0
          -115.1988318,36.0862274,0
          -115.1984115,36.0862276,0
          -115.198059,36.0862292,0
          -115.1976045,36.0862308,0
          -115.1969057,36.0862335,0
          -115.1963569,36.0862357,0
          -115.1958336,36.0862362,0
          -115.1953633,36.086237,0
          -115.195187,36.0862133,0
          -115.1945184,36.0862333,0
          -115.1942991,36.086228,0
          -115.1940799,36.0862303,0
          -115.1935585,36.0862391,0
          -115.193019,36.0862441,0
          -115.1926487,36.0862403,0
          -115.1922363,36.0862149,0
          -115.1917284,36.0862138,0
          -115.1912394,36.0862176,0
          -115.190689,36.0862239,0
          -115.1900066,36.0862215,0
          -115.1895745,36.086218,0
          -115.1889444,36.0862003,0
          -115.1883361,36.0861862,0
          -115.1877847,36.0861727,0
          -115.1872259,36.0861562,0
          -115.1868668,36.0861495,0
          -115.1866632,36.0861446,0
          -115.1864597,36.0861277,0
          -115.1859684,36.0860904,0
          -115.1856197,36.0860534,0
          -115.1851158,36.0859956,0
          -115.1846504,36.0859551,0
          -115.1842717,36.0859481,0
          -115.1838984,36.0859505,0
          -115.183512,36.0859409,0
          -115.1831297,36.0859335,0
          -115.1828417,36.0859308,0
          -115.1825404,36.0859235,0
          -115.1821672,36.0859078,0
          -115.1815894,36.0858788,0
          -115.1809511,36.0858742,0
          -115.1803998,36.0858758,0
          -115.1798911,36.0858642,0
          -115.1793358,36.085861,0
          -115.1789926,36.085848,0
          -115.1785867,36.0858393,0
          -115.1781371,36.0858331,0
          -115.1775178,36.0858245,0
          -115.1772745,36.0858298,0
          -115.1770312,36.0858437,0
          -115.1765503,36.0858688,0
          -115.1764292,36.0858517,0
          -115.1763067,36.0858606,0
          -115.1760645,36.085886,0
          -115.1759918,36.0858909,0
          -115.1759297,36.0858719,0
          -115.1758997,36.0858619,0
          -115.1758397,36.0858219,0
          -115.1757784,36.0857181,0
          -115.1757745,36.0856124,0
          -115.1757757,36.0854319,0
          -115.175777,36.0851608,0
          -115.1757897,36.0850119,0
          -115.1758097,36.0847619,0
          -115.1758451,36.0845835,0
          -115.1759097,36.0844419,0
          -115.1759597,36.0843719,0
          -115.1760544,36.0842652,0
          -115.1761997,36.0841619,0
          -115.1762897,36.0841119,0
          -115.1763797,36.0840719,0
          -115.1764897,36.0840409,0
          -115.1765997,36.0840219,0
          -115.1766897,36.0840119,0
          -115.1770097,36.0840119,0
          -115.1771281,36.0840131,0
          -115.1772397,36.0840219,0
          -115.1773997,36.0840212,0
          -115.1775197,36.0840125,0
          -115.1776397,36.0839919,0
          -115.1777307,36.0839646,0
          -115.1778097,36.0839319,0
          -115.1778904,36.0838859,0
          -115.1780577,36.0837797,0
          -115.1782317,36.0836652,0
          -115.178308,36.0836158,0
          -115.1783805,36.0835757,0
          -115.1784597,36.0835519,0
          -115.178551,36.0835281,0
          -115.1786597,36.0835119,0
          -115.1787297,36.0835119,0
          -115.1787897,36.0835219,0
          -115.1788597,36.0835319,0
          -115.1789351,36.0835531,0
          -115.1789997,36.0835819,0
          -115.1790697,36.0836119,0
          -115.1791097,36.0836419,0
          -115.1791958,36.0837004,0
          -115.1792497,36.0837719,0
          -115.179305,36.083863,0
          -115.1793297,36.0839719,0
          -115.1793343,36.084053,0
          -115.1793297,36.0841119,0
          -115.1792897,36.0842419,0
          -115.1791797,36.0845219,0
          -115.1790497,36.0848919,0
          -115.1789597,36.0851719,0
          -115.1789097,36.0853419,0
          -115.178855,36.0855347,0
          -115.1788097,36.0857319,0
          -115.1787897,36.0858319,0
          -115.1787697,36.0859619,0
          -115.1787597,36.0861219,0
          -115.1787597,36.0861919,0
          -115.1787583,36.0862673,0
          -115.1787697,36.0864219,0
          -115.178783,36.086507,0
          -115.1787997,36.0865919,0
          -115.1788197,36.0866819,0
          -115.1788397,36.0867819,0
          -115.1788676,36.0869124,0
          -115.178911,36.0870424,0
          -115.1789897,36.0872319,0
          -115.1791213,36.0875191,0
          -115.1792597,36.0878019,0
          -115.1793597,36.0880119,0
          -115.179419,36.0881519,0
          -115.1795297,36.0883819,0
          -115.179575,36.0884762,0
          -115.179679,36.0887019,0
          -115.179799,36.0889719,0
          -115.1798403,36.0890846,0
          -115.1799459,36.0894446,0
          -115.1799892,36.0897584,0
          -115.1799956,36.0900886,0
          -115.1799993,36.0904926,0
          -115.179999,36.0908997,0
          -115.1800365,36.0910607,0
          -115.1800352,36.0913597,0
          -115.1800372,36.0915512,0
          -115.1800177,36.09174,0
          -115.1799996,36.0919138,0
          -115.179997,36.0920919,0
          -115.1799993,36.0924185,0
          -115.1800003,36.0926953,0
          -115.1799986,36.0928425,0
          -115.1800009,36.0929908,0
          -115.1800176,36.0932408,0
          -115.1800409,36.0934292,0
          -115.1800489,36.0936497,0
          -115.1800669,36.0939403,0
          -115.1800676,36.0941611,0
          -115.1800669,36.0943814,0
          -115.1800689,36.0946345,0
          -115.1800696,36.0948903,0
          -115.1800696,36.0950819,0
          -115.1800709,36.0952857,0
          -115.1800743,36.0956577,0
          -115.1800692,36.0958459,0
          -115.1800716,36.0960357,0
          -115.1800676,36.0962724,0
          -115.1800596,36.0965403,0
          -115.1800389,36.0967614,0
          -115.1800196,36.0969865,0
          -115.1799897,36.0973119,0
          -115.1799874,36.0974379,0
          -115.179979,36.0977961,0
          -115.179964,36.0981576,0
          -115.179954,36.0984486,0
          -115.1799394,36.0986189,0
          -115.179914,36.0987891,0
          -115.1798174,36.0991002,0
          -115.1797274,36.0992967,0
          -115.1796428,36.0994889,0
          -115.1795697,36.0996319,0
          -115.1794509,36.0999078,0
          -115.1794021,36.1000265,0
          -115.1793942,36.1001314,0
          -115.1793569,36.1004086,0
          -115.1793342,36.1005892,0
          -115.1793056,36.1007819,0
          -115.1792823,36.1010222,0
          -115.1792622,36.1011993,0
          -115.1792375,36.101439,0
          -115.1792149,36.1016792,0
          -115.1792399,36.1018522,0
          -115.1793109,36.1022352,0
          -115.1793623,36.1024062,0
          -115.1794317,36.1025841,0
          -115.1795096,36.1027824,0
          -115.1796123,36.1030319,0
          -115.1796615,36.1032738,0
          -115.1797437,36.1035256,0
          -115.1798056,36.1036614,0
          -115.1797731,36.1037121,0
          -115.1796745,36.1037148,0
          -115.179588,36.1037151,0
          -115.179369,36.1037186,0
          -115.179019,36.1037237,0
          -115.1788633,36.1037248,0
          -115.1786291,36.103727,0
          -115.178393,36.1037289,0
          -115.1781343,36.1037302,0
          -115.1778797,36.1037348,0
          -115.1776984,36.1037686,0
          -115.1775754,36.1037817,0
          -115.1774557,36.1038,0
          -115.1772107,36.103877,0
          -115.1772555,36.103966,0
          -115.1772975,36.1040647,0
          -115.1773526,36.1041553,0
          -115.1773755,36.104247,0
          -115.1773868,36.1043704,0
          -115.1773949,36.1045446,0
          -115.1773897,36.1046919,0
          -115.1773997,36.1049919,0
          -115.1773817,36.1051918,0
        </coordinates>
      </LineString>
    </Placemark>
  </Document>
</kml>
