<?xml version="1.0" encoding="UTF-8"?>
<kml xmlns="http://www.opengis.net/kml/2.2">
  <Document>
    <name>Directions from 100 Spring Mountain Rd, Las Vegas, NV 89109, USA to 6775 W Patrick Ln, Las Vegas, NV 89118, USA</name>
    <Style id="icon-1899-DB4436-nodesc-normal">
      <IconStyle>
        <color>ff3644db</color>
        <scale>1</scale>
        <Icon>
          <href>https://www.gstatic.com/mapspro/images/stock/503-wht-blank_maps.png</href>
        </Icon>
        <hotSpot x="32" xunits="pixels" y="64" yunits="insetPixels"/>
      </IconStyle>
      <LabelStyle>
        <scale>0</scale>
      </LabelStyle>
      <BalloonStyle>
        <text><![CDATA[<h3>$[name]</h3>]]></text>
      </BalloonStyle>
    </Style>
    <Style id="icon-1899-DB4436-nodesc-highlight">
      <IconStyle>
        <color>ff3644db</color>
        <scale>1</scale>
        <Icon>
          <href>https://www.gstatic.com/mapspro/images/stock/503-wht-blank_maps.png</href>
        </Icon>
        <hotSpot x="32" xunits="pixels" y="64" yunits="insetPixels"/>
      </IconStyle>
      <LabelStyle>
        <scale>1</scale>
      </LabelStyle>
      <BalloonStyle>
        <text><![CDATA[<h3>$[name]</h3>]]></text>
      </BalloonStyle>
    </Style>
    <StyleMap id="icon-1899-DB4436-nodesc">
      <Pair>
        <key>normal</key>
        <styleUrl>#icon-1899-DB4436-nodesc-normal</styleUrl>
      </Pair>
      <Pair>
        <key>highlight</key>
        <styleUrl>#icon-1899-DB4436-nodesc-highlight</styleUrl>
      </Pair>
    </StyleMap>
    <Style id="line-1267FF-5000-nodesc-normal">
      <LineStyle>
        <color>ffff6712</color>
        <width>5</width>
      </LineStyle>
      <BalloonStyle>
        <text><![CDATA[<h3>$[name]</h3>]]></text>
      </BalloonStyle>
    </Style>
    <Style id="line-1267FF-5000-nodesc-highlight">
      <LineStyle>
        <color>ffff6712</color>
        <width>7.5</width>
      </LineStyle>
      <BalloonStyle>
        <text><![CDATA[<h3>$[name]</h3>]]></text>
      </BalloonStyle>
    </Style>
    <StyleMap id="line-1267FF-5000-nodesc">
      <Pair>
        <key>normal</key>
        <styleUrl>#line-1267FF-5000-nodesc-normal</styleUrl>
      </Pair>
      <Pair>
        <key>highlight</key>
        <styleUrl>#line-1267FF-5000-nodesc-highlight</styleUrl>
      </Pair>
    </StyleMap>
    <Placemark>
      <name>Sachs Fifth Ave.</name>
      <styleUrl>#icon-1899-DB4436-nodesc</styleUrl>
      <Point>
        <coordinates>
          -115.1725841,36.1262424,0
        </coordinates>
      </Point>
    </Placemark>
    <Placemark>
      <name>6775 W Patrick Ln, Las Vegas, NV 89118, USA</name>
      <styleUrl>#icon-1899-DB4436-nodesc</styleUrl>
      <Point>
        <coordinates>
          -115.239944,36.077792,0
        </coordinates>
      </Point>
    </Placemark>
    <Placemark>
      <name>Directions from 100 Spring Mountain Rd, Las Vegas, NV 89109, USA to 6775 W Patrick Ln, Las Vegas, NV 89118, USA</name>
      <styleUrl>#line-1267FF-5000-nodesc</styleUrl>
      <LineString>
        <tessellate>1</tessellate>
        <coordinates>
          -115.1725841,36.1262424,0
          -115.1727931,36.1262564,0
          -115.172868,36.126187,0
          -115.172753,36.126136,0
          -115.172518,36.126054,0
          -115.172251,36.126044,0
          -115.172037,36.126047,0
          -115.17204,36.125972,0
          -115.1720391,36.1258312,0
          -115.172046,36.1257603,0
          -115.172057,36.125698,0
          -115.172358,36.125701,0
          -115.173031,36.12571,0
          -115.173119,36.125729,0
          -115.173159,36.125816,0
          -115.173267,36.125939,0
          -115.173368,36.126112,0
          -115.173496,36.126229,0
          -115.173686,36.126312,0
          -115.173882,36.126331,0
          -115.174078,36.126334,0
          -115.174639,36.126333,0
          -115.175205,36.12632,0
          -115.175332,36.126281,0
          -115.175505,36.126296,0
          -115.175676,36.126332,0
          -115.175843,36.126392,0
          -115.176406,36.126636,0
          -115.176527,36.126448,0
          -115.176666,36.126334,0
          -115.176795,36.126139,0
          -115.177113,36.125651,0
          -115.177307,36.125351,0
          -115.177474,36.125097,0
          -115.177642,36.124843,0
          -115.177742,36.124689,0
          -115.177867,36.124486,0
          -115.178082,36.12414,0
          -115.178238,36.123887,0
          -115.178434,36.123502,0
          -115.178652,36.123123,0
          -115.178874,36.122757,0
          -115.179138,36.122314,0
          -115.179435,36.121776,0
          -115.179753,36.121282,0
          -115.179859,36.121121,0
          -115.17999,36.120966,0
          -115.180187,36.120768,0
          -115.180347,36.120668,0
          -115.180557,36.120568,0
          -115.180727,36.120468,0
          -115.180997,36.120308,0
          -115.181176,36.12015,0
          -115.181297,36.120023,0
          -115.181421,36.119869,0
          -115.181515,36.119702,0
          -115.181607,36.119493,0
          -115.181662,36.119238,0
          -115.181666,36.118907,0
          -115.181684,36.118686,0
          -115.181732,36.11852,0
          -115.181824,36.118318,0
          -115.181891,36.118213,0
          -115.182031,36.118028,0
          -115.182164,36.117862,0
          -115.182286,36.117665,0
          -115.182501,36.117249,0
          -115.182666,36.116936,0
          -115.182892,36.116503,0
          -115.182986,36.116335,0
          -115.183162,36.116007,0
          -115.183294,36.115746,0
          -115.183458,36.115409,0
          -115.183503,36.115265,0
          -115.183521,36.11511,0
          -115.183536,36.114805,0
          -115.183535,36.114602,0
          -115.183538,36.114157,0
          -115.183532,36.113849,0
          -115.183517,36.113608,0
          -115.183479,36.113479,0
          -115.183348,36.113264,0
          -115.183229,36.113089,0
          -115.18297,36.112849,0
          -115.182652,36.112631,0
          -115.182427,36.112485,0
          -115.182057,36.112224,0
          -115.181699,36.111939,0
          -115.181484,36.111662,0
          -115.181423,36.111508,0
          -115.18138,36.111352,0
          -115.181352,36.111082,0
          -115.181332,36.110787,0
          -115.18132,36.110559,0
          -115.181304,36.110281,0
          -115.181288,36.109872,0
          -115.181293,36.109638,0
          -115.181298,36.10939,0
          -115.181304,36.109128,0
          -115.181308,36.10896,0
          -115.1814,36.108924,0
          -115.181514,36.10892,0
          -115.181703,36.108918,0
          -115.181893,36.108932,0
          -115.182348,36.108978,0
          -115.182463,36.108953,0
          -115.182599,36.108948,0
          -115.182855,36.108947,0
          -115.183027,36.108928,0
          -115.183125,36.108899,0
          -115.183217,36.108858,0
          -115.183262,36.108816,0
          -115.183298,36.108767,0
          -115.183373,36.108632,0
          -115.183404,36.10857,0
          -115.183425,36.1085,0
          -115.183464,36.10834,0
          -115.183479,36.108283,0
          -115.183503,36.108231,0
          -115.184317,36.108243,0
          -115.184897,36.108258,0
          -115.185177,36.108268,0
          -115.18553,36.108304,0
          -115.185927,36.108351,0
          -115.186126,36.108385,0
          -115.186325,36.108412,0
          -115.186556,36.108442,0
          -115.186678,36.108472,0
          -115.18679,36.108518,0
          -115.186843,36.108558,0
          -115.186867,36.108598,0
          -115.186901,36.108651,0
          -115.186917,36.108707,0
          -115.186923,36.108901,0
          -115.186937,36.109146,0
          -115.186967,36.109215,0
          -115.187012,36.109281,0
          -115.187102,36.109373,0
          -115.187197,36.109428,0
          -115.187317,36.109478,0
          -115.187407,36.109498,0
          -115.187497,36.109498,0
          -115.187547,36.109498,0
          -115.187607,36.109488,0
          -115.187717,36.109458,0
          -115.187787,36.109438,0
          -115.187857,36.109408,0
          -115.187967,36.109368,0
          -115.188117,36.109288,0
          -115.188297,36.109158,0
          -115.188407,36.109058,0
          -115.188487,36.108978,0
          -115.188527,36.108928,0
          -115.188547,36.108908,0
          -115.188577,36.108878,0
          -115.188617,36.108828,0
          -115.188667,36.108758,0
          -115.188717,36.108688,0
          -115.188747,36.108638,0
          -115.188827,36.108508,0
          -115.188917,36.108348,0
          -115.189007,36.108178,0
          -115.189097,36.108018,0
          -115.189187,36.107858,0
          -115.189277,36.107698,0
          -115.189457,36.107368,0
          -115.189623,36.107072,0
          -115.189747,36.106818,0
          -115.189781,36.106718,0
          -115.18984,36.106528,0
          -115.189887,36.106338,0
          -115.189917,36.106218,0
          -115.189947,36.106048,0
          -115.189967,36.105848,0
          -115.189967,36.105708,0
          -115.189961,36.105443,0
          -115.189956,36.105048,0
          -115.189944,36.104656,0
          -115.189944,36.104536,0
          -115.189946,36.104338,0
          -115.189944,36.10396,0
          -115.189946,36.103735,0
          -115.189948,36.103507,0
          -115.189945,36.10322,0
          -115.18994,36.102882,0
          -115.189942,36.102607,0
          -115.189952,36.102337,0
          -115.189956,36.101952,0
          -115.189949,36.101817,0
          -115.189947,36.101753,0
          -115.189958,36.101697,0
          -115.189945,36.101387,0
          -115.189946,36.101219,0
          -115.189924,36.101033,0
          -115.18993,36.100927,0
          -115.189947,36.100828,0
          -115.189937,36.100218,0
          -115.189937,36.100198,0
          -115.189942,36.09991,0
          -115.189928,36.099658,0
          -115.18992,36.099365,0
          -115.189923,36.099072,0
          -115.189926,36.098783,0
          -115.189927,36.09856,0
          -115.189925,36.098259,0
          -115.189929,36.097966,0
          -115.189926,36.097603,0
          -115.189925,36.09725,0
          -115.18993,36.097028,0
          -115.18993,36.096699,0
          -115.189927,36.096411,0
          -115.189931,36.096152,0
          -115.189933,36.095906,0
          -115.189929,36.095652,0
          -115.189928,36.095382,0
          -115.189935,36.094965,0
          -115.189937,36.094596,0
          -115.18991,36.094437,0
          -115.189917,36.09435,0
          -115.189937,36.094268,0
          -115.189947,36.094062,0
          -115.189945,36.093891,0
          -115.189937,36.093668,0
          -115.189947,36.093578,0
          -115.189941,36.093336,0
          -115.189941,36.093178,0
          -115.189947,36.092868,0
          -115.189937,36.092653,0
          -115.18994,36.092328,0
          -115.189939,36.09206,0
          -115.189944,36.091789,0
          -115.189937,36.091506,0
          -115.18994,36.091223,0
          -115.18994,36.09105,0
          -115.189944,36.090903,0
          -115.189946,36.090725,0
          -115.189948,36.090391,0
          -115.189949,36.09011,0
          -115.189947,36.089748,0
          -115.189951,36.089499,0
          -115.189947,36.089128,0
          -115.189947,36.088958,0
          -115.189945,36.088649,0
          -115.189953,36.088358,0
          -115.189944,36.088117,0
          -115.189953,36.087853,0
          -115.18996,36.08759,0
          -115.189954,36.087239,0
          -115.189962,36.08715,0
          -115.189985,36.087055,0
          -115.189995,36.086731,0
          -115.190004,36.086488,0
          -115.190018,36.086432,0
          -115.190086,36.086424,0
          -115.19069,36.086425,0
          -115.190888,36.086396,0
          -115.191551,36.086381,0
          -115.192248,36.086385,0
          -115.192637,36.086402,0
          -115.193027,36.086409,0
          -115.193652,36.0864,0
          -115.194273,36.086387,0
          -115.194641,36.0864,0
          -115.194906,36.086394,0
          -115.195168,36.086377,0
          -115.19534,36.086401,0
          -115.195503,36.086404,0
          -115.195837,36.086404,0
          -115.196509,36.086402,0
          -115.196948,36.0864,0
          -115.197829,36.086397,0
          -115.198466,36.086399,0
          -115.199193,36.086393,0
          -115.199991,36.086401,0
          -115.200906,36.086401,0
          -115.201519,36.086406,0
          -115.202151,36.086406,0
          -115.202795,36.086408,0
          -115.203313,36.086409,0
          -115.203866,36.086411,0
          -115.204237,36.086408,0
          -115.204608,36.086412,0
          -115.205125,36.086415,0
          -115.205743,36.086413,0
          -115.206111,36.086413,0
          -115.206296,36.086414,0
          -115.20648,36.086429,0
          -115.206556,36.086436,0
          -115.206645,36.086431,0
          -115.206812,36.086423,0
          -115.207143,36.086426,0
          -115.207824,36.086427,0
          -115.208045,36.086427,0
          -115.208267,36.086418,0
          -115.208517,36.086405,0
          -115.209217,36.086358,0
          -115.209409,36.086329,0
          -115.209602,36.08632,0
          -115.210098,36.086297,0
          -115.210952,36.08625,0
          -115.211591,36.086218,0
          -115.212267,36.086192,0
          -115.212418,36.086167,0
          -115.212583,36.086159,0
          -115.212917,36.086149,0
          -115.213582,36.086109,0
          -115.214149,36.086076,0
          -115.214722,36.086046,0
          -115.215278,36.086016,0
          -115.215886,36.085981,0
          -115.216262,36.085954,0
          -115.216636,36.085939,0
          -115.217369,36.085898,0
          -115.217905,36.085869,0
          -115.218278,36.085847,0
          -115.218789,36.085817,0
          -115.219433,36.085781,0
          -115.220081,36.085745,0
          -115.220963,36.085696,0
          -115.221853,36.085652,0
          -115.222608,36.085611,0
          -115.223149,36.085581,0
          -115.223856,36.08554,0
          -115.224505,36.085493,0
          -115.225247,36.085439,0
          -115.225475,36.085426,0
          -115.226321,36.085419,0
          -115.22664,36.085408,0
          -115.226748,36.085401,0
          -115.226866,36.085386,0
          -115.226963,36.085374,0
          -115.227231,36.085364,0
          -115.227367,36.085365,0
          -115.227502,36.085372,0
          -115.227797,36.085382,0
          -115.228094,36.085381,0
          -115.228687,36.085372,0
          -115.229071,36.085366,0
          -115.229707,36.085357,0
          -115.230222,36.08535,0
          -115.230747,36.085343,0
          -115.231315,36.085333,0
          -115.231879,36.085322,0
          -115.232549,36.085315,0
          -115.233371,36.0853,0
          -115.233439,36.085285,0
          -115.233516,36.085275,0
          -115.233707,36.085267,0
          -115.234067,36.085258,0
          -115.234125,36.085116,0
          -115.234108,36.084873,0
          -115.234067,36.084669,0
          -115.234034,36.084058,0
          -115.234009,36.083448,0
          -115.233965,36.082538,0
          -115.233942,36.082079,0
          -115.233933,36.081851,0
          -115.233923,36.081626,0
          -115.233902,36.081242,0
          -115.23388,36.080855,0
          -115.233859,36.080335,0
          -115.233834,36.079818,0
          -115.233809,36.079267,0
          -115.233787,36.078715,0
          -115.233772,36.078523,0
          -115.233752,36.078262,0
          -115.233739,36.078118,0
          -115.23374,36.078055,0
          -115.233771,36.078021,0
          -115.234123,36.078015,0
          -115.234516,36.078007,0
          -115.235186,36.077997,0
          -115.235571,36.078001,0
          -115.235955,36.078003,0
          -115.236766,36.077977,0
          -115.237577,36.077957,0
          -115.238195,36.077946,0
          -115.238807,36.077938,0
          -115.239266,36.077923,0
          -115.239629,36.077918,0
          -115.239809,36.077914,0
          -115.239892,36.077908,0
          -115.239945,36.077866,0
          -115.239944,36.077792,0
        </coordinates>
      </LineString>
    </Placemark>
  </Document>
</kml>
