<?xml version="1.0" encoding="UTF-8"?>
<kml xmlns="http://www.opengis.net/kml/2.2">
  <Document>
    <name>F1 KH to ZONE B CEASARS RIDESHARE</name>
    <Style id="icon-1899-DB4436-nodesc-normal">
      <IconStyle>
        <color>ff3644db</color>
        <scale>1</scale>
        <Icon>
          <href>https://www.gstatic.com/mapspro/images/stock/503-wht-blank_maps.png</href>
        </Icon>
        <hotSpot x="32" xunits="pixels" y="64" yunits="insetPixels"/>
      </IconStyle>
      <LabelStyle>
        <scale>0</scale>
      </LabelStyle>
      <BalloonStyle>
        <text><![CDATA[<h3>$[name]</h3>]]></text>
      </BalloonStyle>
    </Style>
    <Style id="icon-1899-DB4436-nodesc-highlight">
      <IconStyle>
        <color>ff3644db</color>
        <scale>1</scale>
        <Icon>
          <href>https://www.gstatic.com/mapspro/images/stock/503-wht-blank_maps.png</href>
        </Icon>
        <hotSpot x="32" xunits="pixels" y="64" yunits="insetPixels"/>
      </IconStyle>
      <LabelStyle>
        <scale>1</scale>
      </LabelStyle>
      <BalloonStyle>
        <text><![CDATA[<h3>$[name]</h3>]]></text>
      </BalloonStyle>
    </Style>
    <StyleMap id="icon-1899-DB4436-nodesc">
      <Pair>
        <key>normal</key>
        <styleUrl>#icon-1899-DB4436-nodesc-normal</styleUrl>
      </Pair>
      <Pair>
        <key>highlight</key>
        <styleUrl>#icon-1899-DB4436-nodesc-highlight</styleUrl>
      </Pair>
    </StyleMap>
    <Style id="line-1267FF-5000-nodesc-normal">
      <LineStyle>
        <color>ffff6712</color>
        <width>5</width>
      </LineStyle>
      <BalloonStyle>
        <text><![CDATA[<h3>$[name]</h3>]]></text>
      </BalloonStyle>
    </Style>
    <Style id="line-1267FF-5000-nodesc-highlight">
      <LineStyle>
        <color>ffff6712</color>
        <width>7.5</width>
      </LineStyle>
      <BalloonStyle>
        <text><![CDATA[<h3>$[name]</h3>]]></text>
      </BalloonStyle>
    </Style>
    <StyleMap id="line-1267FF-5000-nodesc">
      <Pair>
        <key>normal</key>
        <styleUrl>#line-1267FF-5000-nodesc-normal</styleUrl>
      </Pair>
      <Pair>
        <key>highlight</key>
        <styleUrl>#line-1267FF-5000-nodesc-highlight</styleUrl>
      </Pair>
    </StyleMap>
    <Placemark>
      <name>6775 W Patrick Ln, Las Vegas, NV 89118, USA</name>
      <styleUrl>#icon-1899-DB4436-nodesc</styleUrl>
      <Point>
        <coordinates>
          -115.239942,36.077712,0
        </coordinates>
      </Point>
    </Placemark>
    <Placemark>
      <name>3500 S Las Vegas Blvd, Las Vegas, NV 89109, USA</name>
      <styleUrl>#icon-1899-DB4436-nodesc</styleUrl>
      <Point>
        <coordinates>
          -115.1781,36.118145,0
        </coordinates>
      </Point>
    </Placemark>
    <Placemark>
      <name>KH to ZONE B CEASARS RIDESHARE</name>
      <styleUrl>#line-1267FF-5000-nodesc</styleUrl>
      <LineString>
        <tessellate>1</tessellate>
        <coordinates>
          -115.239943,36.077727,0
          -115.239896,36.077825,0
          -115.239587,36.077841,0
          -115.239231,36.077854,0
          -115.238748,36.077907,0
          -115.238474,36.077912,0
          -115.238171,36.077911,0
          -115.237868,36.077922,0
          -115.237555,36.077925,0
          -115.236724,36.077943,0
          -115.236333,36.077957,0
          -115.235934,36.077968,0
          -115.235172,36.07796,0
          -115.23484,36.077964,0
          -115.234484,36.077968,0
          -115.234085,36.077979,0
          -115.233682,36.077992,0
          -115.233704,36.078265,0
          -115.233724,36.078541,0
          -115.233738,36.078722,0
          -115.233768,36.079256,0
          -115.233773,36.079528,0
          -115.23378,36.079666,0
          -115.233784,36.079786,0
          -115.233793,36.07984,0
          -115.233814,36.080349,0
          -115.233822,36.080608,0
          -115.23384,36.080881,0
          -115.233854,36.08126,0
          -115.233865,36.081449,0
          -115.23387,36.081631,0
          -115.233909,36.082549,0
          -115.233932,36.082999,0
          -115.233941,36.083226,0
          -115.23394,36.083352,0
          -115.233949,36.083462,0
          -115.233982,36.084067,0
          -115.233996,36.084373,0
          -115.233998,36.084524,0
          -115.234,36.084601,0
          -115.233979,36.084682,0
          -115.233973,36.084717,0
          -115.233971,36.084743,0
          -115.233963,36.084798,0
          -115.233962,36.08487,0
          -115.233966,36.084912,0
          -115.233966,36.084936,0
          -115.233971,36.085017,0
          -115.233964,36.085071,0
          -115.233951,36.085119,0
          -115.233889,36.085188,0
          -115.233722,36.085193,0
          -115.23343,36.085197,0
          -115.233335,36.085201,0
          -115.232955,36.085229,0
          -115.232533,36.085242,0
          -115.232196,36.085243,0
          -115.231855,36.085255,0
          -115.231289,36.085261,0
          -115.231007,36.085267,0
          -115.230865,36.085269,0
          -115.230719,36.085273,0
          -115.230202,36.085281,0
          -115.229944,36.085283,0
          -115.229692,36.085288,0
          -115.229372,36.085293,0
          -115.229049,36.085297,0
          -115.22861,36.085306,0
          -115.228082,36.085312,0
          -115.2277873,36.0853128,0
          -115.22749,36.0853328,0
          -115.2272197,36.0853415,0
          -115.2270527,36.0853454,0
          -115.2269071,36.0853666,0
          -115.2267513,36.0853395,0
          -115.226576,36.0853425,0
          -115.226335,36.0853566,0
          -115.2262386,36.0853266,0
          -115.22523,36.0853541,0
          -115.224264,36.0854071,0
          -115.2237027,36.0854484,0
          -115.2231413,36.0854745,0
          -115.2220087,36.085541,0
          -115.2209587,36.085591,0
          -115.22007,36.0856432,0
          -115.2187687,36.0857164,0
          -115.217894,36.0857621,0
          -115.2166087,36.0858334,0
          -115.215646,36.0858945,0
          -115.21452,36.0859534,0
          -115.213576,36.086008,0
          -115.212902,36.0860436,0
          -115.2123385,36.0860712,0
          -115.2121489,36.0860933,0
          -115.2119593,36.0861024,0
          -115.21158,36.0861162,0
          -115.21096,36.0861516,0
          -115.2100833,36.0861951,0
          -115.2093427,36.0862329,0
          -115.2092566,36.0862506,0
          -115.20909,36.0862725,0
          -115.2089151,36.0862617,0
          -115.2084769,36.0862775,0
          -115.2080387,36.0862998,0
          -115.2074224,36.0863058,0
          -115.20665,36.0863038,0
          -115.2064887,36.0863187,0
          -115.2061813,36.0863188,0
          -115.20573,36.0863166,0
          -115.2049387,36.0863145,0
          -115.2048,36.0863177,0
          -115.2046052,36.086337,0
          -115.2044538,36.0863375,0
          -115.2042997,36.0863121,0
          -115.20386,36.0863045,0
          -115.203304,36.0863077,0
          -115.2027927,36.0863088,0
          -115.20215,36.0863064,0
          -115.20151,36.0863086,0
          -115.2010613,36.086301,0
          -115.2003913,36.0863021,0
          -115.1998143,36.0862999,0
          -115.1991887,36.0862953,0
          -115.1984634,36.0862934,0
          -115.1978227,36.0862956,0
          -115.1968906,36.0862999,0
          -115.1965,36.086301,0
          -115.1958627,36.0863021,0
          -115.1953402,36.0862991,0
          -115.195256,36.0862861,0
          -115.1951718,36.0862753,0
          -115.1948456,36.0862948,0
          -115.1945193,36.0862986,0
          -115.1941962,36.0862934,0
          -115.1936074,36.0863027,0
          -115.193028,36.0863099,0
          -115.1926933,36.0863066,0
          -115.192238,36.086285,0
          -115.1916634,36.0862834,0
          -115.1911861,36.0862845,0
          -115.1906887,36.0862843,0
          -115.1899693,36.0862787,0
          -115.1897967,36.0862968,0
          -115.1897626,36.0864134,0
          -115.1897659,36.08672,0
          -115.1897679,36.0870789,0
          -115.1897879,36.0872527,0
          -115.1897973,36.0875905,0
          -115.1898009,36.0878558,0
          -115.1897979,36.0881195,0
          -115.1897879,36.0883722,0
          -115.1897926,36.0886384,0
          -115.1897866,36.0889495,0
          -115.1897879,36.0891305,0
          -115.1897832,36.0894605,0
          -115.1897866,36.0897611,0
          -115.1897893,36.0899795,0
          -115.1897896,36.0902489,0
          -115.1897856,36.0904241,0
          -115.1897836,36.0906354,0
          -115.1897836,36.090866,0
          -115.1897823,36.091114,0
          -115.1897816,36.0913053,0
          -115.1897789,36.0915559,0
          -115.1897816,36.0918033,0
          -115.1897813,36.0920611,0
          -115.1897803,36.0923135,0
          -115.1897756,36.0926267,0
          -115.1897903,36.0927997,0
          -115.1897766,36.0930523,0
          -115.1897793,36.09323,0
          -115.1897779,36.09341,0
          -115.1897793,36.0935884,0
          -115.189776,36.0938432,0
          -115.1897777,36.0940521,0
          -115.1897774,36.0942589,0
          -115.18978,36.09444,0
          -115.1897755,36.0946105,0
          -115.1897742,36.0948016,0
          -115.1897748,36.0949873,0
          -115.1897675,36.0952411,0
          -115.1897661,36.0954614,0
          -115.1897705,36.0957057,0
          -115.1897715,36.0959402,0
          -115.1897655,36.096167,0
          -115.1897622,36.0964146,0
          -115.1897628,36.0967302,0
          -115.1897756,36.0970363,0
          -115.1897736,36.0972565,0
          -115.1897709,36.0976139,0
          -115.1897682,36.0979713,0
          -115.1897682,36.0983158,0
          -115.1897682,36.0986581,0
          -115.1897648,36.0989269,0
          -115.1897655,36.0990973,0
          -115.1897662,36.0993799,0
          -115.1897655,36.0996624,0
          -115.1897662,36.0997834,0
          -115.1897776,36.0998989,0
          -115.1897874,36.1000365,0
          -115.1897851,36.1001762,0
          -115.1897795,36.100289,0
          -115.1897658,36.1004019,0
          -115.1897445,36.1006473,0
          -115.1897311,36.1008381,0
          -115.18973,36.1011087,0
          -115.1897532,36.1012266,0
          -115.1897495,36.1013467,0
          -115.1897549,36.1015709,0
          -115.1897789,36.1017517,0
          -115.1897955,36.1019411,0
          -115.1898015,36.1021578,0
          -115.189774,36.1023606,0
          -115.189768,36.1026219,0
          -115.1897633,36.1028811,0
          -115.1897673,36.1031475,0
          -115.1897727,36.1033832,0
          -115.189772,36.1036205,0
          -115.1897727,36.1038622,0
          -115.1897667,36.104162,0
          -115.189764,36.1043941,0
          -115.1897594,36.1045894,0
          -115.1897779,36.1046757,0
          -115.1897769,36.1051223,0
          -115.189775,36.1053472,0
          -115.1897759,36.1055657,0
          -115.1897629,36.1057451,0
          -115.1897379,36.1059857,0
          -115.1896919,36.1062724,0
          -115.1896484,36.1064218,0
          -115.1895915,36.1065657,0
          -115.1894608,36.10682,0
          -115.1892754,36.1070849,0
          -115.18911,36.10729,0
          -115.1889793,36.1074546,0
          -115.1888626,36.1076278,0
          -115.1887646,36.1077595,0
          -115.1886613,36.1079195,0
          -115.1885693,36.1080584,0
          -115.1884593,36.1081846,0
          -115.1882665,36.1083192,0
          -115.1880532,36.1083948,0
          -115.1878899,36.1084111,0
          -115.1877266,36.1084067,0
          -115.187557,36.1083935,0
          -115.1874351,36.1083952,0
          -115.18732,36.10841,0
          -115.18708,36.10836,0
          -115.18687,36.10833,0
          -115.18642,36.10826,0
          -115.1862,36.10823,0
          -115.18597,36.1082,0
          -115.1856193,36.1081676,0
          -115.185228,36.1081357,0
          -115.184979,36.108122,0
          -115.18473,36.1081159,0
          -115.18431,36.1081108,0
          -115.184,36.1081051,0
          -115.1834,36.1080946,0
          -115.1833303,36.1082184,0
          -115.1833163,36.108343,0
          -115.1832677,36.1086148,0
          -115.1831903,36.1087711,0
          -115.1831399,36.1088778,0
          -115.1830043,36.1089084,0
          -115.1828633,36.1089151,0
          -115.182588,36.1089124,0
          -115.182424,36.1089083,0
          -115.18226,36.108901,0
          -115.18198,36.1088783,0
          -115.181832,36.1088589,0
          -115.181684,36.1088524,0
          -115.1814128,36.1088459,0
          -115.18123,36.10888,0
          -115.1811843,36.1089314,0
          -115.1811534,36.1089881,0
          -115.1811452,36.1091342,0
          -115.1811395,36.1094078,0
          -115.1811356,36.1096581,0
          -115.1811316,36.1099451,0
          -115.1811419,36.1102216,0
          -115.1811615,36.1105713,0
          -115.1811822,36.1109335,0
          -115.1811995,36.1112027,0
          -115.1812115,36.1113193,0
          -115.1812369,36.1114338,0
          -115.1813089,36.111643,0
          -115.1813583,36.1117367,0
          -115.1814143,36.1118282,0
          -115.1815746,36.1120243,0
          -115.1817266,36.1121746,0
          -115.18187,36.1122855,0
          -115.1821133,36.1124452,0
          -115.1822953,36.1125706,0
          -115.1825006,36.112703,0
          -115.1826849,36.1128252,0
          -115.1828255,36.1129138,0
          -115.1829419,36.11301,0
          -115.1830426,36.1131028,0
          -115.1831679,36.113256,0
          -115.1832498,36.1134003,0
          -115.1833038,36.1135138,0
          -115.1833458,36.1136305,0
          -115.1833726,36.1138495,0
          -115.1833766,36.1141373,0
          -115.1833833,36.1144199,0
          -115.1833706,36.1147084,0
          -115.1833515,36.1150551,0
          -115.1833403,36.1152021,0
          -115.1833022,36.1153459,0
          -115.1832096,36.1155426,0
          -115.1830683,36.1158207,0
          -115.1829183,36.1161115,0
          -115.1827892,36.1163602,0
          -115.1826212,36.1166808,0
          -115.1824292,36.1170402,0
          -115.1823035,36.1172751,0
          -115.1821392,36.1175924,0
          -115.1820696,36.1177057,0
          -115.1819932,36.1178135,0
          -115.1818466,36.1180092,0
          -115.1817032,36.1182124,0
          -115.1816452,36.118315,0
          -115.1815939,36.118424,0
          -115.1815185,36.1186451,0
          -115.1814899,36.11889,0
          -115.1814183,36.1193435,0
          -115.1813851,36.1194853,0
          -115.1813277,36.1196194,0
          -115.1812923,36.1196852,0
          -115.1812475,36.11973,0
          -115.1811599,36.119751,0
          -115.1810407,36.119753,0
          -115.1803893,36.1197546,0
          -115.18014,36.1197524,0
          -115.1800707,36.1197465,0
          -115.1800456,36.1197026,0
          -115.1800502,36.1194622,0
          -115.1800582,36.1191578,0
          -115.1800752,36.1187981,0
          -115.1800829,36.1184533,0
          -115.18006,36.11837,0
          -115.1799134,36.118353,0
          -115.1794774,36.1183259,0
          -115.1790123,36.1183112,0
          -115.1785643,36.1182961,0
          -115.178138,36.118283,0
          -115.1781044,36.1182452,0
          -115.178103,36.118203,0
          -115.1781,36.11814,0
        </coordinates>
      </LineString>
    </Placemark>
  </Document>
</kml>
