<?xml version="1.0" encoding="UTF-8"?>
<kml xmlns="http://www.opengis.net/kml/2.2">
  <Document>
    <name>F1 KH TO ZONE F SPHERE</name>
    <Style id="icon-1899-DB4436-nodesc-normal">
      <IconStyle>
        <color>ff3644db</color>
        <scale>1</scale>
        <Icon>
          <href>https://www.gstatic.com/mapspro/images/stock/503-wht-blank_maps.png</href>
        </Icon>
        <hotSpot x="32" xunits="pixels" y="64" yunits="insetPixels"/>
      </IconStyle>
      <LabelStyle>
        <scale>0</scale>
      </LabelStyle>
      <BalloonStyle>
        <text><![CDATA[<h3>$[name]</h3>]]></text>
      </BalloonStyle>
    </Style>
    <Style id="icon-1899-DB4436-nodesc-highlight">
      <IconStyle>
        <color>ff3644db</color>
        <scale>1</scale>
        <Icon>
          <href>https://www.gstatic.com/mapspro/images/stock/503-wht-blank_maps.png</href>
        </Icon>
        <hotSpot x="32" xunits="pixels" y="64" yunits="insetPixels"/>
      </IconStyle>
      <LabelStyle>
        <scale>1</scale>
      </LabelStyle>
      <BalloonStyle>
        <text><![CDATA[<h3>$[name]</h3>]]></text>
      </BalloonStyle>
    </Style>
    <StyleMap id="icon-1899-DB4436-nodesc">
      <Pair>
        <key>normal</key>
        <styleUrl>#icon-1899-DB4436-nodesc-normal</styleUrl>
      </Pair>
      <Pair>
        <key>highlight</key>
        <styleUrl>#icon-1899-DB4436-nodesc-highlight</styleUrl>
      </Pair>
    </StyleMap>
    <Style id="line-1267FF-5000-nodesc-normal">
      <LineStyle>
        <color>ffff6712</color>
        <width>5</width>
      </LineStyle>
      <BalloonStyle>
        <text><![CDATA[<h3>$[name]</h3>]]></text>
      </BalloonStyle>
    </Style>
    <Style id="line-1267FF-5000-nodesc-highlight">
      <LineStyle>
        <color>ffff6712</color>
        <width>7.5</width>
      </LineStyle>
      <BalloonStyle>
        <text><![CDATA[<h3>$[name]</h3>]]></text>
      </BalloonStyle>
    </Style>
    <StyleMap id="line-1267FF-5000-nodesc">
      <Pair>
        <key>normal</key>
        <styleUrl>#line-1267FF-5000-nodesc-normal</styleUrl>
      </Pair>
      <Pair>
        <key>highlight</key>
        <styleUrl>#line-1267FF-5000-nodesc-highlight</styleUrl>
      </Pair>
    </StyleMap>
    <Placemark>
      <name>F1 KH TO ZONE F SPHERE</name>
      <styleUrl>#line-1267FF-5000-nodesc</styleUrl>
      <LineString>
        <tessellate>1</tessellate>
        <coordinates>
          -115.23994,36.07785,0
          -115.23994,36.07791,0
          -115.23962,36.07791,0
          -115.23926,36.07792,0
          -115.2388,36.07793,0
          -115.23819,36.07793,0
          -115.23757,36.07795,0
          -115.23595,36.078,0
          -115.23518,36.07798,0
          -115.23451,36.07799,0
          -115.23371,36.07801,0
          -115.23375,36.07854,0
          -115.23376,36.07872,0
          -115.23381,36.07979,0
          -115.23381,36.07982,0
          -115.23386,36.08086,0
          -115.2339,36.08163,0
          -115.23399,36.08345,0
          -115.23404,36.08467,0
          -115.23404,36.08468,0
          -115.23403,36.08472,0
          -115.23403,36.08478,0
          -115.23403,36.08486,0
          -115.23402,36.08487,0
          -115.23402,36.08489,0
          -115.23402,36.085,0
          -115.23406,36.08526,0
          -115.23407,36.08577,0
          -115.23407,36.086,0
          -115.23408,36.08618,0
          -115.23408,36.08666,0
          -115.23408,36.08705,0
          -115.23408,36.08759,0
          -115.23408,36.08777,0
          -115.23408,36.08885,0
          -115.23403,36.08892,0
          -115.23406,36.08903,0
          -115.23406,36.08909,0
          -115.23407,36.0896,0
          -115.23406,36.09027,0
          -115.23406,36.09052,0
          -115.23406,36.0907,0
          -115.23407,36.09073,0
          -115.23406,36.0914,0
          -115.23406,36.09204,0
          -115.23406,36.09212,0
          -115.23405,36.09252,0
          -115.23404,36.09286,0
          -115.23404,36.09316,0
          -115.23404,36.09388,0
          -115.23405,36.09443,0
          -115.23405,36.09531,0
          -115.23405,36.09553,0
          -115.23405,36.09577,0
          -115.23405,36.09599,0
          -115.23405,36.09616,0
          -115.23405,36.09706,0
          -115.23405,36.09726,0
          -115.23405,36.09751,0
          -115.23405,36.09818,0
          -115.23406,36.09874,0
          -115.23406,36.09904,0
          -115.23406,36.09924,0
          -115.23406,36.09974,0
          -115.23405,36.09986,0
          -115.23405,36.10043,0
          -115.23405,36.10078,0
          -115.23404,36.10112,0
          -115.23403,36.10242,0
          -115.23402,36.10296,0
          -115.23402,36.10332,0
          -115.23401,36.10451,0
          -115.23399,36.10593,0
          -115.23399,36.10671,0
          -115.23397,36.10713,0
          -115.23396,36.10765,0
          -115.23396,36.10779,0
          -115.23396,36.10839,0
          -115.23395,36.10912,0
          -115.23395,36.10946,0
          -115.23395,36.10969,0
          -115.23395,36.10982,0
          -115.23394,36.1108,0
          -115.23394,36.11151,0
          -115.23393,36.11221,0
          -115.23393,36.11263,0
          -115.23393,36.11311,0
          -115.23393,36.11316,0
          -115.23393,36.11385,0
          -115.23392,36.1143,0
          -115.23392,36.11445,0
          -115.23392,36.11461,0
          -115.23392,36.1149,0
          -115.23392,36.11498,0
          -115.23392,36.11506,0
          -115.23392,36.11515,0
          -115.23392,36.11531,0
          -115.23392,36.11535,0
          -115.23393,36.11576,0
          -115.23392,36.11633,0
          -115.23393,36.1169,0
          -115.23393,36.1172,0
          -115.23393,36.11759,0
          -115.23392,36.11817,0
          -115.2339,36.11832,0
          -115.2339,36.11854,0
          -115.2339,36.11873,0
          -115.23393,36.11957,0
          -115.23393,36.11962,0
          -115.23394,36.12001,0
          -115.23394,36.12066,0
          -115.23394,36.12084,0
          -115.23394,36.12138,0
          -115.23394,36.1217,0
          -115.23393,36.12188,0
          -115.23393,36.12237,0
          -115.23393,36.12274,0
          -115.23394,36.12372,0
          -115.23395,36.12493,0
          -115.23395,36.12512,0
          -115.23396,36.12553,0
          -115.23396,36.12563,0
          -115.23396,36.12606,0
          -115.23396,36.12654,0
          -115.23396,36.12707,0
          -115.23396,36.12744,0
          -115.23396,36.1281,0
          -115.23396,36.12867,0
          -115.23395,36.1293,0
          -115.2337,36.12929,0
          -115.2334,36.12929,0
          -115.23306,36.12928,0
          -115.23288,36.12928,0
          -115.23268,36.12927,0
          -115.23232,36.12927,0
          -115.2322,36.12926,0
          -115.23172,36.12925,0
          -115.23097,36.12924,0
          -115.2309,36.12924,0
          -115.23062,36.12923,0
          -115.22945,36.12921,0
          -115.22837,36.12919,0
          -115.22782,36.12918,0
          -115.22721,36.12916,0
          -115.22686,36.12916,0
          -115.22673,36.12915,0
          -115.22636,36.12915,0
          -115.22625,36.12908,0
          -115.22622,36.12908,0
          -115.22605,36.12908,0
          -115.22594,36.12908,0
          -115.22505,36.12906,0
          -115.2249,36.12906,0
          -115.22432,36.12908,0
          -115.22387,36.1291,0
          -115.22386,36.1291,0
          -115.22385,36.1291,0
          -115.22381,36.12912,0
          -115.22373,36.12918,0
          -115.22288,36.12922,0
          -115.22266,36.12924,0
          -115.22234,36.12925,0
          -115.22076,36.12933,0
          -115.22012,36.12936,0
          -115.21972,36.12938,0
          -115.2189,36.12943,0
          -115.21863,36.12944,0
          -115.21808,36.12947,0
          -115.21806,36.12947,0
          -115.21772,36.12949,0
          -115.2174,36.1295,0
          -115.21672,36.12954,0
          -115.21652,36.12955,0
          -115.21569,36.12959,0
          -115.21543,36.12961,0
          -115.21448,36.12966,0
          -115.21419,36.12968,0
          -115.21334,36.12971,0
          -115.21312,36.12974,0
          -115.21309,36.12974,0
          -115.21304,36.12974,0
          -115.2129,36.12975,0
          -115.21283,36.12976,0
          -115.21272,36.12976,0
          -115.21235,36.12978,0
          -115.21074,36.12987,0
          -115.2102,36.1299,0
          -115.20922,36.12995,0
          -115.20878,36.12996,0
          -115.20814,36.12998,0
          -115.20796,36.12997,0
          -115.20763,36.12997,0
          -115.20725,36.12997,0
          -115.2069,36.12998,0
          -115.20665,36.12998,0
          -115.20635,36.12998,0
          -115.20597,36.12998,0
          -115.20564,36.12998,0
          -115.20492,36.12998,0
          -115.20461,36.12998,0
          -115.20366,36.12999,0
          -115.20356,36.12999,0
          -115.20327,36.12999,0
          -115.20298,36.12999,0
          -115.20276,36.12999,0
          -115.20236,36.12999,0
          -115.20227,36.12999,0
          -115.20173,36.12999,0
          -115.20136,36.12999,0
          -115.20087,36.13,0
          -115.20067,36.13,0
          -115.20029,36.13,0
          -115.20019,36.13,0
          -115.1997,36.13,0
          -115.19911,36.13,0
          -115.19867,36.13002,0
          -115.19852,36.13,0
          -115.19822,36.13004,0
          -115.19816,36.13003,0
          -115.1981,36.13002,0
          -115.1979,36.13005,0
          -115.19755,36.13006,0
          -115.19733,36.13006,0
          -115.19717,36.13007,0
          -115.1969,36.13007,0
          -115.19673,36.13008,0
          -115.19626,36.13007,0
          -115.19617,36.13007,0
          -115.19587,36.13008,0
          -115.19573,36.13009,0
          -115.19547,36.13009,0
          -115.19532,36.1301,0
          -115.1952,36.1301,0
          -115.19468,36.13014,0
          -115.19418,36.13013,0
          -115.19404,36.13013,0
          -115.19395,36.13014,0
          -115.19365,36.13015,0
          -115.19326,36.13018,0
          -115.19279,36.13017,0
          -115.19236,36.1302,0
          -115.19203,36.13021,0
          -115.19175,36.13022,0
          -115.19174,36.1302,0
          -115.19172,36.13018,0
          -115.19171,36.13017,0
          -115.19169,36.13015,0
          -115.19167,36.13014,0
          -115.19165,36.13013,0
          -115.19162,36.13011,0
          -115.19159,36.13011,0
          -115.19141,36.1301,0
          -115.19094,36.13007,0
          -115.19032,36.13005,0
          -115.19017,36.13003,0
          -115.18981,36.13001,0
          -115.18962,36.13,0
          -115.18917,36.12997,0
          -115.18877,36.12996,0
          -115.1881,36.12994,0
          -115.18786,36.12992,0
          -115.18712,36.12989,0
          -115.18705,36.12989,0
          -115.18551,36.12983,0
          -115.18523,36.12982,0
          -115.18506,36.12981,0
          -115.18448,36.12977,0
          -115.18443,36.12977,0
          -115.1843,36.12977,0
          -115.18422,36.12977,0
          -115.18379,36.12974,0
          -115.18366,36.12974,0
          -115.18328,36.12973,0
          -115.18312,36.12972,0
          -115.18311,36.12972,0
          -115.183,36.12972,0
          -115.18274,36.12973,0
          -115.1826,36.12974,0
          -115.18246,36.12975,0
          -115.1823,36.12977,0
          -115.18214,36.1298,0
          -115.18199,36.12982,0
          -115.18187,36.12985,0
          -115.18174,36.12988,0
          -115.18172,36.12989,0
          -115.18168,36.1299,0
          -115.18156,36.12994,0
          -115.18148,36.12997,0
          -115.1814,36.13,0
          -115.18134,36.13002,0
          -115.18133,36.13002,0
          -115.18132,36.13003,0
          -115.18128,36.13005,0
          -115.18124,36.13006,0
          -115.18122,36.13007,0
          -115.18111,36.13013,0
          -115.18101,36.13018,0
          -115.18087,36.13026,0
          -115.18071,36.13035,0
          -115.18061,36.13041,0
          -115.1805,36.13047,0
          -115.18046,36.13049,0
          -115.1804,36.13052,0
          -115.18033,36.13056,0
          -115.18031,36.13057,0
          -115.18029,36.13058,0
          -115.18027,36.1306,0
          -115.18014,36.13067,0
          -115.18009,36.1307,0
          -115.18001,36.13074,0
          -115.17993,36.13079,0
          -115.17978,36.13087,0
          -115.1797,36.13091,0
          -115.17962,36.13095,0
          -115.17955,36.13098,0
          -115.1795,36.13101,0
          -115.17946,36.13102,0
          -115.17941,36.13104,0
          -115.17936,36.13106,0
          -115.17928,36.1311,0
          -115.17918,36.13113,0
          -115.179,36.13118,0
          -115.17883,36.13122,0
          -115.17871,36.13125,0
          -115.1786,36.13127,0
          -115.17851,36.13129,0
          -115.17837,36.13131,0
          -115.17829,36.13132,0
          -115.17822,36.13133,0
          -115.17814,36.13134,0
          -115.17787,36.13138,0
          -115.1776,36.13141,0
          -115.1773,36.13146,0
          -115.17667,36.13155,0
          -115.1763,36.1316,0
          -115.17615,36.13163,0
          -115.17587,36.13167,0
          -115.17567,36.1317,0
          -115.17552,36.13172,0
          -115.17543,36.13173,0
          -115.1753,36.13175,0
          -115.17518,36.13176,0
          -115.17509,36.13176,0
          -115.175,36.13177,0
          -115.17487,36.13177,0
          -115.17476,36.13177,0
          -115.17466,36.13176,0
          -115.17458,36.13176,0
          -115.17451,36.13175,0
          -115.17445,36.13175,0
          -115.1744,36.13174,0
          -115.17431,36.13173,0
          -115.17423,36.13172,0
          -115.17417,36.13171,0
          -115.17408,36.1317,0
          -115.17395,36.13168,0
          -115.17379,36.13165,0
          -115.17367,36.13163,0
          -115.17357,36.13161,0
          -115.17351,36.1316,0
          -115.17341,36.13158,0
          -115.17333,36.13157,0
          -115.17329,36.13156,0
          -115.17314,36.13153,0
          -115.17302,36.13151,0
          -115.17287,36.13148,0
          -115.17275,36.13146,0
          -115.17265,36.13144,0
          -115.17264,36.13144,0
          -115.17256,36.13143,0
          -115.17248,36.13142,0
          -115.17242,36.13141,0
          -115.17235,36.13141,0
          -115.17228,36.1314,0
          -115.1722,36.1314,0
          -115.17211,36.13139,0
          -115.17202,36.13139,0
          -115.17176,36.13139,0
          -115.17173,36.13139,0
          -115.1717,36.13139,0
          -115.17167,36.13139,0
          -115.17164,36.13138,0
          -115.17137,36.13138,0
          -115.17119,36.13138,0
          -115.17093,36.13137,0
          -115.17071,36.13137,0
          -115.17049,36.13137,0
          -115.16986,36.13136,0
          -115.16971,36.13135,0
          -115.16955,36.13135,0
          -115.16943,36.13135,0
          -115.16917,36.13134,0
          -115.16887,36.13134,0
          -115.16867,36.13133,0
          -115.16858,36.13133,0
          -115.16848,36.13133,0
          -115.16833,36.13134,0
          -115.16824,36.13134,0
          -115.1682,36.13134,0
          -115.16808,36.13135,0
          -115.16795,36.13135,0
          -115.16784,36.13135,0
          -115.16776,36.13135,0
          -115.16754,36.13134,0
          -115.16738,36.13134,0
          -115.16731,36.13134,0
          -115.16721,36.13134,0
          -115.16712,36.13134,0
          -115.16702,36.13134,0
          -115.16693,36.13133,0
          -115.16689,36.13133,0
          -115.16684,36.13132,0
          -115.16679,36.13132,0
          -115.16674,36.13131,0
          -115.16668,36.1313,0
          -115.16664,36.13129,0
          -115.16662,36.13129,0
          -115.16653,36.13127,0
          -115.16643,36.13125,0
          -115.16635,36.13123,0
          -115.16629,36.13122,0
          -115.16623,36.1312,0
          -115.16616,36.13119,0
          -115.16607,36.13116,0
          -115.16597,36.13113,0
          -115.16583,36.13108,0
          -115.16572,36.13105,0
          -115.16563,36.13101,0
          -115.16561,36.131,0
          -115.16551,36.13096,0
          -115.16547,36.13094,0
          -115.16543,36.13091,0
          -115.16537,36.13088,0
          -115.16533,36.13086,0
          -115.16525,36.13081,0
          -115.16518,36.13077,0
          -115.16512,36.13073,0
          -115.16505,36.13069,0
          -115.16492,36.13061,0
          -115.16486,36.13057,0
          -115.16449,36.13033,0
          -115.16425,36.13018,0
          -115.16417,36.13013,0
          -115.16406,36.13007,0
          -115.16396,36.13001,0
          -115.16389,36.12997,0
          -115.16382,36.12994,0
          -115.16374,36.1299,0
          -115.16365,36.12986,0
          -115.16357,36.12983,0
          -115.16349,36.1298,0
          -115.16343,36.12978,0
          -115.16337,36.12976,0
          -115.16329,36.12973,0
          -115.16308,36.12968,0
          -115.16297,36.12965,0
          -115.16289,36.12963,0
          -115.16281,36.12962,0
          -115.16274,36.12961,0
          -115.16267,36.1296,0
          -115.16259,36.12959,0
          -115.16251,36.12958,0
          -115.16244,36.12957,0
          -115.16235,36.12956,0
          -115.16228,36.12956,0
          -115.16218,36.12955,0
          -115.16203,36.12955,0
          -115.16188,36.12954,0
          -115.16156,36.12954,0
          -115.16132,36.12953,0
          -115.16119,36.12953,0
          -115.16106,36.12953,0
          -115.16097,36.12954,0
          -115.16089,36.12954,0
          -115.16078,36.12954,0
          -115.16068,36.12955,0
          -115.16051,36.12957,0
          -115.16035,36.12959,0
          -115.16023,36.1296,0
          -115.16015,36.12961,0
          -115.16008,36.12961,0
          -115.16001,36.12962,0
          -115.15993,36.12962,0
          -115.15982,36.12962,0
          -115.15966,36.12963,0
          -115.15945,36.12962,0
          -115.15928,36.12962,0
          -115.15901,36.12962,0
          -115.15876,36.12961,0
          -115.1585,36.12961,0
          -115.15827,36.12961,0
          -115.15767,36.1296,0
          -115.15707,36.12959,0
          -115.1569,36.12959,0
          -115.15673,36.12959,0
          -115.15663,36.12958,0
          -115.1564,36.12957,0
          -115.15632,36.12957,0
          -115.15619,36.12956,0
          -115.15598,36.12955,0
          -115.15576,36.12953,0
          -115.15558,36.12951,0
          -115.15532,36.12949,0
          -115.15504,36.12947,0
          -115.15494,36.12947,0
          -115.15495,36.12923,0
          -115.15497,36.12853,0
          -115.15497,36.12841,0
          -115.15498,36.12831,0
          -115.15499,36.12821,0
          -115.15501,36.128,0
          -115.15502,36.12789,0
          -115.15503,36.12778,0
          -115.15504,36.12767,0
          -115.15505,36.12746,0
          -115.15506,36.12683,0
          -115.15506,36.1264,0
          -115.15506,36.12628,0
          -115.15506,36.12615,0
          -115.15506,36.1261,0
          -115.15506,36.12605,0
          -115.15506,36.126,0
          -115.15505,36.12594,0
          -115.15505,36.12588,0
          -115.15505,36.12583,0
          -115.15503,36.12566,0
          -115.15503,36.12558,0
          -115.15502,36.12551,0
          -115.15501,36.12539,0
          -115.15501,36.12537,0
          -115.15501,36.12529,0
          -115.15501,36.12518,0
          -115.15501,36.125,0
          -115.15501,36.12494,0
          -115.15502,36.12403,0
          -115.15502,36.12387,0
          -115.15503,36.12355,0
          -115.15502,36.12321,0
          -115.15502,36.12298,0
          -115.15502,36.12293,0
          -115.15495,36.12287,0
          -115.15495,36.12276,0
          -115.15496,36.12228,0
          -115.15496,36.12218,0
          -115.15496,36.1221,0
          -115.15496,36.12202,0
          -115.15505,36.12195,0
          -115.15505,36.1218,0
          -115.15505,36.12173,0
          -115.15505,36.12171,0
          -115.15505,36.12156,0
          -115.15505,36.12147,0
          -115.15506,36.12136,0
          -115.15506,36.12132,0
          -115.15507,36.12119,0
          -115.15507,36.12076,0
          -115.15508,36.12067,0
          -115.15507,36.12053,0
          -115.15507,36.12043,0
          -115.15507,36.12038,0
          -115.15507,36.12025,0
          -115.15507,36.12015,0
          -115.15507,36.12014,0
          -115.15502,36.12007,0
          -115.15502,36.11992,0
          -115.15502,36.11981,0
          -115.15503,36.11951,0
          -115.15503,36.11914,0
          -115.15503,36.11906,0
          -115.15503,36.11871,0
          -115.15505,36.11854,0
          -115.15569,36.11855,0
          -115.15577,36.11855,0
          -115.15616,36.11855,0
          -115.15693,36.11854,0
          -115.15696,36.11864,0
          -115.15697,36.11868,0
          -115.15697,36.11871,0
          -115.15698,36.11875,0
          -115.157,36.11883,0
          -115.15702,36.11889,0
          -115.15704,36.11894,0
          -115.15708,36.11902,0
          -115.15722,36.11928,0
          -115.15728,36.11938,0
          -115.15752,36.1198,0
          -115.15766,36.12012,0
          -115.15773,36.12036,0
          -115.15776,36.12049,0
          -115.15762,36.1205,0
          -115.15755,36.1205,0
          -115.15749,36.12051,0
          -115.15743,36.12051,0
          -115.15736,36.12049,0
          -115.15731,36.12048,0
          -115.15728,36.12047,0
          -115.15719,36.12045,0
          -115.15711,36.12044,0
          -115.15703,36.12042,0
          -115.15696,36.12042,0
          -115.15691,36.12041,0
          -115.15691,36.12053,0
          -115.15691,36.12083,0
          -115.15718,36.12083,0
        </coordinates>
      </LineString>
    </Placemark>
    <Placemark>
      <name>6775 W Patrick Ln, Las Vegas, NV 89118, USA</name>
      <styleUrl>#icon-1899-DB4436-nodesc</styleUrl>
      <Point>
        <coordinates>
          -115.2399373,36.0778493,0
        </coordinates>
      </Point>
    </Placemark>
    <Placemark>
      <name>3770 Howard Hughes Pkwy, Las Vegas, NV 89119, USA</name>
      <styleUrl>#icon-1899-DB4436-nodesc</styleUrl>
      <Point>
        <coordinates>
          -115.157183,36.1208346,0
        </coordinates>
      </Point>
    </Placemark>
  </Document>
</kml>
