<?xml version='1.0' encoding='utf-8'?>
<kml:kml xmlns:kml="http://www.opengis.net/kml/2.2">
  <kml:Document>
    <kml:name>RETURN - zone C Miracle Mile to KH</kml:name>
    <kml:Style id="icon-1899-DB4436-nodesc-normal">
      <kml:IconStyle>
        <kml:color>ff3644db</kml:color>
        <kml:scale>1</kml:scale>
        <kml:Icon>
          <kml:href>https://www.gstatic.com/mapspro/images/stock/503-wht-blank_maps.png</kml:href>
        </kml:Icon>
        <kml:hotSpot x="32" xunits="pixels" y="64" yunits="insetPixels" />
      </kml:IconStyle>
      <kml:LabelStyle>
        <kml:scale>0</kml:scale>
      </kml:LabelStyle>
      <kml:BalloonStyle>
        <kml:text>&lt;h3&gt;$[name]&lt;/h3&gt;</kml:text>
      </kml:BalloonStyle>
    </kml:Style>
    <kml:Style id="icon-1899-DB4436-nodesc-highlight">
      <kml:IconStyle>
        <kml:color>ff3644db</kml:color>
        <kml:scale>1</kml:scale>
        <kml:Icon>
          <kml:href>https://www.gstatic.com/mapspro/images/stock/503-wht-blank_maps.png</kml:href>
        </kml:Icon>
        <kml:hotSpot x="32" xunits="pixels" y="64" yunits="insetPixels" />
      </kml:IconStyle>
      <kml:LabelStyle>
        <kml:scale>1</kml:scale>
      </kml:LabelStyle>
      <kml:BalloonStyle>
        <kml:text>&lt;h3&gt;$[name]&lt;/h3&gt;</kml:text>
      </kml:BalloonStyle>
    </kml:Style>
    <kml:StyleMap id="icon-1899-DB4436-nodesc">
      <kml:Pair>
        <kml:key>normal</kml:key>
        <kml:styleUrl>#icon-1899-DB4436-nodesc-normal</kml:styleUrl>
      </kml:Pair>
      <kml:Pair>
        <kml:key>highlight</kml:key>
        <kml:styleUrl>#icon-1899-DB4436-nodesc-highlight</kml:styleUrl>
      </kml:Pair>
    </kml:StyleMap>
    <kml:Style id="line-1267FF-5000-nodesc-normal">
      <kml:LineStyle>
        <kml:color>ffff6712</kml:color>
        <kml:width>5</kml:width>
      </kml:LineStyle>
      <kml:BalloonStyle>
        <kml:text>&lt;h3&gt;$[name]&lt;/h3&gt;</kml:text>
      </kml:BalloonStyle>
    </kml:Style>
    <kml:Style id="line-1267FF-5000-nodesc-highlight">
      <kml:LineStyle>
        <kml:color>ffff6712</kml:color>
        <kml:width>7.5</kml:width>
      </kml:LineStyle>
      <kml:BalloonStyle>
        <kml:text>&lt;h3&gt;$[name]&lt;/h3&gt;</kml:text>
      </kml:BalloonStyle>
    </kml:Style>
    <kml:StyleMap id="line-1267FF-5000-nodesc">
      <kml:Pair>
        <kml:key>normal</kml:key>
        <kml:styleUrl>#line-1267FF-5000-nodesc-normal</kml:styleUrl>
      </kml:Pair>
      <kml:Pair>
        <kml:key>highlight</kml:key>
        <kml:styleUrl>#line-1267FF-5000-nodesc-highlight</kml:styleUrl>
      </kml:Pair>
    </kml:StyleMap>
    <kml:Placemark>
      <kml:name>Directions from 6775 W Patrick Ln, Las Vegas, NV 89118, USA to 2550 W Harmon Ave, Las Vegas, NV 89109, USA</kml:name>
      <kml:styleUrl>#line-1267FF-5000-nodesc</kml:styleUrl>
      <kml:LineString>
        <kml:tessellate>1</kml:tessellate>
        <kml:coordinates>
-115.17712,36.10886,0 -115.17708,36.1088,0 -115.17707,36.10879,0 -115.17707,36.10878,0 -115.17706,36.10877,0 -115.17706,36.10876,0 -115.17705,36.10874,0 -115.17705,36.10873,0 -115.17704,36.10872,0 -115.17704,36.10871,0 -115.17703,36.10869,0 -115.17703,36.10868,0 -115.17702,36.10866,0 -115.17701,36.10863,0 -115.177,36.10859,0 -115.17699,36.10851,0 -115.177,36.10844,0 -115.177,36.10843,0 -115.17702,36.10835,0 -115.17706,36.10828,0 -115.17708,36.10826,0 -115.17712,36.10822,0 -115.17718,36.10816,0 -115.17723,36.10813,0 -115.17726,36.10812,0 -115.17735,36.10809,0 -115.17744,36.10807,0 -115.17748,36.10807,0 -115.17753,36.10807,0 -115.17757,36.10807,0 -115.17761,36.10808,0 -115.17765,36.10809,0 -115.17769,36.1081,0 -115.17773,36.10812,0 -115.17777,36.10814,0 -115.17779,36.10812,0 -115.1778,36.10812,0 -115.17781,36.10811,0 -115.17782,36.10811,0 -115.17784,36.10811,0 -115.17786,36.1081,0 -115.17787,36.10811,0 -115.1779,36.10811,0 -115.17792,36.10811,0 -115.17794,36.10812,0 -115.17796,36.10812,0 -115.17797,36.10813,0 -115.178,36.10813,0 -115.17801,36.10813,0 -115.17802,36.10813,0 -115.17804,36.10813,0 -115.17806,36.10813,0 -115.17809,36.10812,0 -115.17812,36.10811,0 -115.17817,36.1081,0 -115.17819,36.10809,0 -115.17822,36.10808,0 -115.17825,36.10807,0 -115.17831,36.10806,0 -115.17835,36.10804,0 -115.17841,36.10803,0 -115.17847,36.10801,0 -115.17855,36.108,0 -115.1786,36.10799,0 -115.17861,36.10799,0 -115.17864,36.10799,0 -115.17869,36.10798,0 -115.17878,36.10797,0 -115.17882,36.10797,0 -115.17904,36.10796,0 -115.1791,36.10796,0 -115.17916,36.10796,0 -115.17931,36.10796,0 -115.17935,36.10797,0 -115.17938,36.10797,0 -115.17941,36.10797,0 -115.17946,36.10797,0 -115.1795,36.10798,0 -115.17953,36.10799,0 -115.17954,36.10799,0 -115.17958,36.108,0 -115.17974,36.10807,0 -115.17979,36.10807,0 -115.18011,36.10806,0 -115.1802,36.10807,0 -115.18044,36.10807,0 -115.18064,36.10807,0 -115.18069,36.10807,0 -115.18073,36.10807,0 -115.18102,36.10807,0 -115.18112,36.10808,0 -115.18138,36.10808,0 -115.18223,36.10809,0 -115.18227,36.10809,0 -115.18245,36.10809,0 -115.18267,36.10809,0 -115.18296,36.10809,0 -115.18312,36.1081,0 -115.1834,36.1081,0 -115.184,36.10811,0 -115.18431,36.10812,0 -115.18473,36.10813,0 -115.18493,36.10813,0 -115.18553,36.10815,0 -115.18562,36.10816,0 -115.18588,36.10819,0 -115.18597,36.1082,0 -115.1862,36.10823,0 -115.18642,36.10826,0 -115.18687,36.10833,0 -115.18708,36.10836,0 -115.1872,36.10839,0 -115.18732,36.10841,0 -115.18739,36.10839,0 -115.18742,36.10839,0 -115.18747,36.10839,0 -115.18749,36.1084,0 -115.18751,36.1084,0 -115.18753,36.1084,0 -115.18754,36.10841,0 -115.18762,36.10842,0 -115.18773,36.10843,0 -115.18776,36.10843,0 -115.18785,36.10843,0 -115.18798,36.10842,0 -115.18808,36.10841,0 -115.18811,36.1084,0 -115.18814,36.10839,0 -115.18824,36.10836,0 -115.18829,36.10833,0 -115.18839,36.10826,0 -115.18844,36.10821,0 -115.18847,36.10819,0 -115.18851,36.10816,0 -115.18857,36.10808,0 -115.18858,36.10806,0 -115.18859,36.10806,0 -115.18863,36.10799,0 -115.18867,36.10792,0 -115.18867,36.10791,0 -115.18868,36.1079,0 -115.18869,36.10789,0 -115.1887,36.10787,0 -115.18871,36.10785,0 -115.18877,36.10776,0 -115.18879,36.10774,0 -115.1888,36.10773,0 -115.18881,36.10771,0 -115.18887,36.10763,0 -115.18889,36.1076,0 -115.1889,36.10759,0 -115.18899,36.10746,0 -115.18901,36.10743,0 -115.18911,36.10729,0 -115.1892,36.10716,0 -115.18923,36.10713,0 -115.18924,36.10711,0 -115.18926,36.10708,0 -115.18932,36.107,0 -115.18934,36.10697,0 -115.18944,36.10682,0 -115.18944,36.10681,0 -115.18944,36.1068,0 -115.18945,36.10679,0 -115.18946,36.10678,0 -115.18947,36.10676,0 -115.18952,36.10665,0 -115.18957,36.10655,0 -115.18958,36.10653,0 -115.18958,36.10651,0 -115.18959,36.10651,0 -115.18967,36.10645,0 -115.18971,36.10628,0 -115.18972,36.10623,0 -115.18973,36.10617,0 -115.18974,36.10612,0 -115.18975,36.10606,0 -115.18976,36.10599,0 -115.18977,36.10593,0 -115.1898,36.10557,0 -115.1898,36.10466,0 -115.18986,36.10461,0 -115.18987,36.10457,0 -115.18988,36.10445,0 -115.18988,36.10438,0 -115.18988,36.10397,0 -115.18988,36.10375,0 -115.18988,36.10362,0 -115.18988,36.10316,0 -115.18988,36.10288,0 -115.18989,36.10234,0 -115.18989,36.10227,0 -115.18989,36.10216,0 -115.18989,36.10194,0 -115.18988,36.10189,0 -115.18986,36.10171,0 -115.18983,36.10154,0 -115.18983,36.10146,0 -115.18983,36.10137,0 -115.18984,36.10114,0 -115.18984,36.10108,0 -115.18981,36.10102,0 -115.18978,36.10097,0 -115.18977,36.10083,0 -115.18979,36.10047,0 -115.1898,36.10041,0 -115.18983,36.10022,0 -115.18983,36.1002,0 -115.18985,36.1001,0 -115.18987,36.09999,0 -115.18985,36.0999,0 -115.18985,36.09967,0 -115.18985,36.09908,0 -115.18985,36.09879,0 -115.18985,36.09867,0 -115.18985,36.09798,0 -115.18985,36.09725,0 -115.18985,36.09684,0 -115.18985,36.09674,0 -115.18985,36.09642,0 -115.18985,36.09618,0 -115.18985,36.09604,0 -115.18985,36.09595,0 -115.18986,36.09543,0 -115.18986,36.09524,0 -115.18986,36.09497,0 -115.18986,36.09461,0 -115.18986,36.09452,0 -115.18978,36.09444,0 -115.18977,36.09426,0 -115.18977,36.09386,0 -115.18977,36.09366,0 -115.18979,36.09359,0 -115.18979,36.09323,0 -115.18979,36.09288,0 -115.18979,36.09286,0 -115.1898,36.09285,0 -115.18986,36.09281,0 -115.18984,36.09273,0 -115.18984,36.09268,0 -115.18984,36.09263,0 -115.18984,36.09232,0 -115.18985,36.0918,0 -115.18985,36.09123,0 -115.18985,36.09112,0 -115.18985,36.09097,0 -115.18985,36.09086,0 -115.18985,36.09072,0 -115.18985,36.09063,0 -115.18986,36.09039,0 -115.18986,36.09025,0 -115.18986,36.09019,0 -115.18986,36.09011,0 -115.1898,36.08998,0 -115.1898,36.08976,0 -115.1898,36.08967,0 -115.1898,36.08946,0 -115.1898,36.08913,0 -115.1898,36.08895,0 -115.18981,36.08864,0 -115.1898,36.08837,0 -115.18981,36.08819,0 -115.18981,36.08812,0 -115.18981,36.08759,0 -115.1898,36.08725,0 -115.18978,36.08708,0 -115.18978,36.08672,0 -115.18977,36.08657,0 -115.18977,36.08637,0 -115.18978,36.08631,0 -115.18979,36.08626,0 -115.18997,36.08627,0 -115.19069,36.08628,0 -115.19109,36.08628,0 -115.19117,36.08633,0 -115.19155,36.08633,0 -115.19166,36.08633,0 -115.19172,36.08633,0 -115.19224,36.08633,0 -115.1927,36.08635,0 -115.19302,36.08635,0 -115.19427,36.08634,0 -115.19452,36.08633,0 -115.1952,36.08631,0 -115.19531,36.08635,0 -115.19585,36.08634,0 -115.1965,36.08634,0 -115.1969,36.08634,0 -115.19782,36.08634,0 -115.19806,36.08634,0 -115.19812,36.08634,0 -115.19845,36.08634,0 -115.19919,36.08633,0 -115.19999,36.08634,0 -115.20019,36.08634,0 -115.20033,36.08634,0 -115.20039,36.08634,0 -115.20106,36.08634,0 -115.20151,36.08634,0 -115.20195,36.08634,0 -115.20196,36.08634,0 -115.20215,36.08634,0 -115.20255,36.08635,0 -115.20279,36.08635,0 -115.2033,36.08635,0 -115.20386,36.08635,0 -115.20436,36.08635,0 -115.20462,36.08635,0 -115.2048,36.08636,0 -115.20494,36.08636,0 -115.20573,36.08636,0 -115.20618,36.08636,0 -115.20632,36.08636,0 -115.20643,36.08636,0 -115.20646,36.08633,0 -115.20649,36.08631,0 -115.20654,36.0863,0 -115.20659,36.08629,0 -115.20665,36.08628,0 -115.20692,36.08627,0 -115.20781,36.08627,0 -115.20804,36.08629,0 -115.20895,36.08624,0 -115.20909,36.08624,0 -115.20913,36.08623,0 -115.20915,36.08623,0 -115.2092,36.08623,0 -115.20927,36.08623,0 -115.20934,36.08626,0 -115.20959,36.08625,0 -115.20973,36.08624,0 -115.21009,36.08622,0 -115.21096,36.08617,0 -115.21113,36.08617,0 -115.21158,36.08614,0 -115.21225,36.08612,0 -115.21291,36.0861,0 -115.21314,36.08609,0 -115.21358,36.08606,0 -115.2138,36.08605,0 -115.21402,36.08604,0 -115.21452,36.086,0 -115.21521,36.08597,0 -115.21565,36.08594,0 -115.21661,36.08588,0 -115.21737,36.08583,0 -115.21789,36.0858,0 -115.21825,36.08579,0 -115.21877,36.08575,0 -115.22007,36.08568,0 -115.22096,36.08563,0 -115.22185,36.08559,0 -115.22201,36.08558,0 -115.22314,36.08552,0 -115.22384,36.08548,0 -115.22412,36.08546,0 -115.22417,36.08542,0 -115.22421,36.0854,0 -115.22426,36.08538,0 -115.22451,36.08537,0 -115.22523,36.08534,0 -115.22534,36.08534,0 -115.22541,36.08534,0 -115.22628,36.08531,0 -115.22658,36.08531,0 -115.22675,36.08532,0 -115.22695,36.08536,0 -115.22749,36.08535,0 -115.22868,36.08534,0 -115.22906,36.08532,0 -115.2297,36.08532,0 -115.23073,36.0853,0 -115.23187,36.08529,0 -115.23255,36.08528,0 -115.23337,36.08527,0 -115.23343,36.08527,0 -115.23406,36.08526,0 -115.23402,36.085,0 -115.23402,36.08489,0 -115.23402,36.08487,0 -115.23403,36.08486,0 -115.23403,36.08478,0 -115.23403,36.08472,0 -115.23404,36.08468,0 -115.23404,36.08467,0 -115.23399,36.08345,0 -115.2339,36.08163,0 -115.23386,36.08086,0 -115.23381,36.07982,0 -115.23381,36.07979,0 -115.23376,36.07872,0 -115.23375,36.07854,0 -115.23371,36.07801,0 -115.23451,36.07799,0 -115.23518,36.07798,0 -115.23595,36.078,0 -115.23757,36.07795,0 -115.23819,36.07793,0 -115.2388,36.07793,0 -115.23926,36.07792,0 -115.23962,36.07791,0 -115.23994,36.07791,0
</kml:coordinates>
      </kml:LineString>
    </kml:Placemark>
    <kml:Placemark>
      <kml:name>2550 W Harmon Ave, Las Vegas, NV 89109, USA</kml:name>
      <kml:styleUrl>#icon-1899-DB4436-nodesc</kml:styleUrl>
      <kml:Point>
        <kml:coordinates>
          -115.1771217,36.1088551,0
        </kml:coordinates>
      </kml:Point>
    </kml:Placemark>
  <kml:Placemark>
      <kml:name>6775 W Patrick Ln, Las Vegas, NV 89118, USA</kml:name>
      <kml:styleUrl>#icon-1899-DB4436-nodesc</kml:styleUrl>
      <kml:Point>
        <kml:coordinates>
          -115.2399366,36.0779069,0
        </kml:coordinates>
      </kml:Point>
    </kml:Placemark>
    </kml:Document>
</kml:kml>