<?xml version="1.0" encoding="UTF-8"?>
<kml xmlns="http://www.opengis.net/kml/2.2">
  <Document>
    <name>F1 RETURN ZONE D TO KH</name>
    <Style id="icon-1899-DB4436-nodesc-normal">
      <IconStyle>
        <color>ff3644db</color>
        <scale>1</scale>
        <Icon>
          <href>https://www.gstatic.com/mapspro/images/stock/503-wht-blank_maps.png</href>
        </Icon>
        <hotSpot x="32" xunits="pixels" y="64" yunits="insetPixels"/>
      </IconStyle>
      <LabelStyle>
        <scale>0</scale>
      </LabelStyle>
      <BalloonStyle>
        <text><![CDATA[<h3>$[name]</h3>]]></text>
      </BalloonStyle>
    </Style>
    <Style id="icon-1899-DB4436-nodesc-highlight">
      <IconStyle>
        <color>ff3644db</color>
        <scale>1</scale>
        <Icon>
          <href>https://www.gstatic.com/mapspro/images/stock/503-wht-blank_maps.png</href>
        </Icon>
        <hotSpot x="32" xunits="pixels" y="64" yunits="insetPixels"/>
      </IconStyle>
      <LabelStyle>
        <scale>1</scale>
      </LabelStyle>
      <BalloonStyle>
        <text><![CDATA[<h3>$[name]</h3>]]></text>
      </BalloonStyle>
    </Style>
    <StyleMap id="icon-1899-DB4436-nodesc">
      <Pair>
        <key>normal</key>
        <styleUrl>#icon-1899-DB4436-nodesc-normal</styleUrl>
      </Pair>
      <Pair>
        <key>highlight</key>
        <styleUrl>#icon-1899-DB4436-nodesc-highlight</styleUrl>
      </Pair>
    </StyleMap>
    <Style id="line-1267FF-5000-nodesc-normal">
      <LineStyle>
        <color>ffff6712</color>
        <width>5</width>
      </LineStyle>
      <BalloonStyle>
        <text><![CDATA[<h3>$[name]</h3>]]></text>
      </BalloonStyle>
    </Style>
    <Style id="line-1267FF-5000-nodesc-highlight">
      <LineStyle>
        <color>ffff6712</color>
        <width>7.5</width>
      </LineStyle>
      <BalloonStyle>
        <text><![CDATA[<h3>$[name]</h3>]]></text>
      </BalloonStyle>
    </Style>
    <StyleMap id="line-1267FF-5000-nodesc">
      <Pair>
        <key>normal</key>
        <styleUrl>#line-1267FF-5000-nodesc-normal</styleUrl>
      </Pair>
      <Pair>
        <key>highlight</key>
        <styleUrl>#line-1267FF-5000-nodesc-highlight</styleUrl>
      </Pair>
    </StyleMap>
    <Placemark>
      <name>F1 RETURN ZONE D TO KH</name>
      <styleUrl>#line-1267FF-5000-nodesc</styleUrl>
      <LineString>
        <tessellate>1</tessellate>
        <coordinates>
          -115.17746,36.10538,0
          -115.17749,36.10534,0
          -115.17751,36.10531,0
          -115.17751,36.10528,0
          -115.17752,36.10524,0
          -115.17751,36.105,0
          -115.17752,36.10454,0
          -115.17752,36.10429,0
          -115.1775,36.10423,0
          -115.17748,36.10416,0
          -115.17746,36.10412,0
          -115.17745,36.10411,0
          -115.17728,36.10384,0
          -115.17736,36.10381,0
          -115.17741,36.1038,0
          -115.17745,36.10379,0
          -115.17749,36.10379,0
          -115.17751,36.10378,0
          -115.17757,36.10377,0
          -115.17761,36.10377,0
          -115.17765,36.10377,0
          -115.1777,36.10377,0
          -115.17776,36.10376,0
          -115.17788,36.10376,0
          -115.17852,36.10376,0
          -115.17873,36.10375,0
          -115.17902,36.10375,0
          -115.17937,36.10375,0
          -115.17943,36.10374,0
          -115.17959,36.10374,0
          -115.1796,36.10374,0
          -115.17964,36.10374,0
          -115.17971,36.10374,0
          -115.17987,36.10375,0
          -115.18004,36.10374,0
          -115.18,36.10354,0
          -115.17997,36.10344,0
          -115.17993,36.10332,0
          -115.17991,36.10326,0
          -115.17986,36.10314,0
          -115.17981,36.10304,0
          -115.17975,36.10291,0
          -115.17972,36.10286,0
          -115.17968,36.10278,0
          -115.17966,36.10273,0
          -115.17965,36.10272,0
          -115.17958,36.10256,0
          -115.17954,36.10245,0
          -115.17952,36.1024,0
          -115.17948,36.10229,0
          -115.17947,36.10225,0
          -115.17945,36.10218,0
          -115.17942,36.10206,0
          -115.17939,36.10188,0
          -115.17935,36.10168,0
          -115.17935,36.10146,0
          -115.17935,36.10144,0
          -115.17937,36.10128,0
          -115.17938,36.10119,0
          -115.17941,36.10103,0
          -115.17942,36.10093,0
          -115.17945,36.10074,0
          -115.17949,36.10047,0
          -115.17951,36.10034,0
          -115.17953,36.10026,0
          -115.17955,36.10015,0
          -115.17957,36.10007,0
          -115.17961,36.09996,0
          -115.17965,36.09978,0
          -115.17968,36.09969,0
          -115.17973,36.09952,0
          -115.17993,36.09914,0
          -115.18002,36.09894,0
          -115.18006,36.09883,0
          -115.18009,36.09864,0
          -115.1801,36.09852,0
          -115.18011,36.0983,0
          -115.18012,36.09818,0
          -115.18012,36.09744,0
          -115.18013,36.09731,0
          -115.18014,36.09717,0
          -115.18015,36.097,0
          -115.18016,36.09684,0
          -115.18016,36.09665,0
          -115.18017,36.09651,0
          -115.18017,36.09625,0
          -115.18018,36.09587,0
          -115.18018,36.09577,0
          -115.18019,36.09545,0
          -115.1802,36.09513,0
          -115.1802,36.0949,0
          -115.1802,36.09487,0
          -115.1802,36.09483,0
          -115.18019,36.09478,0
          -115.1802,36.09453,0
          -115.1802,36.09439,0
          -115.1802,36.09404,0
          -115.1802,36.09387,0
          -115.1802,36.09378,0
          -115.18019,36.09362,0
          -115.18016,36.09337,0
          -115.18014,36.09301,0
          -115.18014,36.09287,0
          -115.18014,36.09274,0
          -115.18014,36.09239,0
          -115.18014,36.09174,0
          -115.18014,36.09138,0
          -115.18014,36.09094,0
          -115.18014,36.09009,0
          -115.18008,36.09,0
          -115.18007,36.08977,0
          -115.18007,36.08968,0
          -115.18005,36.08959,0
          -115.18005,36.08954,0
          -115.18003,36.08948,0
          -115.18003,36.08944,0
          -115.18002,36.0894,0
          -115.18,36.08932,0
          -115.17999,36.08929,0
          -115.17998,36.08926,0
          -115.17997,36.08922,0
          -115.17996,36.08918,0
          -115.17993,36.08912,0
          -115.17996,36.08908,0
          -115.17998,36.08906,0
          -115.17998,36.08905,0
          -115.17996,36.08899,0
          -115.17993,36.0889,0
          -115.1798,36.08862,0
          -115.17971,36.08843,0
          -115.17965,36.0883,0
          -115.17946,36.0879,0
          -115.17922,36.08739,0
          -115.17913,36.08719,0
          -115.17911,36.08714,0
          -115.17908,36.08706,0
          -115.17905,36.08698,0
          -115.17903,36.08695,0
          -115.17902,36.08689,0
          -115.17899,36.08679,0
          -115.17897,36.08668,0
          -115.17896,36.08664,0
          -115.17895,36.0866,0
          -115.17895,36.08657,0
          -115.17894,36.08653,0
          -115.17893,36.08642,0
          -115.17892,36.08633,0
          -115.17891,36.08627,0
          -115.1789,36.08619,0
          -115.1789,36.08607,0
          -115.1789,36.086,0
          -115.1789,36.08599,0
          -115.17889,36.0859,0
          -115.17889,36.08583,0
          -115.1789,36.08579,0
          -115.1789,36.08573,0
          -115.17892,36.08562,0
          -115.17895,36.08548,0
          -115.179,36.08528,0
          -115.17906,36.08508,0
          -115.1791,36.08496,0
          -115.17914,36.08484,0
          -115.17918,36.08473,0
          -115.17925,36.08455,0
          -115.17929,36.08444,0
          -115.17934,36.08431,0
          -115.17937,36.08425,0
          -115.17939,36.08419,0
          -115.1794,36.08415,0
          -115.17941,36.08411,0
          -115.17941,36.08408,0
          -115.17942,36.08406,0
          -115.17942,36.08403,0
          -115.17941,36.08399,0
          -115.17941,36.08396,0
          -115.17941,36.08394,0
          -115.1794,36.08389,0
          -115.17938,36.08386,0
          -115.17937,36.08383,0
          -115.17935,36.0838,0
          -115.17933,36.08376,0
          -115.17931,36.08373,0
          -115.17928,36.0837,0
          -115.17926,36.08367,0
          -115.17923,36.08365,0
          -115.1792,36.08362,0
          -115.17916,36.08359,0
          -115.17912,36.08356,0
          -115.17908,36.08354,0
          -115.17904,36.08352,0
          -115.17901,36.08351,0
          -115.17897,36.0835,0
          -115.17893,36.08348,0
          -115.17889,36.08347,0
          -115.17885,36.08347,0
          -115.17881,36.08346,0
          -115.17877,36.08346,0
          -115.17874,36.08346,0
          -115.17871,36.08345,0
          -115.1787,36.08345,0
          -115.17868,36.08345,0
          -115.17865,36.08345,0
          -115.17862,36.08346,0
          -115.17859,36.08346,0
          -115.17856,36.08346,0
          -115.17853,36.08347,0
          -115.17849,36.08348,0
          -115.17846,36.08349,0
          -115.17842,36.0835,0
          -115.17839,36.08351,0
          -115.17836,36.08352,0
          -115.17833,36.08354,0
          -115.17831,36.08355,0
          -115.17827,36.08357,0
          -115.17824,36.08359,0
          -115.1782,36.08361,0
          -115.17816,36.08363,0
          -115.17812,36.08366,0
          -115.17808,36.08368,0
          -115.17803,36.08371,0
          -115.17797,36.08374,0
          -115.17792,36.08377,0
          -115.17787,36.0838,0
          -115.17786,36.08381,0
          -115.17784,36.08382,0
          -115.17781,36.08383,0
          -115.17778,36.08385,0
          -115.17774,36.08387,0
          -115.17771,36.08388,0
          -115.17768,36.08389,0
          -115.17765,36.0839,0
          -115.17762,36.08391,0
          -115.17758,36.08391,0
          -115.17755,36.08392,0
          -115.17751,36.08392,0
          -115.17747,36.08392,0
          -115.17742,36.08393,0
          -115.17734,36.08392,0
          -115.17723,36.08392,0
          -115.17711,36.08392,0
          -115.17697,36.08392,0
          -115.17684,36.08391,0
          -115.17673,36.08391,0
          -115.17664,36.08392,0
          -115.17657,36.08392,0
          -115.17653,36.08393,0
          -115.17648,36.08393,0
          -115.17643,36.08394,0
          -115.17639,36.08395,0
          -115.17634,36.08397,0
          -115.17631,36.08398,0
          -115.17626,36.08399,0
          -115.17621,36.08402,0
          -115.17616,36.08404,0
          -115.17612,36.08406,0
          -115.17608,36.08408,0
          -115.17603,36.08412,0
          -115.176,36.08414,0
          -115.17598,36.08416,0
          -115.17596,36.08418,0
          -115.17593,36.08421,0
          -115.17591,36.08423,0
          -115.17588,36.08426,0
          -115.17586,36.08428,0
          -115.17584,36.08431,0
          -115.17582,36.08434,0
          -115.17579,36.08437,0
          -115.17578,36.0844,0
          -115.17575,36.08445,0
          -115.17572,36.0845,0
          -115.17571,36.08455,0
          -115.1757,36.08459,0
          -115.17568,36.08465,0
          -115.17568,36.08468,0
          -115.17567,36.08472,0
          -115.17567,36.08477,0
          -115.17567,36.08482,0
          -115.17567,36.08486,0
          -115.17567,36.0849,0
          -115.17567,36.08495,0
          -115.17566,36.08505,0
          -115.17566,36.08515,0
          -115.17566,36.08529,0
          -115.17565,36.08544,0
          -115.17565,36.08559,0
          -115.17565,36.086,0
          -115.17562,36.08617,0
          -115.17569,36.08617,0
          -115.17579,36.08616,0
          -115.1758,36.08616,0
          -115.17584,36.08616,0
          -115.17597,36.08615,0
          -115.17619,36.08613,0
          -115.17643,36.08611,0
          -115.17651,36.0861,0
          -115.17663,36.08609,0
          -115.17678,36.08608,0
          -115.17689,36.08607,0
          -115.17697,36.08606,0
          -115.17703,36.08606,0
          -115.17709,36.08605,0
          -115.17717,36.08605,0
          -115.17727,36.08605,0
          -115.17736,36.08604,0
          -115.17744,36.08604,0
          -115.17754,36.08604,0
          -115.17768,36.08604,0
          -115.17784,36.08604,0
          -115.178,36.08604,0
          -115.17813,36.08604,0
          -115.17816,36.08604,0
          -115.17834,36.08605,0
          -115.17848,36.08605,0
          -115.1785,36.08605,0
          -115.17874,36.08605,0
          -115.17889,36.08605,0
          -115.17903,36.08606,0
          -115.17907,36.08606,0
          -115.17925,36.08606,0
          -115.17933,36.08606,0
          -115.17987,36.08607,0
          -115.18041,36.08608,0
          -115.18096,36.08608,0
          -115.18124,36.08609,0
          -115.18152,36.08609,0
          -115.18215,36.0861,0
          -115.1824,36.0861,0
          -115.18273,36.0861,0
          -115.18315,36.08611,0
          -115.18344,36.08611,0
          -115.18394,36.08612,0
          -115.18411,36.08613,0
          -115.18427,36.08613,0
          -115.18434,36.08614,0
          -115.18443,36.08614,0
          -115.18464,36.08616,0
          -115.18489,36.08617,0
          -115.18554,36.08622,0
          -115.18561,36.08624,0
          -115.18603,36.08627,0
          -115.18641,36.0863,0
          -115.18649,36.0863,0
          -115.18668,36.08625,0
          -115.18691,36.08625,0
          -115.1872,36.08626,0
          -115.18773,36.08627,0
          -115.18781,36.08627,0
          -115.18802,36.08628,0
          -115.18812,36.08628,0
          -115.18826,36.08629,0
          -115.1886,36.08629,0
          -115.18864,36.08629,0
          -115.18874,36.08634,0
          -115.18888,36.08635,0
          -115.18914,36.08635,0
          -115.1894,36.08636,0
          -115.18977,36.08637,0
          -115.18995,36.08639,0
          -115.19068,36.08639,0
          -115.19108,36.0864,0
          -115.19117,36.08633,0
          -115.19155,36.08633,0
          -115.19166,36.08633,0
          -115.19172,36.08633,0
          -115.19224,36.08633,0
          -115.1927,36.08635,0
          -115.19302,36.08635,0
          -115.19427,36.08634,0
          -115.19452,36.08633,0
          -115.1952,36.08631,0
          -115.19531,36.08635,0
          -115.19585,36.08634,0
          -115.1965,36.08634,0
          -115.1969,36.08634,0
          -115.19782,36.08634,0
          -115.19806,36.08634,0
          -115.19812,36.08634,0
          -115.19845,36.08634,0
          -115.19919,36.08633,0
          -115.19999,36.08634,0
          -115.20019,36.08634,0
          -115.20033,36.08634,0
          -115.20039,36.08634,0
          -115.20106,36.08634,0
          -115.20151,36.08634,0
          -115.20195,36.08634,0
          -115.20196,36.08634,0
          -115.20215,36.08634,0
          -115.20255,36.08635,0
          -115.20279,36.08635,0
          -115.2033,36.08635,0
          -115.20386,36.08635,0
          -115.20436,36.08635,0
          -115.20462,36.08635,0
          -115.2048,36.08636,0
          -115.20494,36.08636,0
          -115.20573,36.08636,0
          -115.20618,36.08636,0
          -115.20632,36.08636,0
          -115.20643,36.08636,0
          -115.20646,36.08638,0
          -115.20649,36.0864,0
          -115.20654,36.08641,0
          -115.20661,36.08641,0
          -115.2067,36.0864,0
          -115.20677,36.0864,0
          -115.20691,36.0864,0
          -115.20714,36.0864,0
          -115.20782,36.08641,0
          -115.20802,36.08642,0
          -115.20816,36.08643,0
          -115.20826,36.08642,0
          -115.20851,36.08641,0
          -115.20921,36.08636,0
          -115.20922,36.08636,0
          -115.20923,36.08636,0
          -115.20924,36.08636,0
          -115.2093,36.08631,0
          -115.20934,36.08626,0
          -115.20959,36.08625,0
          -115.20973,36.08624,0
          -115.21009,36.08622,0
          -115.21096,36.08617,0
          -115.21113,36.08617,0
          -115.21158,36.08614,0
          -115.21225,36.08612,0
          -115.21291,36.0861,0
          -115.21314,36.08609,0
          -115.21358,36.08606,0
          -115.2138,36.08605,0
          -115.21402,36.08604,0
          -115.21452,36.086,0
          -115.21521,36.08597,0
          -115.21565,36.08594,0
          -115.21661,36.08588,0
          -115.21737,36.08583,0
          -115.21789,36.0858,0
          -115.21825,36.08579,0
          -115.21877,36.08575,0
          -115.22007,36.08568,0
          -115.22096,36.08563,0
          -115.22185,36.08559,0
          -115.22201,36.08558,0
          -115.22207,36.08558,0
          -115.22314,36.08552,0
          -115.22384,36.08548,0
          -115.22412,36.08546,0
          -115.22416,36.08548,0
          -115.22419,36.08549,0
          -115.22422,36.0855,0
          -115.22425,36.0855,0
          -115.2245,36.08549,0
          -115.22524,36.08545,0
          -115.22532,36.08545,0
          -115.22541,36.08545,0
          -115.22631,36.08545,0
          -115.2266,36.08544,0
          -115.22676,36.08542,0
          -115.22695,36.08536,0
          -115.22749,36.08535,0
          -115.22868,36.08534,0
          -115.22906,36.08532,0
          -115.2297,36.08532,0
          -115.23073,36.0853,0
          -115.23187,36.08529,0
          -115.23255,36.08528,0
          -115.23337,36.08527,0
          -115.23343,36.08527,0
          -115.23406,36.08526,0
          -115.23403,36.08486,0
          -115.23404,36.08467,0
          -115.23399,36.08345,0
          -115.2339,36.08163,0
          -115.23386,36.08086,0
          -115.23381,36.07982,0
          -115.23381,36.07979,0
          -115.23376,36.07872,0
          -115.23375,36.07854,0
          -115.23371,36.07801,0
          -115.23451,36.07799,0
          -115.23518,36.07798,0
          -115.23595,36.078,0
          -115.23757,36.07795,0
          -115.23819,36.07793,0
          -115.2388,36.07793,0
          -115.23926,36.07792,0
          -115.23962,36.07791,0
          -115.23961,36.07766,0
        </coordinates>
      </LineString>
    </Placemark>
    <Placemark>
      <name>3770 S Las Vegas Blvd, Las Vegas, NV 89109, USA</name>
      <styleUrl>#icon-1899-DB4436-nodesc</styleUrl>
      <Point>
        <coordinates>
          -115.1774581,36.1053798,0
        </coordinates>
      </Point>
    </Placemark>
    <Placemark>
      <name>6775 W Patrick Ln, Las Vegas, NV 89118, USA</name>
      <styleUrl>#icon-1899-DB4436-nodesc</styleUrl>
      <Point>
        <coordinates>
          -115.2396063,36.077661,0
        </coordinates>
      </Point>
    </Placemark>
  </Document>
</kml>
