<?xml version="1.0" encoding="UTF-8"?>
<kml xmlns="http://www.opengis.net/kml/2.2">
  <Document>
    <name>F1 RETURN ZONE E TO KH</name>
    <Style id="icon-1899-DB4436-nodesc-normal">
      <IconStyle>
        <color>ff3644db</color>
        <scale>1</scale>
        <Icon>
          <href>https://www.gstatic.com/mapspro/images/stock/503-wht-blank_maps.png</href>
        </Icon>
        <hotSpot x="32" xunits="pixels" y="64" yunits="insetPixels"/>
      </IconStyle>
      <LabelStyle>
        <scale>0</scale>
      </LabelStyle>
      <BalloonStyle>
        <text><![CDATA[<h3>$[name]</h3>]]></text>
      </BalloonStyle>
    </Style>
    <Style id="icon-1899-DB4436-nodesc-highlight">
      <IconStyle>
        <color>ff3644db</color>
        <scale>1</scale>
        <Icon>
          <href>https://www.gstatic.com/mapspro/images/stock/503-wht-blank_maps.png</href>
        </Icon>
        <hotSpot x="32" xunits="pixels" y="64" yunits="insetPixels"/>
      </IconStyle>
      <LabelStyle>
        <scale>1</scale>
      </LabelStyle>
      <BalloonStyle>
        <text><![CDATA[<h3>$[name]</h3>]]></text>
      </BalloonStyle>
    </Style>
    <StyleMap id="icon-1899-DB4436-nodesc">
      <Pair>
        <key>normal</key>
        <styleUrl>#icon-1899-DB4436-nodesc-normal</styleUrl>
      </Pair>
      <Pair>
        <key>highlight</key>
        <styleUrl>#icon-1899-DB4436-nodesc-highlight</styleUrl>
      </Pair>
    </StyleMap>
    <Style id="line-1267FF-5000-nodesc-normal">
      <LineStyle>
        <color>ffff6712</color>
        <width>5</width>
      </LineStyle>
      <BalloonStyle>
        <text><![CDATA[<h3>$[name]</h3>]]></text>
      </BalloonStyle>
    </Style>
    <Style id="line-1267FF-5000-nodesc-highlight">
      <LineStyle>
        <color>ffff6712</color>
        <width>7.5</width>
      </LineStyle>
      <BalloonStyle>
        <text><![CDATA[<h3>$[name]</h3>]]></text>
      </BalloonStyle>
    </Style>
    <StyleMap id="line-1267FF-5000-nodesc">
      <Pair>
        <key>normal</key>
        <styleUrl>#line-1267FF-5000-nodesc-normal</styleUrl>
      </Pair>
      <Pair>
        <key>highlight</key>
        <styleUrl>#line-1267FF-5000-nodesc-highlight</styleUrl>
      </Pair>
    </StyleMap>
    <Placemark>
      <name>307 E Harmon Ave, Las Vegas, NV 89119, USA</name>
      <styleUrl>#icon-1899-DB4436-nodesc</styleUrl>
      <Point>
        <coordinates>
          -115.158712,36.107084,0
        </coordinates>
      </Point>
    </Placemark>
    <Placemark>
      <name>6775 W Patrick Ln, Las Vegas, NV 89118, USA</name>
      <styleUrl>#icon-1899-DB4436-nodesc</styleUrl>
      <Point>
        <coordinates>
          -115.239606,36.077661,0
        </coordinates>
      </Point>
    </Placemark>
    <Placemark>
      <name>F1 RETURN ZONE E TO KH</name>
      <styleUrl>#line-1267FF-5000-nodesc</styleUrl>
      <LineString>
        <tessellate>1</tessellate>
        <coordinates>
          -115.158707,36.107088,0
          -115.158512,36.107075,0
          -115.158414,36.107068,0
          -115.158404,36.106816,0
          -115.158384,36.106507,0
          -115.158373,36.106401,0
          -115.158337,36.106309,0
          -115.158287,36.106221,0
          -115.158259,36.105998,0
          -115.158257,36.105928,0
          -115.158264,36.105878,0
          -115.158269,36.10579,0
          -115.158272,36.105379,0
          -115.158273,36.105168,0
          -115.158273,36.104968,0
          -115.158268,36.104796,0
          -115.158272,36.104709,0
          -115.15827,36.104662,0
          -115.158244,36.104586,0
          -115.158188,36.104535,0
          -115.158165,36.104521,0
          -115.158121,36.104498,0
          -115.15809,36.10449,0
          -115.158056,36.104477,0
          -115.158028,36.104473,0
          -115.157984,36.104473,0
          -115.157735,36.104474,0
          -115.15756,36.10448,0
          -115.15755,36.10448,0
          -115.15754,36.10448,0
          -115.15751,36.10448,0
          -115.15747,36.10447,0
          -115.157387,36.104325,0
          -115.157368,36.104282,0
          -115.157357,36.104247,0
          -115.157338,36.10421,0
          -115.157313,36.104174,0
          -115.157273,36.104114,0
          -115.157254,36.104074,0
          -115.157191,36.103944,0
          -115.157195,36.103882,0
          -115.1572,36.10384,0
          -115.157238,36.1036,0
          -115.157249,36.103466,0
          -115.157259,36.103348,0
          -115.157269,36.103262,0
          -115.157272,36.103116,0
          -115.157266,36.102999,0
          -115.157276,36.102829,0
          -115.157332,36.102529,0
          -115.15735,36.102415,0
          -115.157338,36.102299,0
          -115.157308,36.102233,0
          -115.157269,36.102148,0
          -115.157218,36.102077,0
          -115.157174,36.102034,0
          -115.156872,36.101737,0
          -115.156714,36.101601,0
          -115.156638,36.101439,0
          -115.156623,36.101292,0
          -115.156632,36.101037,0
          -115.156739,36.101017,0
          -115.15718,36.10098,0
          -115.158094,36.100941,0
          -115.158356,36.100935,0
          -115.158916,36.100932,0
          -115.159075,36.100928,0
          -115.159486,36.100924,0
          -115.159969,36.10092,0
          -115.160626,36.100932,0
          -115.160837,36.100939,0
          -115.161313,36.100937,0
          -115.161572,36.10094,0
          -115.1618333,36.1009332,0
          -115.162598,36.100901,0
          -115.162872,36.100891,0
          -115.163124,36.100884,0
          -115.16341,36.10087,0
          -115.163647,36.10087,0
          -115.163853,36.100868,0
          -115.163906,36.100837,0
          -115.16394,36.1008,0
          -115.16395,36.10051,0
          -115.1639615,36.1003592,0
          -115.1639591,36.1001473,0
          -115.1639592,36.0996411,0
          -115.1639495,36.099085,0
          -115.1639525,36.0986832,0
          -115.1639534,36.0983781,0
          -115.1639447,36.0979986,0
          -115.1639457,36.0978198,0
          -115.1639955,36.0976411,0
          -115.1641088,36.097483,0
          -115.1642348,36.0973819,0
          -115.1643513,36.0973241,0
          -115.1645513,36.0972784,0
          -115.1647667,36.0972649,0
          -115.1650257,36.0972582,0
          -115.1654013,36.0972755,0
          -115.166038,36.0972957,0
          -115.166629,36.097274,0
          -115.166847,36.097279,0
          -115.167165,36.097282,0
          -115.167367,36.097286,0
          -115.167778,36.097291,0
          -115.1682963,36.0972986,0
          -115.169098,36.097306,0
          -115.169353,36.097312,0
          -115.169539,36.097306,0
          -115.169587,36.097324,0
          -115.169804,36.0973033,0
          -115.1700507,36.0972579,0
          -115.170182,36.0972515,0
          -115.170365,36.0973047,0
          -115.1704812,36.0973289,0
          -115.1706,36.09734,0
          -115.171241,36.0973419,0
          -115.1716786,36.0973378,0
          -115.1718551,36.0973181,0
          -115.1721067,36.0973127,0
          -115.172749,36.0973247,0
          -115.1729567,36.0973194,0
          -115.1731,36.0972491,0
          -115.1731389,36.0971209,0
          -115.1731416,36.0968446,0
          -115.1731055,36.0964839,0
          -115.1730955,36.0962835,0
          -115.1730952,36.0958428,0
          -115.1730895,36.0953946,0
          -115.1730763,36.0952212,0
          -115.17309,36.09505,0
          -115.1730807,36.0942557,0
          -115.1730794,36.0939735,0
          -115.17306,36.09316,0
          -115.1730563,36.0927217,0
          -115.1730553,36.092418,0
          -115.1730523,36.0919575,0
          -115.1730359,36.0917319,0
          -115.1730378,36.0913751,0
          -115.1730425,36.0910324,0
          -115.1730422,36.0907828,0
          -115.1730424,36.0905102,0
          -115.1730441,36.0901705,0
          -115.1730405,36.0898352,0
          -115.1730425,36.089658,0
          -115.1730941,36.0890718,0
          -115.173104,36.08858,0
          -115.1731183,36.08786,0
          -115.1731152,36.0871567,0
          -115.1731163,36.0867174,0
          -115.1731115,36.0864707,0
          -115.1731265,36.0863625,0
          -115.173171,36.086302,0
          -115.173563,36.086254,0
          -115.1737739,36.0862127,0
          -115.1743013,36.0862227,0
          -115.17464,36.0862248,0
          -115.17491,36.0862059,0
          -115.1752348,36.0861859,0
          -115.17547,36.0861659,0
          -115.1759003,36.0861297,0
          -115.1761954,36.0861051,0
          -115.176626,36.0860662,0
          -115.1769088,36.0860386,0
          -115.1772072,36.086022,0
          -115.1775055,36.0860162,0
          -115.1779509,36.0860141,0
          -115.1783963,36.0860251,0
          -115.1788699,36.0860265,0
          -115.1793327,36.0860394,0
          -115.1798713,36.0860407,0
          -115.180418,36.0860475,0
          -115.18096,36.086054,0
          -115.18152,36.0860618,0
          -115.182158,36.0860718,0
          -115.1827326,36.0860805,0
          -115.1831607,36.0860786,0
          -115.1839883,36.0860972,0
          -115.1843202,36.0861053,0
          -115.1846521,36.0861221,0
          -115.18525,36.086166,0
          -115.1860045,36.0862332,0
          -115.1864167,36.0862664,0
          -115.186933,36.0862858,0
          -115.1877735,36.086303,0
          -115.188268,36.0863174,0
          -115.1885943,36.0863234,0
          -115.18888,36.0863424,0
          -115.1894,36.0863524,0
          -115.189972,36.0863685,0
          -115.1903381,36.0863684,0
          -115.1906961,36.08637,0
          -115.1909761,36.0863707,0
          -115.1912099,36.0863564,0
          -115.191392,36.0863518,0
          -115.1918422,36.0863513,0
          -115.192249,36.0863497,0
          -115.1924868,36.0863684,0
          -115.1927246,36.0863763,0
          -115.193059,36.0863775,0
          -115.1936788,36.0863706,0
          -115.194296,36.0863582,0
          -115.1944316,36.0863575,0
          -115.1945673,36.0863623,0
          -115.194842,36.0863638,0
          -115.194982,36.0863575,0
          -115.1951166,36.0863458,0
          -115.1952213,36.0863434,0
          -115.195326,36.086367,0
          -115.1956,36.0863701,0
          -115.195874,36.086371,0
          -115.196527,36.0863692,0
          -115.196915,36.0863672,0
          -115.1973713,36.086363,0
          -115.197829,36.0863627,0
          -115.198132,36.0863606,0
          -115.198465,36.0863583,0
          -115.199206,36.086364,0
          -115.200007,36.0863667,0
          -115.200401,36.0863683,0
          -115.2010777,36.0863714,0
          -115.201514,36.086374,0
          -115.201965,36.0863737,0
          -115.202566,36.0863775,0
          -115.2030593,36.0863752,0
          -115.203332,36.086378,0
          -115.20386,36.0863783,0
          -115.204375,36.086379,0
          -115.20496,36.08638,0
          -115.2057453,36.0863844,0
          -115.206329,36.0863851,0
          -115.20649,36.0864,0
          -115.20654,36.08641,0
          -115.2066113,36.0864057,0
          -115.2067,36.0863951,0
          -115.20677,36.0863924,0
          -115.20714,36.0863962,0
          -115.2078227,36.0864013,0
          -115.2081927,36.0863899,0
          -115.2085627,36.0863698,0
          -115.208934,36.0863485,0
          -115.2091157,36.0863369,0
          -115.2092987,36.0863187,0
          -115.2094516,36.0862944,0
          -115.209777,36.0862777,0
          -115.210156,36.0862586,0
          -115.2105635,36.0862358,0
          -115.210975,36.0862135,0
          -115.2112935,36.0861969,0
          -115.2116127,36.0861825,0
          -115.2119397,36.0861703,0
          -115.2120908,36.0861692,0
          -115.212262,36.0861528,0
          -115.2124262,36.0861343,0
          -115.2125945,36.0861267,0
          -115.212927,36.086118,0
          -115.213168,36.086103,0
          -115.213597,36.086077,0
          -115.21405,36.0860502,0
          -115.214539,36.0860216,0
          -115.215226,36.0859854,0
          -115.2156663,36.0859637,0
          -115.2161497,36.0859295,0
          -115.216633,36.0859012,0
          -115.2170312,36.0858852,0
          -115.2174307,36.0858584,0
          -115.21828,36.085815,0
          -115.218806,36.085784,0
          -115.2194515,36.0857476,0
          -115.220097,36.085709,0
          -115.2205415,36.0856857,0
          -115.2207618,36.0856751,0
          -115.220982,36.0856624,0
          -115.22142,36.0856362,0
          -115.221858,36.0856164,0
          -115.2222667,36.0855923,0
          -115.2227142,36.0855678,0
          -115.223163,36.0855482,0
          -115.223513,36.0855303,0
          -115.223851,36.0855127,0
          -115.22425,36.0854892,0
          -115.2244665,36.0854786,0
          -115.2245982,36.0854855,0
          -115.2247783,36.085474,0
          -115.225302,36.0854417,0
          -115.2255419,36.0854245,0
          -115.225806,36.0854247,0
          -115.2263107,36.0854218,0
          -115.2266,36.085414,0
          -115.2267794,36.0853886,0
          -115.2268756,36.0853796,0
          -115.2270576,36.0853662,0
          -115.2272868,36.0853666,0
          -115.227516,36.0853712,0
          -115.2276307,36.0853825,0
          -115.227744,36.0853872,0
          -115.228123,36.0853812,0
          -115.228728,36.085374,0
          -115.2289327,36.0853654,0
          -115.2291373,36.0853654,0
          -115.2294367,36.0853634,0
          -115.229736,36.0853603,0
          -115.230247,36.0853502,0
          -115.230758,36.0853433,0
          -115.231334,36.0853334,0
          -115.2319046,36.085325,0
          -115.232626,36.085314,0
          -115.233254,36.085309,0
          -115.233315,36.085293,0
          -115.233353,36.085282,0
          -115.23343,36.08527,0
          -115.233796,36.0852664,0
          -115.2339783,36.0852652,0
          -115.234162,36.085252,0
          -115.2341464,36.0850508,0
          -115.234116,36.084854,0
          -115.234076,36.08464,0
          -115.2340482,36.084039,0
          -115.2340316,36.083739,0
          -115.2340143,36.083439,0
          -115.2339895,36.082973,0
          -115.2339648,36.0825123,0
          -115.2339434,36.0820523,0
          -115.233932,36.0818168,0
          -115.233922,36.0815867,0
          -115.2339041,36.0812203,0
          -115.2338932,36.081035,0
          -115.2338836,36.0808545,0
          -115.233838,36.079863,0
          -115.233833,36.0797316,0
          -115.2338218,36.0794877,0
          -115.2338099,36.0792465,0
          -115.2337986,36.0789802,0
          -115.2337853,36.0787097,0
          -115.2337739,36.0785132,0
          -115.2337546,36.078276,0
          -115.2337416,36.0781455,0
          -115.2337352,36.0780551,0
          -115.2337669,36.0780303,0
          -115.23382,36.078025,0
          -115.233911,36.078017,0
          -115.234523,36.0780089,0
          -115.235189,36.077998,0
          -115.2355785,36.0780068,0
          -115.235968,36.078009,0
          -115.236403,36.077989,0
          -115.2369836,36.0779735,0
          -115.237575,36.077958,0
          -115.2381937,36.0779477,0
          -115.23881,36.0779391,0
          -115.239035,36.0779328,0
          -115.23926,36.07792,0
          -115.239615,36.0779,0
          -115.239606,36.077661,0
        </coordinates>
      </LineString>
    </Placemark>
  </Document>
</kml>
