<?xml version="1.0" encoding="UTF-8"?>
<kml xmlns="http://www.opengis.net/kml/2.2">
  <Document>
    <name>F1 RETURN ZONE A TO KH</name>
    <description>Fashion show to KH</description>
    <Style id="icon-1899-DB4436-nodesc-normal">
      <IconStyle>
        <color>ff3644db</color>
        <scale>1</scale>
        <Icon>
          <href>https://www.gstatic.com/mapspro/images/stock/503-wht-blank_maps.png</href>
        </Icon>
        <hotSpot x="32" xunits="pixels" y="64" yunits="insetPixels"/>
      </IconStyle>
      <LabelStyle>
        <scale>0</scale>
      </LabelStyle>
      <BalloonStyle>
        <text><![CDATA[<h3>$[name]</h3>]]></text>
      </BalloonStyle>
    </Style>
    <Style id="icon-1899-DB4436-nodesc-highlight">
      <IconStyle>
        <color>ff3644db</color>
        <scale>1</scale>
        <Icon>
          <href>https://www.gstatic.com/mapspro/images/stock/503-wht-blank_maps.png</href>
        </Icon>
        <hotSpot x="32" xunits="pixels" y="64" yunits="insetPixels"/>
      </IconStyle>
      <LabelStyle>
        <scale>1</scale>
      </LabelStyle>
      <BalloonStyle>
        <text><![CDATA[<h3>$[name]</h3>]]></text>
      </BalloonStyle>
    </Style>
    <StyleMap id="icon-1899-DB4436-nodesc">
      <Pair>
        <key>normal</key>
        <styleUrl>#icon-1899-DB4436-nodesc-normal</styleUrl>
      </Pair>
      <Pair>
        <key>highlight</key>
        <styleUrl>#icon-1899-DB4436-nodesc-highlight</styleUrl>
      </Pair>
    </StyleMap>
    <Style id="line-1267FF-5000-nodesc-normal">
      <LineStyle>
        <color>ffff6712</color>
        <width>5</width>
      </LineStyle>
      <BalloonStyle>
        <text><![CDATA[<h3>$[name]</h3>]]></text>
      </BalloonStyle>
    </Style>
    <Style id="line-1267FF-5000-nodesc-highlight">
      <LineStyle>
        <color>ffff6712</color>
        <width>7.5</width>
      </LineStyle>
      <BalloonStyle>
        <text><![CDATA[<h3>$[name]</h3>]]></text>
      </BalloonStyle>
    </Style>
    <StyleMap id="line-1267FF-5000-nodesc">
      <Pair>
        <key>normal</key>
        <styleUrl>#line-1267FF-5000-nodesc-normal</styleUrl>
      </Pair>
      <Pair>
        <key>highlight</key>
        <styleUrl>#line-1267FF-5000-nodesc-highlight</styleUrl>
      </Pair>
    </StyleMap>
    <Folder>
      <name>Untitled layer</name>
    </Folder>
    <Folder>
      <name>Directions from 100 Spring Mountain Rd, Las Vegas, NV 89109, USA to 6775 W Patrick Ln, Las Vegas, NV 89118, USA</name>
      <Placemark>
        <name>Directions from 100 Spring Mountain Rd, Las Vegas, NV 89109, USA to 6775 W Patrick Ln, Las Vegas, NV 89118, USA</name>
        <styleUrl>#line-1267FF-5000-nodesc</styleUrl>
        <LineString>
          <tessellate>1</tessellate>
          <coordinates>
            -115.17287,36.12619,0
            -115.17293,36.12621,0
            -115.17305,36.12626,0
            -115.1731,36.12628,0
            -115.17321,36.12631,0
            -115.17328,36.12633,0
            -115.17346,36.12639,0
            -115.17352,36.1264,0
            -115.17369,36.12645,0
            -115.17371,36.12645,0
            -115.17387,36.12649,0
            -115.17389,36.12649,0
            -115.17392,36.12652,0
            -115.17394,36.12655,0
            -115.17394,36.12658,0
            -115.17391,36.12678,0
            -115.17387,36.12699,0
            -115.17387,36.127,0
            -115.17388,36.12701,0
            -115.17389,36.12702,0
            -115.1739,36.12703,0
            -115.17392,36.12704,0
            -115.17393,36.12704,0
            -115.17401,36.12705,0
            -115.17405,36.12705,0
            -115.17439,36.12707,0
            -115.1745,36.12709,0
            -115.17457,36.12709,0
            -115.17464,36.1271,0
            -115.17485,36.12713,0
            -115.17498,36.12715,0
            -115.17501,36.12716,0
            -115.17504,36.12718,0
            -115.17505,36.12722,0
            -115.17505,36.1273,0
            -115.17504,36.12736,0
            -115.17499,36.12769,0
            -115.17498,36.12773,0
            -115.17497,36.12778,0
            -115.17503,36.12779,0
            -115.17509,36.1278,0
            -115.17515,36.12782,0
            -115.1752,36.12784,0
            -115.17521,36.12784,0
            -115.17522,36.12785,0
            -115.17526,36.12787,0
            -115.17533,36.1279,0
            -115.17537,36.12792,0
            -115.17554,36.12798,0
            -115.17556,36.12793,0
            -115.17559,36.12787,0
            -115.17578,36.12759,0
            -115.17586,36.12746,0
            -115.1759,36.12739,0
            -115.17595,36.12731,0
            -115.176,36.12723,0
            -115.1761,36.12707,0
            -115.17613,36.12704,0
            -115.17623,36.12688,0
            -115.17634,36.12671,0
            -115.17643,36.12659,0
            -115.17652,36.12645,0
            -115.17661,36.12632,0
            -115.17667,36.12623,0
            -115.17674,36.12613,0
            -115.17691,36.12587,0
            -115.17707,36.12562,0
            -115.17714,36.1255,0
            -115.17726,36.12532,0
            -115.17735,36.12518,0
            -115.1776,36.1248,0
            -115.17765,36.12472,0
            -115.17775,36.12457,0
            -115.17799,36.12418,0
            -115.17807,36.12404,0
            -115.17837,36.12352,0
            -115.1786,36.12312,0
            -115.17865,36.12302,0
            -115.17875,36.12286,0
            -115.17875,36.12285,0
            -115.17874,36.12274,0
            -115.17886,36.12253,0
            -115.179,36.1223,0
            -115.17919,36.12199,0
            -115.17934,36.12174,0
            -115.17949,36.12163,0
            -115.17952,36.12158,0
            -115.17959,36.12148,0
            -115.17962,36.12143,0
            -115.17963,36.12141,0
            -115.17967,36.12135,0
            -115.17971,36.12129,0
            -115.17975,36.12122,0
            -115.17977,36.12118,0
            -115.1798,36.12114,0
            -115.17983,36.12109,0
            -115.17987,36.12104,0
            -115.17991,36.12099,0
            -115.17996,36.12094,0
            -115.18001,36.12089,0
            -115.18006,36.12085,0
            -115.18009,36.12082,0
            -115.1801,36.12081,0
            -115.1801,36.1208,0
            -115.18011,36.1208,0
            -115.18018,36.12077,0
            -115.18021,36.12075,0
            -115.18022,36.12074,0
            -115.18034,36.12067,0
            -115.18039,36.12064,0
            -115.18042,36.12063,0
            -115.18044,36.12062,0
            -115.18055,36.12057,0
            -115.18059,36.12055,0
            -115.18061,36.12054,0
            -115.18072,36.12047,0
            -115.18073,36.12047,0
            -115.18078,36.12044,0
            -115.18084,36.12041,0
            -115.18089,36.12038,0
            -115.18092,36.12036,0
            -115.18095,36.12033,0
            -115.18099,36.12031,0
            -115.18103,36.12028,0
            -115.18107,36.12024,0
            -115.18116,36.12015,0
            -115.18139,36.11989,0
            -115.18142,36.11982,0
            -115.18148,36.1197,0
            -115.18158,36.11949,0
            -115.1816,36.1194,0
            -115.18162,36.1193,0
            -115.18163,36.11924,0
            -115.18163,36.1192,0
            -115.18163,36.11915,0
            -115.18163,36.11907,0
            -115.18163,36.11899,0
            -115.18163,36.11891,0
            -115.18163,36.11884,0
            -115.18164,36.11879,0
            -115.18164,36.11875,0
            -115.18166,36.11869,0
            -115.18167,36.11862,0
            -115.18171,36.11852,0
            -115.18175,36.11842,0
            -115.18178,36.11836,0
            -115.1818,36.11831,0
            -115.18183,36.11827,0
            -115.18185,36.11823,0
            -115.18187,36.11821,0
            -115.1819,36.11817,0
            -115.18194,36.11812,0
            -115.18201,36.11802,0
            -115.18209,36.11793,0
            -115.18214,36.11786,0
            -115.18218,36.1178,0
            -115.1822,36.11777,0
            -115.18223,36.11773,0
            -115.18225,36.11769,0
            -115.18227,36.11766,0
            -115.18229,36.11761,0
            -115.18232,36.11757,0
            -115.18248,36.11724,0
            -115.18265,36.11693,0
            -115.18287,36.1165,0
            -115.18292,36.11641,0
            -115.1829,36.11632,0
            -115.18308,36.11598,0
            -115.18314,36.11585,0
            -115.18321,36.11572,0
            -115.18328,36.11558,0
            -115.18334,36.11547,0
            -115.18338,36.11538,0
            -115.1834,36.11531,0
            -115.18342,36.11522,0
            -115.18343,36.11519,0
            -115.18344,36.11508,0
            -115.18344,36.11495,0
            -115.18345,36.1148,0
            -115.18351,36.11471,0
            -115.18352,36.11416,0
            -115.18351,36.11385,0
            -115.18351,36.11361,0
            -115.18347,36.11352,0
            -115.18338,36.11338,0
            -115.18333,36.11329,0
            -115.18322,36.11311,0
            -115.18295,36.11287,0
            -115.18278,36.11275,0
            -115.1827,36.11269,0
            -115.18242,36.1125,0
            -115.18232,36.11243,0
            -115.18227,36.11239,0
            -115.18205,36.11224,0
            -115.18194,36.11217,0
            -115.18167,36.11197,0
            -115.18159,36.11193,0
            -115.18158,36.11192,0
            -115.18156,36.1119,0
            -115.18152,36.11185,0
            -115.18148,36.1118,0
            -115.18146,36.11176,0
            -115.18145,36.11175,0
            -115.18141,36.11168,0
            -115.18138,36.11161,0
            -115.18135,36.11155,0
            -115.18135,36.11154,0
            -115.18133,36.11147,0
            -115.18131,36.11143,0
            -115.1813,36.11137,0
            -115.18129,36.11133,0
            -115.18129,36.11129,0
            -115.18128,36.1112,0
            -115.18127,36.11108,0
            -115.18125,36.1108,0
            -115.18124,36.11058,0
            -115.18122,36.11031,0
            -115.18121,36.11013,0
            -115.18121,36.11004,0
            -115.1812,36.10995,0
            -115.1812,36.10987,0
            -115.18121,36.1098,0
            -115.18121,36.10965,0
            -115.18122,36.10941,0
            -115.18123,36.10888,0
            -115.1815,36.10888,0
            -115.1816,36.10888,0
            -115.18168,36.10888,0
            -115.18176,36.10888,0
            -115.1818,36.10889,0
            -115.18188,36.10889,0
            -115.18198,36.1089,0
            -115.18226,36.10892,0
            -115.18234,36.10893,0
            -115.18243,36.10893,0
            -115.18246,36.10893,0
            -115.18259,36.10894,0
            -115.18287,36.10894,0
            -115.18291,36.10894,0
            -115.18295,36.10894,0
            -115.18298,36.10893,0
            -115.18302,36.10893,0
            -115.18304,36.10892,0
            -115.18308,36.10891,0
            -115.18315,36.10888,0
            -115.18321,36.10886,0
            -115.18325,36.10877,0
            -115.18332,36.10863,0
            -115.18338,36.10833,0
            -115.1834,36.10822,0
            -115.18431,36.10824,0
            -115.18444,36.10825,0
            -115.18489,36.10826,0
            -115.18517,36.10827,0
            -115.18552,36.10829,0
            -115.18592,36.10833,0
            -115.18602,36.10834,0
            -115.18608,36.10835,0
            -115.18614,36.10836,0
            -115.18632,36.10838,0
            -115.18641,36.10839,0
            -115.18651,36.1084,0
            -115.18652,36.10842,0
            -115.18654,36.10843,0
            -115.18655,36.10844,0
            -115.18657,36.10846,0
            -115.1866,36.10847,0
            -115.18669,36.10849,0
            -115.18677,36.10853,0
            -115.18679,36.10854,0
            -115.18682,36.10856,0
            -115.18686,36.1086,0
            -115.18687,36.10862,0
            -115.18689,36.10865,0
            -115.1869,36.10871,0
            -115.1869,36.10875,0
            -115.1869,36.10876,0
            -115.1869,36.10877,0
            -115.1869,36.10878,0
            -115.1869,36.10879,0
            -115.1869,36.1089,0
            -115.18691,36.10903,0
            -115.18692,36.10915,0
            -115.18693,36.10917,0
            -115.18701,36.10928,0
            -115.18709,36.10937,0
            -115.1871,36.10937,0
            -115.18719,36.10943,0
            -115.18731,36.10947,0
            -115.18731,36.10948,0
            -115.1874,36.1095,0
            -115.18749,36.1095,0
            -115.18754,36.1095,0
            -115.1876,36.10949,0
            -115.18771,36.10946,0
            -115.18778,36.10944,0
            -115.18785,36.10941,0
            -115.18796,36.10937,0
            -115.18799,36.10935,0
            -115.188,36.10934,0
            -115.18802,36.10933,0
            -115.18811,36.10929,0
            -115.18829,36.10916,0
            -115.18834,36.10912,0
            -115.18834,36.10911,0
            -115.1884,36.10906,0
            -115.18848,36.10898,0
            -115.18849,36.10896,0
            -115.1885,36.10895,0
            -115.18852,36.10893,0
            -115.18854,36.10891,0
            -115.18857,36.10888,0
            -115.1886,36.10885,0
            -115.18861,36.10883,0
            -115.18866,36.10876,0
            -115.18871,36.10869,0
            -115.18874,36.10864,0
            -115.18882,36.10851,0
            -115.18889,36.10838,0
            -115.1889,36.10835,0
            -115.18891,36.10835,0
            -115.18897,36.10822,0
            -115.189,36.10818,0
            -115.18908,36.10802,0
            -115.18909,36.10802,0
            -115.18916,36.10789,0
            -115.18918,36.10786,0
            -115.18924,36.10775,0
            -115.18925,36.10773,0
            -115.18927,36.1077,0
            -115.18927,36.10769,0
            -115.18934,36.10756,0
            -115.18936,36.10753,0
            -115.18945,36.10737,0
            -115.18953,36.10723,0
            -115.18954,36.1072,0
            -115.18956,36.10717,0
            -115.18961,36.10707,0
            -115.18974,36.10682,0
            -115.18978,36.10674,0
            -115.1898,36.10668,0
            -115.18982,36.10662,0
            -115.18981,36.10653,0
            -115.18988,36.10634,0
            -115.18991,36.10622,0
            -115.18992,36.10618,0
            -115.18992,36.10617,0
            -115.18992,36.10616,0
            -115.18994,36.10605,0
            -115.18995,36.10599,0
            -115.18996,36.10585,0
            -115.18996,36.10571,0
            -115.18995,36.10545,0
            -115.18994,36.10505,0
            -115.18993,36.10466,0
            -115.18986,36.10461,0
            -115.18987,36.10457,0
            -115.18988,36.10445,0
            -115.18988,36.10438,0
            -115.18988,36.10397,0
            -115.18988,36.10375,0
            -115.18988,36.10362,0
            -115.18988,36.10316,0
            -115.18988,36.10288,0
            -115.18989,36.10234,0
            -115.18989,36.10227,0
            -115.18989,36.10216,0
            -115.18989,36.10194,0
            -115.18988,36.10189,0
            -115.18986,36.10171,0
            -115.18983,36.10154,0
            -115.18983,36.10146,0
            -115.18983,36.10137,0
            -115.18984,36.10114,0
            -115.18984,36.10108,0
            -115.18988,36.10102,0
            -115.18991,36.10098,0
            -115.18994,36.10083,0
            -115.18993,36.10022,0
            -115.18993,36.1002,0
            -115.18985,36.1001,0
            -115.18987,36.09999,0
            -115.18985,36.0999,0
            -115.18985,36.09967,0
            -115.18985,36.09908,0
            -115.18985,36.09879,0
            -115.18985,36.09867,0
            -115.18985,36.09798,0
            -115.18985,36.09725,0
            -115.18985,36.09684,0
            -115.18985,36.09674,0
            -115.18985,36.09642,0
            -115.18985,36.09618,0
            -115.18985,36.09604,0
            -115.18985,36.09595,0
            -115.18986,36.09543,0
            -115.18986,36.09524,0
            -115.18986,36.09497,0
            -115.18986,36.09461,0
            -115.18986,36.09452,0
            -115.18988,36.09444,0
            -115.18993,36.09427,0
            -115.18993,36.09393,0
            -115.18993,36.09367,0
            -115.18994,36.09358,0
            -115.18994,36.09334,0
            -115.18994,36.09318,0
            -115.18994,36.09287,0
            -115.18994,36.09286,0
            -115.18986,36.09281,0
            -115.18984,36.09273,0
            -115.18984,36.09268,0
            -115.18984,36.09263,0
            -115.18984,36.09232,0
            -115.18985,36.0918,0
            -115.18985,36.09123,0
            -115.18985,36.09112,0
            -115.18985,36.09097,0
            -115.18985,36.09086,0
            -115.18985,36.09072,0
            -115.18985,36.09063,0
            -115.18986,36.09039,0
            -115.18986,36.09025,0
            -115.18986,36.09019,0
            -115.18986,36.09011,0
            -115.18992,36.08998,0
            -115.18994,36.08975,0
            -115.18994,36.08967,0
            -115.18994,36.0895,0
            -115.18994,36.08913,0
            -115.18994,36.08896,0
            -115.18993,36.08865,0
            -115.18994,36.08836,0
            -115.18993,36.0882,0
            -115.18993,36.08812,0
            -115.18993,36.08759,0
            -115.18993,36.08724,0
            -115.18993,36.08717,0
            -115.18992,36.08709,0
            -115.18992,36.08694,0
            -115.18993,36.08687,0
            -115.18993,36.08674,0
            -115.18993,36.08651,0
            -115.18994,36.08644,0
            -115.18994,36.0864,0
            -115.18995,36.08639,0
            -115.19068,36.08639,0
            -115.19108,36.0864,0
            -115.19117,36.08633,0
            -115.19155,36.08633,0
            -115.19166,36.08633,0
            -115.19172,36.08633,0
            -115.19224,36.08633,0
            -115.1927,36.08635,0
            -115.19302,36.08635,0
            -115.19427,36.08634,0
            -115.19452,36.08633,0
            -115.1952,36.08631,0
            -115.19531,36.08635,0
            -115.19585,36.08634,0
            -115.1965,36.08634,0
            -115.1969,36.08634,0
            -115.19782,36.08634,0
            -115.19806,36.08634,0
            -115.19812,36.08634,0
            -115.19845,36.08634,0
            -115.19919,36.08633,0
            -115.19999,36.08634,0
            -115.20019,36.08634,0
            -115.20033,36.08634,0
            -115.20039,36.08634,0
            -115.20106,36.08634,0
            -115.20151,36.08634,0
            -115.20195,36.08634,0
            -115.20196,36.08634,0
            -115.20215,36.08634,0
            -115.20255,36.08635,0
            -115.20279,36.08635,0
            -115.2033,36.08635,0
            -115.20386,36.08635,0
            -115.20436,36.08635,0
            -115.20462,36.08635,0
            -115.2048,36.08636,0
            -115.20494,36.08636,0
            -115.20573,36.08636,0
            -115.20618,36.08636,0
            -115.20632,36.08636,0
            -115.20643,36.08636,0
            -115.20646,36.08638,0
            -115.20649,36.0864,0
            -115.20654,36.08641,0
            -115.20661,36.08641,0
            -115.2067,36.0864,0
            -115.20677,36.0864,0
            -115.20691,36.0864,0
            -115.20714,36.0864,0
            -115.20782,36.08641,0
            -115.20802,36.08642,0
            -115.20816,36.08643,0
            -115.20826,36.08642,0
            -115.20851,36.08641,0
            -115.20921,36.08636,0
            -115.20922,36.08636,0
            -115.20923,36.08636,0
            -115.20924,36.08636,0
            -115.2093,36.08631,0
            -115.20934,36.08626,0
            -115.20959,36.08625,0
            -115.20973,36.08624,0
            -115.21009,36.08622,0
            -115.21096,36.08617,0
            -115.21113,36.08617,0
            -115.21158,36.08614,0
            -115.21225,36.08612,0
            -115.21291,36.0861,0
            -115.21314,36.08609,0
            -115.21358,36.08606,0
            -115.2138,36.08605,0
            -115.21402,36.08604,0
            -115.21452,36.086,0
            -115.21521,36.08597,0
            -115.21565,36.08594,0
            -115.21661,36.08588,0
            -115.21737,36.08583,0
            -115.21789,36.0858,0
            -115.21825,36.08579,0
            -115.21877,36.08575,0
            -115.22007,36.08568,0
            -115.22096,36.08563,0
            -115.22185,36.08559,0
            -115.22201,36.08558,0
            -115.22207,36.08558,0
            -115.22314,36.08552,0
            -115.22384,36.08548,0
            -115.22412,36.08546,0
            -115.22416,36.08548,0
            -115.22419,36.08549,0
            -115.22422,36.0855,0
            -115.22425,36.0855,0
            -115.2245,36.08549,0
            -115.22524,36.08545,0
            -115.22532,36.08545,0
            -115.22541,36.08545,0
            -115.22631,36.08545,0
            -115.2266,36.08544,0
            -115.22676,36.08542,0
            -115.22695,36.08536,0
            -115.22749,36.08535,0
            -115.22868,36.08534,0
            -115.22906,36.08532,0
            -115.2297,36.08532,0
            -115.23073,36.0853,0
            -115.23187,36.08529,0
            -115.23255,36.08528,0
            -115.23337,36.08527,0
            -115.23343,36.08527,0
            -115.23406,36.08526,0
            -115.23403,36.08486,0
            -115.23404,36.08467,0
            -115.23399,36.08345,0
            -115.2339,36.08163,0
            -115.23386,36.08086,0
            -115.23381,36.07982,0
            -115.23381,36.07979,0
            -115.23376,36.07872,0
            -115.23375,36.07854,0
            -115.23371,36.07801,0
            -115.23451,36.07799,0
            -115.23518,36.07798,0
            -115.23595,36.078,0
            -115.23757,36.07795,0
            -115.23819,36.07793,0
            -115.2388,36.07793,0
            -115.23926,36.07792,0
            -115.23962,36.07791,0
            -115.23994,36.07791,0
          </coordinates>
        </LineString>
      </Placemark>
      <Placemark>
        <name>100 Spring Mountain Rd, Las Vegas, NV 89109, USA</name>
        <styleUrl>#icon-1899-DB4436-nodesc</styleUrl>
        <Point>
          <coordinates>
            -115.1728671,36.1261856,0
          </coordinates>
        </Point>
      </Placemark>
      <Placemark>
        <name>6775 W Patrick Ln, Las Vegas, NV 89118, USA</name>
        <styleUrl>#icon-1899-DB4436-nodesc</styleUrl>
        <Point>
          <coordinates>
            -115.2399366,36.0779069,0
          </coordinates>
        </Point>
      </Placemark>
    </Folder>
  </Document>
</kml>
