<?xml version="1.0" encoding="UTF-8"?>
<kml xmlns="http://www.opengis.net/kml/2.2">
  <Document>
    <name>F1 RETURN ZONE F SPHERE TO KH</name>
    <Style id="icon-1899-DB4436-nodesc-normal">
      <IconStyle>
        <color>ff3644db</color>
        <scale>1</scale>
        <Icon>
          <href>https://www.gstatic.com/mapspro/images/stock/503-wht-blank_maps.png</href>
        </Icon>
        <hotSpot x="32" xunits="pixels" y="64" yunits="insetPixels"/>
      </IconStyle>
      <LabelStyle>
        <scale>0</scale>
      </LabelStyle>
      <BalloonStyle>
        <text><![CDATA[<h3>$[name]</h3>]]></text>
      </BalloonStyle>
    </Style>
    <Style id="icon-1899-DB4436-nodesc-highlight">
      <IconStyle>
        <color>ff3644db</color>
        <scale>1</scale>
        <Icon>
          <href>https://www.gstatic.com/mapspro/images/stock/503-wht-blank_maps.png</href>
        </Icon>
        <hotSpot x="32" xunits="pixels" y="64" yunits="insetPixels"/>
      </IconStyle>
      <LabelStyle>
        <scale>1</scale>
      </LabelStyle>
      <BalloonStyle>
        <text><![CDATA[<h3>$[name]</h3>]]></text>
      </BalloonStyle>
    </Style>
    <StyleMap id="icon-1899-DB4436-nodesc">
      <Pair>
        <key>normal</key>
        <styleUrl>#icon-1899-DB4436-nodesc-normal</styleUrl>
      </Pair>
      <Pair>
        <key>highlight</key>
        <styleUrl>#icon-1899-DB4436-nodesc-highlight</styleUrl>
      </Pair>
    </StyleMap>
    <Style id="line-1267FF-5000-nodesc-normal">
      <LineStyle>
        <color>ffff6712</color>
        <width>5</width>
      </LineStyle>
      <BalloonStyle>
        <text><![CDATA[<h3>$[name]</h3>]]></text>
      </BalloonStyle>
    </Style>
    <Style id="line-1267FF-5000-nodesc-highlight">
      <LineStyle>
        <color>ffff6712</color>
        <width>7.5</width>
      </LineStyle>
      <BalloonStyle>
        <text><![CDATA[<h3>$[name]</h3>]]></text>
      </BalloonStyle>
    </Style>
    <StyleMap id="line-1267FF-5000-nodesc">
      <Pair>
        <key>normal</key>
        <styleUrl>#line-1267FF-5000-nodesc-normal</styleUrl>
      </Pair>
      <Pair>
        <key>highlight</key>
        <styleUrl>#line-1267FF-5000-nodesc-highlight</styleUrl>
      </Pair>
    </StyleMap>
    <Placemark>
      <name>F1 RETURN ZONE F SPHERE TO KH</name>
      <styleUrl>#line-1267FF-5000-nodesc</styleUrl>
      <LineString>
        <tessellate>1</tessellate>
        <coordinates>
          -115.15724,36.12083,0
          -115.1575,36.12084,0
          -115.15748,36.12061,0
          -115.15755,36.12061,0
          -115.15764,36.1206,0
          -115.15778,36.12059,0
          -115.15794,36.12058,0
          -115.15792,36.12047,0
          -115.1579,36.12037,0
          -115.15784,36.12018,0
          -115.15781,36.12009,0
          -115.15778,36.12,0
          -115.15775,36.11994,0
          -115.15769,36.11979,0
          -115.15743,36.11932,0
          -115.15736,36.11922,0
          -115.15717,36.11889,0
          -115.15716,36.11887,0
          -115.15715,36.11884,0
          -115.15715,36.11883,0
          -115.15713,36.11877,0
          -115.15712,36.11871,0
          -115.15711,36.11864,0
          -115.1571,36.11858,0
          -115.15709,36.11854,0
          -115.1571,36.11842,0
          -115.15694,36.11841,0
          -115.15616,36.11841,0
          -115.15601,36.11842,0
          -115.15512,36.11842,0
          -115.15507,36.11842,0
          -115.15495,36.11843,0
          -115.15493,36.11856,0
          -115.15503,36.11871,0
          -115.15503,36.11906,0
          -115.15503,36.11914,0
          -115.15503,36.11951,0
          -115.15502,36.11981,0
          -115.15502,36.11992,0
          -115.15502,36.12007,0
          -115.15494,36.12013,0
          -115.15494,36.12014,0
          -115.15494,36.12029,0
          -115.15494,36.12039,0
          -115.15494,36.12049,0
          -115.15494,36.12074,0
          -115.15494,36.1212,0
          -115.1549,36.12131,0
          -115.15488,36.12151,0
          -115.15488,36.12175,0
          -115.15487,36.12195,0
          -115.15496,36.12202,0
          -115.15496,36.1221,0
          -115.15496,36.12218,0
          -115.15496,36.12228,0
          -115.15495,36.12276,0
          -115.15495,36.12287,0
          -115.15487,36.12291,0
          -115.15486,36.12292,0
          -115.15486,36.12297,0
          -115.15486,36.12307,0
          -115.15486,36.12311,0
          -115.15486,36.12313,0
          -115.15486,36.12314,0
          -115.15486,36.12316,0
          -115.15486,36.12317,0
          -115.15486,36.12325,0
          -115.15486,36.12368,0
          -115.15485,36.12428,0
          -115.15485,36.12445,0
          -115.15484,36.12493,0
          -115.15483,36.12518,0
          -115.15483,36.12554,0
          -115.15483,36.12567,0
          -115.15482,36.12579,0
          -115.15482,36.12592,0
          -115.15482,36.12618,0
          -115.15482,36.12621,0
          -115.15482,36.12631,0
          -115.15482,36.12645,0
          -115.15482,36.12648,0
          -115.15482,36.12669,0
          -115.15482,36.12682,0
          -115.15481,36.12704,0
          -115.15481,36.12726,0
          -115.15481,36.12746,0
          -115.1548,36.12787,0
          -115.1548,36.12795,0
          -115.15479,36.12831,0
          -115.15479,36.12859,0
          -115.15478,36.12878,0
          -115.15477,36.12916,0
          -115.15476,36.12946,0
          -115.15476,36.12961,0
          -115.15491,36.12962,0
          -115.15511,36.12964,0
          -115.15537,36.12967,0
          -115.15558,36.12968,0
          -115.15563,36.12969,0
          -115.15565,36.12969,0
          -115.15624,36.12974,0
          -115.15627,36.12974,0
          -115.15649,36.12975,0
          -115.15678,36.12975,0
          -115.15701,36.12974,0
          -115.15785,36.12973,0
          -115.15855,36.12974,0
          -115.15914,36.12974,0
          -115.15931,36.12974,0
          -115.15939,36.12974,0
          -115.15949,36.12974,0
          -115.15958,36.12974,0
          -115.15967,36.12974,0
          -115.15976,36.12974,0
          -115.15984,36.12974,0
          -115.15991,36.12974,0
          -115.15998,36.12974,0
          -115.16005,36.12973,0
          -115.16013,36.12973,0
          -115.1603,36.12971,0
          -115.16049,36.1297,0
          -115.16058,36.12969,0
          -115.16067,36.12968,0
          -115.16078,36.12967,0
          -115.16087,36.12967,0
          -115.16096,36.12966,0
          -115.16109,36.12966,0
          -115.16119,36.12966,0
          -115.16141,36.12966,0
          -115.16153,36.12966,0
          -115.16168,36.12966,0
          -115.16188,36.12967,0
          -115.16193,36.12966,0
          -115.16204,36.12966,0
          -115.16216,36.12966,0
          -115.16226,36.12967,0
          -115.16237,36.12967,0
          -115.16249,36.12968,0
          -115.16259,36.1297,0
          -115.16268,36.12971,0
          -115.16276,36.12972,0
          -115.16283,36.12973,0
          -115.16284,36.12974,0
          -115.16293,36.12975,0
          -115.16304,36.12978,0
          -115.16316,36.12981,0
          -115.16328,36.12985,0
          -115.16339,36.12989,0
          -115.16349,36.12992,0
          -115.16352,36.12993,0
          -115.16359,36.12996,0
          -115.16374,36.13003,0
          -115.16389,36.1301,0
          -115.16403,36.13018,0
          -115.16419,36.13028,0
          -115.16427,36.13033,0
          -115.1647,36.13061,0
          -115.16476,36.13065,0
          -115.16505,36.13084,0
          -115.16535,36.13103,0
          -115.16549,36.13109,0
          -115.16553,36.13111,0
          -115.16563,36.13115,0
          -115.16571,36.13119,0
          -115.16579,36.13122,0
          -115.16589,36.13125,0
          -115.16599,36.13128,0
          -115.16613,36.13132,0
          -115.16626,36.13136,0
          -115.16637,36.13138,0
          -115.16646,36.1314,0
          -115.16661,36.13142,0
          -115.16668,36.13143,0
          -115.16678,36.13144,0
          -115.1669,36.13145,0
          -115.16704,36.13146,0
          -115.16718,36.13146,0
          -115.16749,36.13147,0
          -115.16761,36.13147,0
          -115.16776,36.13147,0
          -115.16802,36.13148,0
          -115.16816,36.13147,0
          -115.16825,36.13147,0
          -115.16832,36.13147,0
          -115.16834,36.13147,0
          -115.16852,36.13147,0
          -115.16876,36.13147,0
          -115.16891,36.13147,0
          -115.16904,36.13147,0
          -115.16933,36.13148,0
          -115.1696,36.13148,0
          -115.16979,36.13148,0
          -115.17005,36.13149,0
          -115.17025,36.13149,0
          -115.17038,36.13149,0
          -115.17048,36.13149,0
          -115.17093,36.1315,0
          -115.17105,36.1315,0
          -115.17115,36.1315,0
          -115.17137,36.13151,0
          -115.17159,36.13151,0
          -115.17175,36.13152,0
          -115.17179,36.13152,0
          -115.17184,36.13152,0
          -115.17203,36.13152,0
          -115.17214,36.13152,0
          -115.17221,36.13153,0
          -115.17228,36.13153,0
          -115.17239,36.13154,0
          -115.1725,36.13155,0
          -115.17262,36.13157,0
          -115.17272,36.13159,0
          -115.17294,36.13163,0
          -115.17305,36.13165,0
          -115.17335,36.1317,0
          -115.17338,36.13171,0
          -115.1736,36.13175,0
          -115.17381,36.13178,0
          -115.17399,36.13181,0
          -115.17407,36.13183,0
          -115.17416,36.13184,0
          -115.17427,36.13186,0
          -115.1744,36.13188,0
          -115.17453,36.13189,0
          -115.17469,36.13189,0
          -115.17481,36.1319,0
          -115.17489,36.1319,0
          -115.17501,36.1319,0
          -115.17511,36.13189,0
          -115.17528,36.13188,0
          -115.17541,36.13186,0
          -115.1755,36.13185,0
          -115.17561,36.13184,0
          -115.17577,36.13181,0
          -115.17598,36.13178,0
          -115.17631,36.13173,0
          -115.17643,36.13172,0
          -115.17656,36.1317,0
          -115.1767,36.13168,0
          -115.17687,36.13165,0
          -115.17689,36.13165,0
          -115.17708,36.13162,0
          -115.1771,36.13162,0
          -115.1774,36.13157,0
          -115.17764,36.13154,0
          -115.17769,36.13153,0
          -115.17794,36.13149,0
          -115.1782,36.13146,0
          -115.1784,36.13143,0
          -115.17855,36.1314,0
          -115.17864,36.13139,0
          -115.17872,36.13137,0
          -115.17882,36.13135,0
          -115.17893,36.13132,0
          -115.17899,36.1313,0
          -115.17903,36.13129,0
          -115.17909,36.13127,0
          -115.17917,36.13125,0
          -115.17924,36.13122,0
          -115.17933,36.13119,0
          -115.17941,36.13116,0
          -115.17949,36.13113,0
          -115.17958,36.13109,0
          -115.17972,36.13102,0
          -115.17983,36.13097,0
          -115.17996,36.13089,0
          -115.18005,36.13084,0
          -115.18007,36.13084,0
          -115.18008,36.13083,0
          -115.18015,36.13079,0
          -115.18025,36.13073,0
          -115.18037,36.13066,0
          -115.18053,36.13058,0
          -115.18063,36.13052,0
          -115.18073,36.13047,0
          -115.18074,36.13046,0
          -115.18089,36.13037,0
          -115.18101,36.13031,0
          -115.1811,36.13026,0
          -115.18118,36.13022,0
          -115.18126,36.13018,0
          -115.18128,36.13017,0
          -115.18129,36.13017,0
          -115.18131,36.13015,0
          -115.1814,36.13012,0
          -115.18149,36.13008,0
          -115.18158,36.13004,0
          -115.18168,36.13001,0
          -115.18178,36.12998,0
          -115.18188,36.12995,0
          -115.18189,36.12995,0
          -115.18197,36.12993,0
          -115.18207,36.12991,0
          -115.18219,36.12989,0
          -115.18231,36.12987,0
          -115.18242,36.12986,0
          -115.18254,36.12984,0
          -115.18266,36.12984,0
          -115.18279,36.12983,0
          -115.1829,36.12983,0
          -115.18302,36.12983,0
          -115.1832,36.12984,0
          -115.18321,36.12984,0
          -115.18343,36.12985,0
          -115.18366,36.12987,0
          -115.18388,36.12988,0
          -115.18389,36.12988,0
          -115.18411,36.12989,0
          -115.1843,36.1299,0
          -115.18443,36.12991,0
          -115.18447,36.12991,0
          -115.18476,36.12992,0
          -115.18498,36.12993,0
          -115.18521,36.12995,0
          -115.18539,36.12996,0
          -115.18559,36.12997,0
          -115.18573,36.12998,0
          -115.18607,36.13,0
          -115.18621,36.13001,0
          -115.18633,36.13002,0
          -115.18653,36.13004,0
          -115.18671,36.13005,0
          -115.18712,36.13008,0
          -115.18786,36.13014,0
          -115.1881,36.13015,0
          -115.18839,36.13017,0
          -115.18851,36.13018,0
          -115.18861,36.13018,0
          -115.18879,36.13019,0
          -115.18902,36.1302,0
          -115.18915,36.13021,0
          -115.18979,36.13021,0
          -115.18996,36.13021,0
          -115.19018,36.13025,0
          -115.19032,36.13025,0
          -115.19133,36.13029,0
          -115.19161,36.13028,0
          -115.19164,36.13027,0
          -115.19167,36.13026,0
          -115.19169,36.13025,0
          -115.19172,36.13024,0
          -115.19174,36.13023,0
          -115.19175,36.13022,0
          -115.19203,36.13021,0
          -115.19236,36.1302,0
          -115.19279,36.13017,0
          -115.19326,36.13018,0
          -115.19365,36.13015,0
          -115.19395,36.13014,0
          -115.19404,36.13013,0
          -115.19418,36.13013,0
          -115.19468,36.13014,0
          -115.1952,36.1301,0
          -115.19532,36.1301,0
          -115.19547,36.13009,0
          -115.19573,36.13009,0
          -115.19587,36.13008,0
          -115.19617,36.13007,0
          -115.19626,36.13007,0
          -115.19673,36.13008,0
          -115.1969,36.13007,0
          -115.19717,36.13007,0
          -115.19733,36.13006,0
          -115.19755,36.13006,0
          -115.1979,36.13005,0
          -115.1981,36.13002,0
          -115.19816,36.13003,0
          -115.19822,36.13004,0
          -115.19852,36.13,0
          -115.19867,36.13002,0
          -115.19911,36.13,0
          -115.1997,36.13,0
          -115.20019,36.13,0
          -115.20029,36.13,0
          -115.20067,36.13,0
          -115.20087,36.13,0
          -115.20136,36.12999,0
          -115.20173,36.12999,0
          -115.20227,36.12999,0
          -115.20236,36.12999,0
          -115.20276,36.12999,0
          -115.20298,36.12999,0
          -115.20327,36.12999,0
          -115.20356,36.12999,0
          -115.20366,36.12999,0
          -115.20461,36.12998,0
          -115.20492,36.12998,0
          -115.20564,36.12998,0
          -115.20597,36.12998,0
          -115.20635,36.12998,0
          -115.20665,36.12998,0
          -115.2069,36.12998,0
          -115.20725,36.12997,0
          -115.20763,36.12997,0
          -115.20796,36.12997,0
          -115.20814,36.12998,0
          -115.20878,36.12996,0
          -115.20922,36.12995,0
          -115.2102,36.1299,0
          -115.21074,36.12987,0
          -115.21235,36.12978,0
          -115.21272,36.12976,0
          -115.21283,36.12976,0
          -115.2129,36.12975,0
          -115.21304,36.12974,0
          -115.21309,36.12974,0
          -115.21312,36.12974,0
          -115.21334,36.12971,0
          -115.21419,36.12968,0
          -115.21448,36.12966,0
          -115.21543,36.12961,0
          -115.21569,36.12959,0
          -115.21652,36.12955,0
          -115.21672,36.12954,0
          -115.2174,36.1295,0
          -115.21772,36.12949,0
          -115.21806,36.12947,0
          -115.21808,36.12947,0
          -115.21863,36.12944,0
          -115.2189,36.12943,0
          -115.21972,36.12938,0
          -115.22012,36.12936,0
          -115.22076,36.12933,0
          -115.22234,36.12925,0
          -115.22266,36.12924,0
          -115.22288,36.12922,0
          -115.22373,36.12918,0
          -115.22381,36.12921,0
          -115.22384,36.12923,0
          -115.22387,36.12923,0
          -115.22488,36.12918,0
          -115.22504,36.12919,0
          -115.22596,36.1292,0
          -115.22598,36.1292,0
          -115.22619,36.1292,0
          -115.22624,36.1292,0
          -115.22625,36.1292,0
          -115.22636,36.12915,0
          -115.22673,36.12915,0
          -115.22686,36.12916,0
          -115.22721,36.12916,0
          -115.22782,36.12918,0
          -115.22837,36.12919,0
          -115.22945,36.12921,0
          -115.23062,36.12923,0
          -115.2309,36.12924,0
          -115.23097,36.12924,0
          -115.23172,36.12925,0
          -115.2322,36.12926,0
          -115.23232,36.12927,0
          -115.23268,36.12927,0
          -115.23288,36.12928,0
          -115.23306,36.12928,0
          -115.2334,36.12929,0
          -115.2337,36.12929,0
          -115.23395,36.1293,0
          -115.23396,36.12867,0
          -115.23396,36.1281,0
          -115.23396,36.12744,0
          -115.23396,36.12707,0
          -115.23396,36.12654,0
          -115.23396,36.12606,0
          -115.23396,36.12563,0
          -115.23396,36.12553,0
          -115.23395,36.12512,0
          -115.23395,36.12493,0
          -115.23394,36.12372,0
          -115.23393,36.12274,0
          -115.23393,36.12237,0
          -115.23393,36.12188,0
          -115.23394,36.1217,0
          -115.23394,36.12138,0
          -115.23394,36.12084,0
          -115.23394,36.12066,0
          -115.23394,36.12001,0
          -115.23393,36.11962,0
          -115.23393,36.11957,0
          -115.2339,36.11873,0
          -115.2339,36.11854,0
          -115.2339,36.11832,0
          -115.23392,36.11817,0
          -115.23393,36.11759,0
          -115.23393,36.1172,0
          -115.23393,36.1169,0
          -115.23392,36.11633,0
          -115.23393,36.11576,0
          -115.23392,36.11535,0
          -115.23392,36.11531,0
          -115.23392,36.11515,0
          -115.23392,36.11506,0
          -115.23392,36.11498,0
          -115.23392,36.1149,0
          -115.23392,36.11461,0
          -115.23392,36.11445,0
          -115.23392,36.1143,0
          -115.23393,36.11385,0
          -115.23393,36.11316,0
          -115.23393,36.11311,0
          -115.23393,36.11263,0
          -115.23393,36.11221,0
          -115.23394,36.11151,0
          -115.23394,36.1108,0
          -115.23395,36.10982,0
          -115.23395,36.10969,0
          -115.23395,36.10946,0
          -115.23395,36.10912,0
          -115.23396,36.10839,0
          -115.23396,36.10779,0
          -115.23396,36.10765,0
          -115.23397,36.10713,0
          -115.23399,36.10671,0
          -115.23399,36.10593,0
          -115.23401,36.10451,0
          -115.23402,36.10332,0
          -115.23402,36.10296,0
          -115.23403,36.10242,0
          -115.23404,36.10112,0
          -115.23405,36.10078,0
          -115.23405,36.10043,0
          -115.23405,36.09986,0
          -115.23406,36.09974,0
          -115.23406,36.09924,0
          -115.23406,36.09904,0
          -115.23406,36.09874,0
          -115.23405,36.09818,0
          -115.23405,36.09751,0
          -115.23405,36.09726,0
          -115.23405,36.09706,0
          -115.23405,36.09616,0
          -115.23405,36.09599,0
          -115.23405,36.09577,0
          -115.23405,36.09553,0
          -115.23405,36.09531,0
          -115.23405,36.09443,0
          -115.23404,36.09388,0
          -115.23404,36.09316,0
          -115.23404,36.09286,0
          -115.23405,36.09252,0
          -115.23406,36.09212,0
          -115.23406,36.09204,0
          -115.23406,36.0914,0
          -115.23407,36.09073,0
          -115.23406,36.0907,0
          -115.23406,36.09052,0
          -115.23406,36.09027,0
          -115.23407,36.0896,0
          -115.23406,36.08909,0
          -115.23406,36.08903,0
          -115.23403,36.08892,0
          -115.23408,36.08885,0
          -115.23408,36.08777,0
          -115.23408,36.08759,0
          -115.23408,36.08705,0
          -115.23408,36.08666,0
          -115.23408,36.08618,0
          -115.23407,36.086,0
          -115.23407,36.08577,0
          -115.23406,36.08526,0
          -115.23403,36.08486,0
          -115.23404,36.08467,0
          -115.23399,36.08345,0
          -115.2339,36.08163,0
          -115.23386,36.08086,0
          -115.23381,36.07982,0
          -115.23381,36.07979,0
          -115.23376,36.07872,0
          -115.23375,36.07854,0
          -115.23371,36.07801,0
          -115.23318,36.07801,0
          -115.23304,36.07802,0
          -115.23237,36.07803,0
          -115.23148,36.07804,0
          -115.23154,36.07854,0
          -115.23159,36.07985,0
          -115.23278,36.07983,0
          -115.23282,36.07983,0
          -115.23371,36.07982,0
          -115.23373,36.07982,0
          -115.23381,36.07982,0
          -115.23381,36.07979,0
          -115.23376,36.07872,0
          -115.23375,36.07854,0
          -115.23371,36.07801,0
          -115.23451,36.07799,0
          -115.23518,36.07798,0
          -115.23595,36.078,0
          -115.23757,36.07795,0
          -115.23819,36.07793,0
          -115.2388,36.07793,0
          -115.23926,36.07792,0
          -115.23962,36.07791,0
          -115.23961,36.07766,0
        </coordinates>
      </LineString>
    </Placemark>
    <Placemark>
      <name>3770 Howard Hughes Pkwy, Las Vegas, NV 89119, USA</name>
      <styleUrl>#icon-1899-DB4436-nodesc</styleUrl>
      <Point>
        <coordinates>
          -115.1572418,36.1208349,0
        </coordinates>
      </Point>
    </Placemark>
    <Placemark>
      <name>6775 W Patrick Ln, Las Vegas, NV 89118, USA</name>
      <styleUrl>#icon-1899-DB4436-nodesc</styleUrl>
      <Point>
        <coordinates>
          -115.2396063,36.077661,0
        </coordinates>
      </Point>
    </Placemark>
  </Document>
</kml>
