<?xml version="1.0" encoding="UTF-8"?>
<kml xmlns="http://www.opengis.net/kml/2.2">
  <Document>
    <name>F1 KH TO ZONE F SPHERE</name>
    <Style id="icon-1899-DB4436-nodesc-normal">
      <IconStyle>
        <color>ff3644db</color>
        <scale>1</scale>
        <Icon>
          <href>https://www.gstatic.com/mapspro/images/stock/503-wht-blank_maps.png</href>
        </Icon>
        <hotSpot x="32" xunits="pixels" y="64" yunits="insetPixels"/>
      </IconStyle>
      <LabelStyle>
        <scale>0</scale>
      </LabelStyle>
      <BalloonStyle>
        <text><![CDATA[<h3>$[name]</h3>]]></text>
      </BalloonStyle>
    </Style>
    <Style id="icon-1899-DB4436-nodesc-highlight">
      <IconStyle>
        <color>ff3644db</color>
        <scale>1</scale>
        <Icon>
          <href>https://www.gstatic.com/mapspro/images/stock/503-wht-blank_maps.png</href>
        </Icon>
        <hotSpot x="32" xunits="pixels" y="64" yunits="insetPixels"/>
      </IconStyle>
      <LabelStyle>
        <scale>1</scale>
      </LabelStyle>
      <BalloonStyle>
        <text><![CDATA[<h3>$[name]</h3>]]></text>
      </BalloonStyle>
    </Style>
    <StyleMap id="icon-1899-DB4436-nodesc">
      <Pair>
        <key>normal</key>
        <styleUrl>#icon-1899-DB4436-nodesc-normal</styleUrl>
      </Pair>
      <Pair>
        <key>highlight</key>
        <styleUrl>#icon-1899-DB4436-nodesc-highlight</styleUrl>
      </Pair>
    </StyleMap>
    <Style id="line-1267FF-5000-nodesc-normal">
      <LineStyle>
        <color>ffff6712</color>
        <width>5</width>
      </LineStyle>
      <BalloonStyle>
        <text><![CDATA[<h3>$[name]</h3>]]></text>
      </BalloonStyle>
    </Style>
    <Style id="line-1267FF-5000-nodesc-highlight">
      <LineStyle>
        <color>ffff6712</color>
        <width>7.5</width>
      </LineStyle>
      <BalloonStyle>
        <text><![CDATA[<h3>$[name]</h3>]]></text>
      </BalloonStyle>
    </Style>
    <StyleMap id="line-1267FF-5000-nodesc">
      <Pair>
        <key>normal</key>
        <styleUrl>#line-1267FF-5000-nodesc-normal</styleUrl>
      </Pair>
      <Pair>
        <key>highlight</key>
        <styleUrl>#line-1267FF-5000-nodesc-highlight</styleUrl>
      </Pair>
    </StyleMap>
    <Placemark>
      <name>6775 W Patrick Ln, Las Vegas, NV 89118, USA</name>
      <styleUrl>#icon-1899-DB4436-nodesc</styleUrl>
      <Point>
        <coordinates>
          -115.239937,36.0777395,0
        </coordinates>
      </Point>
    </Placemark>
    <Placemark>
      <name>3770 Howard Hughes Pkwy, Las Vegas, NV 89119, USA</name>
      <styleUrl>#icon-1899-DB4436-nodesc</styleUrl>
      <Point>
        <coordinates>
          -115.157183,36.120835,0
        </coordinates>
      </Point>
    </Placemark>
    <Placemark>
      <name>F1 KH TO ZONE F SPHERE</name>
      <styleUrl>#line-1267FF-5000-nodesc</styleUrl>
      <LineString>
        <tessellate>1</tessellate>
        <coordinates>
          -115.239937,36.0777395,0
          -115.2398501,36.0778526,0
          -115.2395328,36.0778591,0
          -115.239083,36.0778788,0
          -115.2387638,36.0779116,0
          -115.2381833,36.077917,0
          -115.23757,36.0779272,0
          -115.2367613,36.0779506,0
          -115.2363557,36.0779601,0
          -115.2359178,36.077974,0
          -115.235184,36.0779648,0
          -115.23451,36.0779737,0
          -115.2340644,36.0779821,0
          -115.2338215,36.0779885,0
          -115.2336885,36.07801,0
          -115.2337299,36.0785357,0
          -115.2337426,36.0787547,0
          -115.2337642,36.0792713,0
          -115.2337885,36.0797824,0
          -115.2338189,36.0803212,0
          -115.2338426,36.0808546,0
          -115.2338606,36.0812455,0
          -115.2338772,36.0816213,0
          -115.2338953,36.0820703,0
          -115.2339135,36.0825302,0
          -115.2339383,36.0829901,0
          -115.2339672,36.0834446,0
          -115.2339875,36.0840551,0
          -115.2340132,36.0846602,0
          -115.2339646,36.0847705,0
          -115.2339737,36.0849003,0
          -115.2339784,36.0850363,0
          -115.2339661,36.0853023,0
          -115.2339832,36.0855432,0
          -115.2339922,36.0857722,0
          -115.2339922,36.0859989,0
          -115.2339915,36.0861952,0
          -115.2339928,36.0864276,0
          -115.2339928,36.0866448,0
          -115.2339861,36.0868517,0
          -115.2339875,36.0870397,0
          -115.2339895,36.0873089,0
          -115.2339878,36.0874836,0
          -115.2339848,36.08761,0
          -115.2339855,36.0877695,0
          -115.2339898,36.088307,0
          -115.233992,36.0885747,0
          -115.2339922,36.0888381,0
          -115.2339889,36.0890257,0
          -115.2339876,36.0892005,0
          -115.2339919,36.0894024,0
          -115.2339922,36.0895924,0
          -115.2339899,36.0899215,0
          -115.2339874,36.090093,0
          -115.2339876,36.090264,0
          -115.2339876,36.0904099,0
          -115.2339889,36.0905227,0
          -115.2339923,36.0906859,0
          -115.2339875,36.0908682,0
          -115.2339842,36.0911314,0
          -115.2339842,36.0913902,0
          -115.2339886,36.0917081,0
          -115.2339867,36.0918957,0
          -115.2339862,36.0920584,0
          -115.2339846,36.0923054,0
          -115.2339863,36.0925146,0
          -115.2339816,36.09269,0
          -115.2339817,36.0928773,0
          -115.233983,36.0931497,0
          -115.2339827,36.0935116,0
          -115.2339825,36.0936985,0
          -115.2339817,36.093887,0
          -115.2339823,36.0941574,0
          -115.2339829,36.0944278,0
          -115.2339836,36.0946421,0
          -115.2339843,36.0948608,0
          -115.2339843,36.0950821,0
          -115.2339856,36.0953046,0
          -115.2339816,36.0955175,0
          -115.2339803,36.095757,0
          -115.2339843,36.095977,0
          -115.233985,36.0961492,0
          -115.2339798,36.0963734,0
          -115.2339799,36.0965986,0
          -115.2339781,36.0968234,0
          -115.2339789,36.0970546,0
          -115.2339789,36.0972513,0
          -115.2339789,36.0975057,0
          -115.2339809,36.0978407,0
          -115.2339833,36.0980098,0
          -115.2339829,36.0981908,0
          -115.2339833,36.0984649,0
          -115.2339849,36.0987308,0
          -115.2339822,36.0990313,0
          -115.2339849,36.099234,0
          -115.2339876,36.0994865,0
          -115.2339856,36.0997254,0
          -115.2339736,36.0998833,0
          -115.2339769,36.1001545,0
          -115.2339749,36.1004295,0
          -115.2339722,36.1006123,0
          -115.2339682,36.1007881,0
          -115.2339679,36.1009616,0
          -115.2339716,36.1011211,0
          -115.2339694,36.1014434,0
          -115.2339673,36.1017657,0
          -115.2339658,36.1020885,0
          -115.233963,36.102258,0
          -115.2339589,36.1024227,0
          -115.2339573,36.1026892,0
          -115.2339538,36.1028387,0
          -115.2339523,36.1029746,0
          -115.2339529,36.1031495,0
          -115.2339503,36.1033281,0
          -115.2339461,36.1036133,0
          -115.2339446,36.1039136,0
          -115.2339404,36.1042053,0
          -115.2339389,36.1045008,0
          -115.2339333,36.104854,0
          -115.2339316,36.1052084,0
          -115.2339291,36.1053842,0
          -115.2339266,36.1055632,0
          -115.2339241,36.1057509,0
          -115.2339236,36.1059446,0
          -115.2339226,36.1063224,0
          -115.2339183,36.1066932,0
          -115.2339113,36.1069062,0
          -115.233905,36.1071181,0
          -115.2339063,36.1073808,0
          -115.233905,36.1075349,0
          -115.233903,36.1076663,0
          -115.2339023,36.107803,0
          -115.2339023,36.1080938,0
          -115.2339003,36.1083813,0
          -115.2339017,36.1087469,0
          -115.2338997,36.1089334,0
          -115.2339004,36.1091178,0
          -115.2338917,36.1092846,0
          -115.2338903,36.1094757,0
          -115.233889,36.1096933,0
          -115.2338903,36.1098292,0
          -115.233887,36.1103114,0
          -115.2338847,36.1105546,0
          -115.233885,36.1107902,0
          -115.2338843,36.1111452,0
          -115.233882,36.111326,0
          -115.2338729,36.1115078,0
          -115.233872,36.1118524,0
          -115.2338701,36.112029,0
          -115.233867,36.1122073,0
          -115.2338643,36.1124214,0
          -115.2338663,36.1126224,0
          -115.2338626,36.112857,0
          -115.2338583,36.1130992,0
          -115.2338529,36.1132564,0
          -115.2338546,36.1135505,0
          -115.233852,36.1137051,0
          -115.2338515,36.1138614,0
          -115.2338489,36.1140796,0
          -115.2338523,36.1142859,0
          -115.2338476,36.1144728,0
          -115.2338436,36.1146506,0
          -115.2338476,36.114894,0
          -115.2338489,36.1150643,0
          -115.2338509,36.1152954,0
          -115.2338516,36.1154545,0
          -115.2338546,36.1156143,0
          -115.233869,36.1157638,0
          -115.2338811,36.1160442,0
          -115.2338831,36.1163246,0
          -115.2338844,36.1166096,0
          -115.2338837,36.116894,0
          -115.2338857,36.1171935,0
          -115.2338837,36.1173907,0
          -115.2338878,36.1175922,0
          -115.2338885,36.1178784,0
          -115.2338845,36.1181602,0
          -115.2338926,36.1183195,0
          -115.2338873,36.1185362,0
          -115.2338866,36.1187284,0
          -115.2338915,36.1191432,0
          -115.2338987,36.1193544,0
          -115.2339072,36.1195678,0
          -115.2339095,36.1197873,0
          -115.2339125,36.1200008,0
          -115.2338954,36.1203185,0
          -115.2338976,36.1204854,0
          -115.2338991,36.1206595,0
          -115.2338984,36.1208395,0
          -115.2338991,36.1211038,0
          -115.2339004,36.1213757,0
          -115.2339014,36.1215357,0
          -115.2338964,36.1217108,0
          -115.2338884,36.1218778,0
          -115.233874,36.1219949,0
          -115.233869,36.1221163,0
          -115.233871,36.1223657,0
          -115.2338717,36.1225518,0
          -115.2338757,36.12274,0
          -115.2338763,36.1229771,0
          -115.233877,36.123223,0
          -115.2338777,36.1234693,0
          -115.2338736,36.1237151,0
          -115.2338719,36.1240153,0
          -115.2338729,36.1243166,0
          -115.2338739,36.1246201,0
          -115.2338749,36.124923,0
          -115.2338789,36.1251227,0
          -115.2338812,36.1253242,0
          -115.2338789,36.1255349,0
          -115.2338762,36.1256874,0
          -115.2338826,36.1258764,0
          -115.2338836,36.1260649,0
          -115.2338822,36.1263003,0
          -115.2338822,36.1265319,0
          -115.2338842,36.1267966,0
          -115.2338822,36.1270575,0
          -115.2338849,36.1272504,0
          -115.2338856,36.1274395,0
          -115.2338866,36.1277621,0
          -115.2339092,36.1279587,0
          -115.2339178,36.128113,0
          -115.2339221,36.1283866,0
          -115.2339285,36.1286603,0
          -115.2338611,36.1288096,0
          -115.2338548,36.1289725,0
          -115.2338471,36.1291468,0
          -115.2338355,36.1292066,0
          -115.2337904,36.1292339,0
          -115.2335927,36.1292261,0
          -115.2332827,36.1292158,0
          -115.232882,36.1292074,0
          -115.2323254,36.1291974,0
          -115.2317495,36.1291904,0
          -115.2313591,36.1291806,0
          -115.2309948,36.1291734,0
          -115.2306542,36.1291666,0
          -115.2300642,36.1291574,0
          -115.2297443,36.1291485,0
          -115.2294252,36.1291423,0
          -115.2289077,36.1291309,0
          -115.2283908,36.1291174,0
          -115.2281,36.1291103,0
          -115.2278113,36.1291063,0
          -115.2274986,36.1290996,0
          -115.2272087,36.1290923,0
          -115.2268546,36.1290836,0
          -115.2263882,36.1290736,0
          -115.226052,36.1290638,0
          -115.2254943,36.1290554,0
          -115.22505,36.1290503,0
          -115.22461,36.1290678,0
          -115.22432,36.1290762,0
          -115.22385,36.1291,0
          -115.22381,36.12912,0
          -115.2237662,36.129141,0
          -115.223661,36.1291195,0
          -115.2235665,36.1291174,0
          -115.2233653,36.1291263,0
          -115.22312,36.1291401,0
          -115.2228572,36.129155,0
          -115.2225715,36.1291701,0
          -115.2221958,36.1291893,0
          -115.2218771,36.1292064,0
          -115.2215664,36.1292234,0
          -115.2211612,36.1292447,0
          -115.2207607,36.1292628,0
          -115.220433,36.1292816,0
          -115.220124,36.1292988,0
          -115.2197187,36.1293155,0
          -115.2195264,36.1293201,0
          -115.2193382,36.1293289,0
          -115.2189054,36.1293515,0
          -115.2186146,36.1293663,0
          -115.2183446,36.1293824,0
          -115.2180627,36.1293974,0
          -115.2177146,36.1294158,0
          -115.2174,36.1294323,0
          -115.2170593,36.1294477,0
          -115.2167166,36.1294631,0
          -115.2163336,36.1294823,0
          -115.2160091,36.1294977,0
          -115.2156826,36.1295169,0
          -115.2154072,36.129532,0
          -115.2151724,36.1295456,0
          -115.2149429,36.1295592,0
          -115.2147118,36.1295728,0
          -115.2144807,36.1295863,0
          -115.2141806,36.129602,0
          -115.2139715,36.1296101,0
          -115.2137663,36.1296181,0
          -115.2135505,36.1296272,0
          -115.2133199,36.1296401,0
          -115.2130326,36.1296604,0
          -115.2127173,36.1296798,0
          -115.2123574,36.1296933,0
          -115.2119597,36.1297158,0
          -115.2115782,36.1297373,0
          -115.211147,36.1297587,0
          -115.2107199,36.1297833,0
          -115.2104653,36.1297964,0
          -115.2102121,36.1298096,0
          -115.2097194,36.1298392,0
          -115.2094908,36.1298488,0
          -115.2092616,36.1298612,0
          -115.2090298,36.1298811,0
          -115.2088008,36.1298891,0
          -115.2081688,36.1299031,0
          -115.2078306,36.1299169,0
          -115.2075428,36.1299207,0
          -115.2072366,36.1299223,0
          -115.2068993,36.129922,0
          -115.2065749,36.1299264,0
          -115.2062642,36.1299275,0
          -115.2059137,36.1299313,0
          -115.2056065,36.1299313,0
          -115.2052652,36.1299345,0
          -115.2049394,36.1299372,0
          -115.204606,36.1299329,0
          -115.2041417,36.1299322,0
          -115.2038975,36.1299329,0
          -115.2036479,36.129931,0
          -115.2033076,36.1299445,0
          -115.2029847,36.1299483,0
          -115.2027117,36.1299472,0
          -115.2023647,36.1299494,0
          -115.2020628,36.1299494,0
          -115.2017173,36.1299445,0
          -115.2013647,36.1299391,0
          -115.2008894,36.129941,0
          -115.2006143,36.1299372,0
          -115.2002538,36.1299274,0
          -115.1999365,36.1299112,0
          -115.1996269,36.1299112,0
          -115.1991522,36.1299036,0
          -115.1987337,36.1299203,0
          -115.1984516,36.1299226,0
          -115.1981925,36.1299333,0
          -115.1977867,36.1299438,0
          -115.1974776,36.1299517,0
          -115.1971445,36.1299633,0
          -115.1968222,36.1299828,0
          -115.1962821,36.1299812,0
          -115.1958834,36.1299928,0
          -115.1954727,36.1300142,0
          -115.1951946,36.130022,0
          -115.1948676,36.1300382,0
          -115.1945057,36.1300441,0
          -115.1942068,36.1300433,0
          -115.193942,36.130049,0
          -115.193648,36.1300633,0
          -115.1932741,36.1300868,0
          -115.1929911,36.1300824,0
          -115.1926995,36.1300877,0
          -115.192362,36.130102,0
          -115.1920179,36.1301066,0
          -115.1917379,36.1301084,0
          -115.191582,36.130075,0
          -115.1914261,36.1300653,0
          -115.191175,36.1300541,0
          -115.1909152,36.1300418,0
          -115.1906176,36.1300329,0
          -115.190312,36.130031,0
          -115.19017,36.13003,0
          -115.18999,36.130013,0
          -115.18962,36.1299897,0
          -115.18917,36.1299657,0
          -115.18877,36.1299551,0
          -115.188435,36.1299411,0
          -115.1880993,36.1299281,0
          -115.18786,36.129914,0
          -115.18749,36.1299009,0
          -115.18712,36.1298862,0
          -115.1862793,36.1298503,0
          -115.1855113,36.1298175,0
          -115.18506,36.1297889,0
          -115.1844807,36.1297532,0
          -115.1842093,36.129744,0
          -115.1837967,36.1297232,0
          -115.1832921,36.1297035,0
          -115.1828653,36.1297044,0
          -115.1826,36.1297162,0
          -115.182292,36.1297527,0
          -115.1819846,36.1298065,0
          -115.181712,36.1298694,0
          -115.1814585,36.1299543,0
          -115.1811992,36.1300516,0
          -115.1810858,36.1300914,0
          -115.1809832,36.1301378,0
          -115.1806671,36.1303159,0
          -115.1804157,36.1304521,0
          -115.1802224,36.1305621,0
          -115.1798804,36.1307499,0
          -115.1794712,36.1309634,0
          -115.1791666,36.1310899,0
          -115.1789001,36.1311768,0
          -115.1786691,36.1312365,0
          -115.1783539,36.1312862,0
          -115.1780649,36.1313275,0
          -115.1776,36.1313927,0
          -115.1772893,36.1314383,0
          -115.1769719,36.1314855,0
          -115.1766666,36.1315283,0
          -115.1762953,36.1315838,0
          -115.175862,36.1316478,0
          -115.1755146,36.1317,0
          -115.1752631,36.1317278,0
          -115.1749893,36.131744,0
          -115.1747499,36.1317445,0
          -115.1744493,36.1317283,0
          -115.17417,36.1316959,0
          -115.1739487,36.1316551,0
          -115.1736673,36.1316056,0
          -115.17341,36.13156,0
          -115.173134,36.1315105,0
          -115.1727507,36.1314416,0
          -115.1725035,36.1314032,0
          -115.1722,36.1313881,0
          -115.17164,36.13138,0
          -115.17137,36.13138,0
          -115.17119,36.13138,0
          -115.17093,36.1313738,0
          -115.17071,36.1313749,0
          -115.17049,36.13137,0
          -115.170175,36.1313682,0
          -115.1698573,36.1313649,0
          -115.16943,36.1313532,0
          -115.1691687,36.1313481,0
          -115.16887,36.13134,0
          -115.1685827,36.1313403,0
          -115.1683287,36.1313465,0
          -115.1680733,36.1313549,0
          -115.1677593,36.1313554,0
          -115.1673834,36.1313503,0
          -115.16702,36.1313438,0
          -115.16679,36.13132,0
          -115.1665253,36.1312765,0
          -115.1662887,36.1312238,0
          -115.16616,36.13119,0
          -115.1660666,36.1311632,0
          -115.16597,36.13113,0
          -115.16583,36.13108,0
          -115.16572,36.13105,0
          -115.16563,36.13101,0
          -115.16561,36.131,0
          -115.16551,36.13096,0
          -115.16547,36.13094,0
          -115.16543,36.13091,0
          -115.16537,36.13088,0
          -115.16533,36.13086,0
          -115.16525,36.13081,0
          -115.16518,36.13077,0
          -115.16512,36.13073,0
          -115.16505,36.13069,0
          -115.16492,36.13061,0
          -115.1648412,36.1305668,0
          -115.1644793,36.1303365,0
          -115.16425,36.13018,0
          -115.1640627,36.1300586,0
          -115.16389,36.12997,0
          -115.16374,36.1299,0
          -115.16357,36.12983,0
          -115.16347,36.1297912,0
          -115.16337,36.12976,0
          -115.163225,36.1297168,0
          -115.16308,36.12968,0
          -115.1629857,36.1296558,0
          -115.16289,36.1296349,0
          -115.16281,36.12962,0
          -115.16267,36.1295957,0
          -115.16244,36.12957,0
          -115.162184,36.129557,0
          -115.1618847,36.1295519,0
          -115.16156,36.1295481,0
          -115.1613207,36.1295462,0
          -115.1610654,36.129543,0
          -115.1609227,36.1295466,0
          -115.16078,36.1295535,0
          -115.1606463,36.1295634,0
          -115.1605127,36.1295776,0
          -115.160152,36.1296165,0
          -115.15993,36.1296308,0
          -115.159662,36.1296365,0
          -115.1594453,36.129633,0
          -115.1592525,36.1296297,0
          -115.1590093,36.1296243,0
          -115.1587573,36.1296203,0
          -115.1585,36.1296197,0
          -115.1582673,36.129617,0
          -115.1579687,36.1296118,0
          -115.1576707,36.1296087,0
          -115.1573703,36.1296031,0
          -115.157072,36.1295997,0
          -115.156732,36.1295965,0
          -115.156566,36.1295854,0
          -115.156483,36.129555,0
          -115.1563819,36.1295175,0
          -115.156182,36.1294869,0
          -115.1559646,36.1294737,0
          -115.1557292,36.1294558,0
          -115.1553146,36.1294223,0
          -115.1550105,36.1293861,0
          -115.1549806,36.1293067,0
          -115.1549762,36.1292208,0
          -115.1549872,36.1288629,0
          -115.1549982,36.1285316,0
          -115.1550122,36.128317,0
          -115.1550408,36.1280157,0
          -115.1550522,36.1278743,0
          -115.1550648,36.1276732,0
          -115.1550849,36.1274611,0
          -115.1550872,36.1271477,0
          -115.1550788,36.12683,0
          -115.1550982,36.1264699,0
          -115.1550982,36.1262556,0
          -115.1550949,36.1260473,0
          -115.1550822,36.12583,0
          -115.1550709,36.1256589,0
          -115.1550582,36.1255051,0
          -115.1550536,36.125284,0
          -115.1550536,36.1251313,0
          -115.155059,36.1249789,0
          -115.1550643,36.124803,0
          -115.1550656,36.1246211,0
          -115.155067,36.1244371,0
          -115.155071,36.1242119,0
          -115.155071,36.1240165,0
          -115.1550723,36.1238608,0
          -115.155074,36.1236854,0
          -115.1550783,36.1235088,0
          -115.155074,36.1233388,0
          -115.155073,36.1231862,0
          -115.1550683,36.1229589,0
          -115.1550472,36.1227503,0
          -115.1550371,36.122552,0
          -115.1550341,36.1223878,0
          -115.1550445,36.1222372,0
          -115.1550721,36.1219625,0
          -115.1550735,36.1217327,0
          -115.1550755,36.1215551,0
          -115.1550841,36.1213622,0
          -115.1550881,36.1211895,0
          -115.1550871,36.1209758,0
          -115.1550894,36.12076,0
          -115.1550941,36.1205305,0
          -115.1550948,36.1203768,0
          -115.1550982,36.1202375,0
          -115.1550871,36.1200158,0
          -115.1550877,36.1197938,0
          -115.1550877,36.11951,0
          -115.1551202,36.1193499,0
          -115.1551313,36.1191801,0
          -115.1551292,36.1189061,0
          -115.1551306,36.1187073,0
          -115.1551466,36.1186082,0
          -115.1551781,36.1185765,0
          -115.1552297,36.1185676,0
          -115.1556142,36.1185728,0
          -115.1559227,36.1185725,0
          -115.15616,36.1185722,0
          -115.1565256,36.1185707,0
          -115.156712,36.1185684,0
          -115.1568978,36.1185758,0
          -115.1569222,36.1186276,0
          -115.1569359,36.1186828,0
          -115.1569705,36.1188327,0
          -115.1570132,36.1189489,0
          -115.1570549,36.1190371,0
          -115.1571254,36.119161,0
          -115.1571985,36.1192849,0
          -115.1572569,36.1193849,0
          -115.1573163,36.1194888,0
          -115.1573804,36.1195938,0
          -115.1574438,36.1196983,0
          -115.1575016,36.1198027,0
          -115.1575724,36.1199614,0
          -115.1576429,36.1201222,0
          -115.1576797,36.1202419,0
          -115.1577109,36.1203603,0
          -115.1577138,36.1204293,0
          -115.1576946,36.1204675,0
          -115.15762,36.1204946,0
          -115.15755,36.1205,0
          -115.1574287,36.1205011,0
          -115.15736,36.12049,0
          -115.15728,36.12047,0
          -115.15719,36.1204459,0
          -115.15703,36.12042,0
          -115.15691,36.12041,0
          -115.1560544,36.1204282,0
          -115.1560101,36.1204688,0
          -115.1560094,36.1208682,0
          -115.1560064,36.1210008,0
          -115.1560532,36.1210259,0
          -115.1565165,36.1210254,0
          -115.1565994,36.1210215,0
          -115.1566127,36.121074,0
          -115.1566552,36.1211745,0
          -115.1568693,36.1211864,0
          -115.1569068,36.1211937,0
          -115.1569281,36.1213397,0
          -115.1570139,36.1213509,0
          -115.1570996,36.1213448,0
          -115.15729,36.1213517,0
          -115.1574496,36.1213487,0
          -115.1574865,36.1213168,0
          -115.1574807,36.1211081,0
          -115.1574913,36.1208347,0
          -115.15718,36.12083,0
        </coordinates>
      </LineString>
    </Placemark>
  </Document>
</kml>
