<?xml version="1.0" encoding="UTF-8"?>
<kml xmlns="http://www.opengis.net/kml/2.2">
  <Document>
    <name>F1 Zone A KH to Fashion show</name>
    <Style id="icon-1899-DB4436-nodesc-normal">
      <IconStyle>
        <color>ff3644db</color>
        <scale>1</scale>
        <Icon>
          <href>https://www.gstatic.com/mapspro/images/stock/503-wht-blank_maps.png</href>
        </Icon>
        <hotSpot x="32" xunits="pixels" y="64" yunits="insetPixels"/>
      </IconStyle>
      <LabelStyle>
        <scale>0</scale>
      </LabelStyle>
      <BalloonStyle>
        <text><![CDATA[<h3>$[name]</h3>]]></text>
      </BalloonStyle>
    </Style>
    <Style id="icon-1899-DB4436-nodesc-highlight">
      <IconStyle>
        <color>ff3644db</color>
        <scale>1</scale>
        <Icon>
          <href>https://www.gstatic.com/mapspro/images/stock/503-wht-blank_maps.png</href>
        </Icon>
        <hotSpot x="32" xunits="pixels" y="64" yunits="insetPixels"/>
      </IconStyle>
      <LabelStyle>
        <scale>1</scale>
      </LabelStyle>
      <BalloonStyle>
        <text><![CDATA[<h3>$[name]</h3>]]></text>
      </BalloonStyle>
    </Style>
    <StyleMap id="icon-1899-DB4436-nodesc">
      <Pair>
        <key>normal</key>
        <styleUrl>#icon-1899-DB4436-nodesc-normal</styleUrl>
      </Pair>
      <Pair>
        <key>highlight</key>
        <styleUrl>#icon-1899-DB4436-nodesc-highlight</styleUrl>
      </Pair>
    </StyleMap>
    <Style id="line-1267FF-5000-nodesc-normal">
      <LineStyle>
        <color>ffff6712</color>
        <width>5</width>
      </LineStyle>
      <BalloonStyle>
        <text><![CDATA[<h3>$[name]</h3>]]></text>
      </BalloonStyle>
    </Style>
    <Style id="line-1267FF-5000-nodesc-highlight">
      <LineStyle>
        <color>ffff6712</color>
        <width>7.5</width>
      </LineStyle>
      <BalloonStyle>
        <text><![CDATA[<h3>$[name]</h3>]]></text>
      </BalloonStyle>
    </Style>
    <StyleMap id="line-1267FF-5000-nodesc">
      <Pair>
        <key>normal</key>
        <styleUrl>#line-1267FF-5000-nodesc-normal</styleUrl>
      </Pair>
      <Pair>
        <key>highlight</key>
        <styleUrl>#line-1267FF-5000-nodesc-highlight</styleUrl>
      </Pair>
    </StyleMap>
    <Placemark>
      <name>6775 W Patrick Ln, Las Vegas, NV 89118, USA</name>
      <styleUrl>#icon-1899-DB4436-nodesc</styleUrl>
      <Point>
        <coordinates>
          -115.23994,36.077814,0
        </coordinates>
      </Point>
    </Placemark>
    <Placemark>
      <name>100 Spring Mountain Rd, Las Vegas, NV 89109, USA</name>
      <styleUrl>#icon-1899-DB4436-nodesc</styleUrl>
      <Point>
        <coordinates>
          -115.171282,36.126275,0
        </coordinates>
      </Point>
    </Placemark>
    <Placemark>
      <name>F1 Zone A KH to Fashion show</name>
      <styleUrl>#line-1267FF-5000-nodesc</styleUrl>
      <LineString>
        <tessellate>1</tessellate>
        <coordinates>
          -115.239936,36.077817,0
          -115.239586,36.077856,0
          -115.239244,36.077866,0
          -115.238796,36.077907,0
          -115.238178,36.077919,0
          -115.237564,36.077929,0
          -115.2371421,36.0779357,0
          -115.236755,36.077949,0
          -115.236345,36.07796,0
          -115.235943,36.077971,0
          -115.235175,36.07797,0
          -115.23484,36.077974,0
          -115.234505,36.07798,0
          -115.234102,36.077987,0
          -115.233697,36.077995,0
          -115.233711,36.078256,0
          -115.233733,36.078538,0
          -115.23374,36.078719,0
          -115.233767,36.079254,0
          -115.23378,36.079519,0
          -115.233787,36.07979,0
          -115.23379,36.079838,0
          -115.233817,36.080346,0
          -115.233842,36.080858,0
          -115.233858,36.081244,0
          -115.233877,36.081628,0
          -115.233916,36.082536,0
          -115.233938,36.082994,0
          -115.233948,36.083221,0
          -115.233964,36.083447,0
          -115.23399,36.084058,0
          -115.234002,36.084364,0
          -115.234015,36.084667,0
          -115.234016,36.084688,0
          -115.23402,36.084722,0
          -115.234017,36.084775,0
          -115.233994,36.08486,0
          -115.233991,36.084873,0
          -115.233986,36.084899,0
          -115.233991,36.085002,0
          -115.233973,36.085223,0
          -115.233702,36.085228,0
          -115.232945,36.085236,0
          -115.232539,36.08524,0
          -115.232193,36.085244,0
          -115.231861,36.085254,0
          -115.231008,36.085266,0
          -115.230725,36.085271,0
          -115.229952,36.085286,0
          -115.229061,36.085298,0
          -115.2288708,36.0852971,0
          -115.228686,36.085307,0
          -115.228097,36.085314,0
          -115.227792,36.085314,0
          -115.227639,36.085322,0
          -115.227485,36.085336,0
          -115.227215,36.085344,0
          -115.22708,36.085344,0
          -115.227013,36.085347,0
          -115.226935,36.085365,0
          -115.226837,36.08536,0
          -115.226743,36.085339,0
          -115.226573,36.085341,0
          -115.226413,36.085355,0
          -115.226315,36.085354,0
          -115.226254,36.085329,0
          -115.22583,36.08534,0
          -115.225616,36.085345,0
          -115.225405,36.085353,0
          -115.22533,36.085355,0
          -115.224864,36.085367,0
          -115.224503,36.08538,0
          -115.224378,36.08539,0
          -115.224259,36.085408,0
          -115.224079,36.085424,0
          -115.223812,36.085439,0
          -115.223468,36.085459,0
          -115.22313,36.085479,0
          -115.222569,36.085512,0
          -115.222014,36.085543,0
          -115.221835,36.085552,0
          -115.2214,36.085573,0
          -115.220955,36.085594,0
          -115.220067,36.085646,0
          -115.219411,36.085683,0
          -115.218763,36.085716,0
          -115.218247,36.08575,0
          -115.217883,36.085769,0
          -115.217365,36.085794,0
          -115.216599,36.085838,0
          -115.2161145,36.0858632,0
          -115.215646,36.085897,0
          -115.215209,36.085918,0
          -115.2148476,36.0859337,0
          -115.214513,36.085956,0
          -115.214011,36.085983,0
          -115.213552,36.086013,0
          -115.212901,36.086046,0
          -115.212561,36.086059,0
          -115.212401,36.086067,0
          -115.212241,36.086084,0
          -115.2120703,36.0860978,0
          -115.211905,36.086103,0
          -115.211569,36.086117,0
          -115.210949,36.0861503,0
          -115.210084,36.086198,0
          -115.209723,36.086214,0
          -115.2093323,36.0862321,0
          -115.208912,36.086252,0
          -115.208035,36.086302,0
          -115.207784,36.086313,0
          -115.2073485,36.086309,0
          -115.206913,36.086304,0
          -115.2066443,36.0863058,0
          -115.206481,36.086321,0
          -115.206285,36.086319,0
          -115.206122,36.086316,0
          -115.205706,36.0863141,0
          -115.2053185,36.086314,0
          -115.204931,36.086316,0
          -115.2046007,36.0863302,0
          -115.2044705,36.0863312,0
          -115.204347,36.086316,0
          -115.204103,36.0863052,0
          -115.203855,36.086315,0
          -115.2033,36.0863097,0
          -115.2027787,36.086308,0
          -115.2024949,36.086308,0
          -115.2021373,36.0863077,0
          -115.201908,36.08631,0
          -115.2014997,36.0863051,0
          -115.201049,36.0863027,0
          -115.2002926,36.0863036,0
          -115.199955,36.086308,0
          -115.199185,36.086308,0
          -115.1990067,36.0862947,0
          -115.1988244,36.0862965,0
          -115.198453,36.086297,0
          -115.198042,36.086299,0
          -115.197691,36.0863007,0
          -115.196907,36.086304,0
          -115.1965,36.0863058,0
          -115.195843,36.0863083,0
          -115.1955731,36.0863085,0
          -115.19531,36.0863,0
          -115.195247,36.086287,0
          -115.195178,36.086282,0
          -115.195013,36.0862959,0
          -115.194844,36.0863,0
          -115.194509,36.086305,0
          -115.1943782,36.0862902,0
          -115.1942205,36.0862933,0
          -115.193629,36.086302,0
          -115.193029,36.0863082,0
          -115.192697,36.086309,0
          -115.192238,36.086284,0
          -115.1917253,36.0862853,0
          -115.191208,36.086284,0
          -115.1910485,36.0863052,0
          -115.1909694,36.0863125,0
          -115.1908561,36.0863139,0
          -115.1906196,36.0863133,0
          -115.1902863,36.0863107,0
          -115.189965,36.086308,0
          -115.1897803,36.086313,0
          -115.1897366,36.0863846,0
          -115.1897254,36.0864242,0
          -115.1897203,36.0864659,0
          -115.189726,36.086568,0
          -115.1897274,36.0867286,0
          -115.1897287,36.0869033,0
          -115.1897266,36.0870802,0
          -115.18975,36.087266,0
          -115.1897587,36.0875911,0
          -115.189756,36.087844,0
          -115.1897533,36.0881034,0
          -115.189752,36.088225,0
          -115.18975,36.088399,0
          -115.1897514,36.0886585,0
          -115.189746,36.088975,0
          -115.189745,36.089154,0
          -115.189738,36.089466,0
          -115.18974,36.089681,0
          -115.189741,36.089778,0
          -115.189744,36.089966,0
          -115.189745,36.090098,0
          -115.189744,36.090226,0
          -115.189744,36.0903965,0
          -115.189744,36.090639,0
          -115.189744,36.090779,0
          -115.1897403,36.0909868,0
          -115.189741,36.091124,0
          -115.189741,36.091239,0
          -115.1897393,36.0915167,0
          -115.189739,36.091789,0
          -115.1897405,36.0920473,0
          -115.189742,36.09231,0
          -115.1897435,36.0924724,0
          -115.1897383,36.0926327,0
          -115.1897386,36.0926751,0
          -115.1897389,36.0927218,0
          -115.1897604,36.0927655,0
          -115.1897899,36.0928201,0
          -115.1897816,36.0928987,0
          -115.1897746,36.0929826,0
          -115.1897786,36.0932448,0
          -115.189785,36.09359,0
          -115.189778,36.093692,0
          -115.189775,36.093878,0
          -115.189774,36.094333,0
          -115.189778,36.09447,0
          -115.189777,36.094566,0
          -115.189776,36.094664,0
          -115.1897794,36.0949232,0
          -115.189772,36.095235,0
          -115.18977,36.095428,0
          -115.1897723,36.0959419,0
          -115.1897673,36.0960759,0
          -115.1897666,36.0962115,0
          -115.1897662,36.0964211,0
          -115.1897618,36.096657,0
          -115.189764,36.096844,0
          -115.1897754,36.097227,0
          -115.1897727,36.0975946,0
          -115.1897761,36.0979605,0
          -115.189768,36.098314,0
          -115.189767,36.098658,0
          -115.189766,36.098794,0
          -115.189762,36.099064,0
          -115.189765,36.099368,0
          -115.189766,36.099665,0
          -115.1897638,36.099784,0
          -115.189775,36.099904,0
          -115.189792,36.099998,0
          -115.189782,36.100112,0
          -115.1897847,36.1002616,0
          -115.189766,36.100409,0
          -115.18976,36.100491,0
          -115.1897289,36.1008232,0
          -115.1897415,36.1009156,0
          -115.189773,36.101009,0
          -115.1897623,36.1010775,0
          -115.1897493,36.101302,0
          -115.189812,36.101707,0
          -115.1898293,36.101819,0
          -115.1898319,36.1018595,0
          -115.1898224,36.1018869,0
          -115.189802,36.101899,0
          -115.1898,36.101925,0
          -115.189835,36.10196,0
          -115.189837,36.102153,0
          -115.189825,36.102272,0
          -115.189818,36.102363,0
          -115.189813,36.1026165,0
          -115.189808,36.102871,0
          -115.189809,36.103137,0
          -115.189818,36.103377,0
          -115.189817,36.103608,0
          -115.189818,36.103749,0
          -115.1898129,36.1039577,0
          -115.1898053,36.1041654,0
          -115.189808,36.1044562,0
          -115.18978,36.104669,0
          -115.189777,36.105119,0
          -115.189773,36.105343,0
          -115.18977,36.105562,0
          -115.189748,36.105926,0
          -115.189712,36.10617,0
          -115.189646,36.106444,0
          -115.189541,36.10667,0
          -115.1894877,36.1067695,0
          -115.189433,36.106857,0
          -115.1893913,36.10693,0
          -115.189322,36.10703,0
          -115.189196,36.107182,0
          -115.189105,36.10729,0
          -115.189,36.107427,0
          -115.188885,36.1076,0
          -115.188765,36.10776,0
          -115.188707,36.1078373,0
          -115.188665,36.10792,0
          -115.188625,36.10799,0
          -115.188494,36.10815,0
          -115.188376,36.10825,0
          -115.188268,36.108321,0
          -115.188114,36.108377,0
          -115.187967,36.108413,0
          -115.187823,36.108413,0
          -115.187676,36.108409,0
          -115.1875618,36.1084046,0
          -115.187469,36.108411,0
          -115.187335,36.108437,0
          -115.18702,36.10838,0
          -115.1867945,36.1083437,0
          -115.186402,36.1082852,0
          -115.1861773,36.1082522,0
          -115.1858663,36.1082163,0
          -115.1855983,36.1081904,0
          -115.1852617,36.1081683,0
          -115.1849216,36.1081483,0
          -115.1846077,36.1081479,0
          -115.1842943,36.1081453,0
          -115.183972,36.108168,0
          -115.183383,36.108152,0
          -115.183347,36.108228,0
          -115.183318,36.108334,0
          -115.183263,36.108621,0
          -115.18319,36.10877,0
          -115.1831433,36.1088216,0
          -115.1831032,36.1088732,0
          -115.1830032,36.1088914,0
          -115.182914,36.108915,0
          -115.1827271,36.1089133,0
          -115.1824729,36.1089086,0
          -115.1822025,36.1088959,0
          -115.1819843,36.1088716,0
          -115.181758,36.1088523,0
          -115.181534,36.10885,0
          -115.1814126,36.1088482,0
          -115.181306,36.108855,0
          -115.181189,36.10888,0
          -115.1811583,36.1089835,0
          -115.181145,36.109087,0
          -115.181139,36.109353,0
          -115.181134,36.109652,0
          -115.181133,36.109873,0
          -115.1811313,36.11,0
          -115.181139,36.110127,0
          -115.181148,36.110313,0
          -115.181163,36.110582,0
          -115.181175,36.110801,0
          -115.181191,36.111083,0
          -115.1812035,36.1112065,0
          -115.18122,36.111329,0
          -115.1812333,36.111423,0
          -115.18126,36.111517,0
          -115.1812951,36.111613,0
          -115.181345,36.111709,0
          -115.1813931,36.1118008,0
          -115.18146,36.111885,0
          -115.181577,36.112023,0
          -115.181724,36.112168,0
          -115.1818838,36.1122982,0
          -115.182061,36.112411,0
          -115.1822893,36.1125623,0
          -115.182502,36.112705,0
          -115.1828576,36.1129403,0
          -115.183026,36.113087,0
          -115.183168,36.113256,0
          -115.183253,36.113396,0
          -115.183325,36.113559,0
          -115.183352,36.113632,0
          -115.1833629,36.1137401,0
          -115.183363,36.113845,0
          -115.183369,36.114137,0
          -115.1833702,36.1144177,0
          -115.18337,36.114706,0
          -115.183356,36.114945,0
          -115.183352,36.115078,0
          -115.183344,36.11517,0
          -115.183332,36.115218,0
          -115.183312,36.115315,0
          -115.183285,36.115384,0
          -115.183248,36.11546,0
          -115.183188,36.115585,0
          -115.183126,36.115711,0
          -115.183062,36.115841,0
          -115.182997,36.115968,0
          -115.182827,36.11629,0
          -115.182788,36.116363,0
          -115.182716,36.116507,0
          -115.182612,36.116681,0
          -115.182505,36.116894,0
          -115.182345,36.117189,0
          -115.182258,36.117354,0
          -115.182208,36.117451,0
          -115.182158,36.117545,0
          -115.182136,36.117595,0
          -115.182104,36.117642,0
          -115.182074,36.117698,0
          -115.182038,36.117754,0
          -115.181984,36.117814,0
          -115.181843,36.118012,0
          -115.181819,36.118048,0
          -115.181798,36.118074,0
          -115.181717,36.118186,0
          -115.181615,36.11837,0
          -115.1815768,36.1184563,0
          -115.181548,36.118548,0
          -115.181506,36.118694,0
          -115.1814938,36.1187893,0
          -115.1814903,36.11902,0
          -115.181485,36.11918,0
          -115.181485,36.1192,0
          -115.181485,36.11922,0
          -115.181479,36.119266,0
          -115.181475,36.11931,0
          -115.181469,36.119349,0
          -115.181461,36.119389,0
          -115.181455,36.11942,0
          -115.181445,36.11945,0
          -115.181435,36.11949,0
          -115.181425,36.11952,0
          -115.181405,36.11957,0
          -115.181388,36.119598,0
          -115.181376,36.11962,0
          -115.181355,36.11967,0
          -115.181335,36.11971,0
          -115.181315,36.11974,0
          -115.181295,36.11977,0
          -115.181225,36.11985,0
          -115.181135,36.11997,0
          -115.181115,36.11999,0
          -115.181055,36.12004,0
          -115.181045,36.12005,0
          -115.180995,36.12009,0
          -115.180935,36.12014,0
          -115.180915,36.12015,0
          -115.180845,36.12019,0
          -115.180755,36.12026,0
          -115.180645,36.12033,0
          -115.180605,36.12036,0
          -115.180575,36.12038,0
          -115.180455,36.12044,0
          -115.180385,36.12048,0
          -115.180325,36.12051,0
          -115.180155,36.12062,0
          -115.180065,36.12068,0
          -115.17998,36.120738,0
          -115.17981,36.120895,0
          -115.179758,36.120944,0
          -115.179692,36.121013,0
          -115.179636,36.121059,0
          -115.179584,36.121132,0
          -115.179523,36.12123,0
          -115.179314,36.121559,0
          -115.17922,36.121691,0
          -115.179059,36.121947,0
          -115.178877,36.12224,0
          -115.178734,36.122478,0
          -115.178615,36.122675,0
          -115.178565,36.12279,0
          -115.17852,36.122874,0
          -115.178414,36.12306,0
          -115.17821,36.12344,0
          -115.177977,36.123844,0
          -115.177869,36.124034,0
          -115.177763,36.124214,0
          -115.177657,36.124371,0
          -115.177486,36.124647,0
          -115.177427,36.124739,0
          -115.176954,36.125459,0
          -115.176888,36.12556,0
          -115.17665,36.125965,0
          -115.176544,36.126089,0
          -115.176444,36.126219,0
          -115.176251,36.126485,0
          -115.176182,36.126617,0
          -115.176073,36.126785,0
          -115.17597,36.126944,0
          -115.175843,36.127129,0
          -115.175705,36.127343,0
          -115.175648,36.127422,0
          -115.175549,36.127526,0
          -115.175405,36.127741,0
          -115.175369,36.127766,0
          -115.175325,36.127757,0
          -115.175286,36.127747,0
          -115.175274,36.127743,0
          -115.175255,36.12774,0
          -115.175235,36.12773,0
          -115.175195,36.12772,0
          -115.175125,36.1277,0
          -115.175075,36.12769,0
          -115.17502,36.127684,0
          -115.174993,36.127673,0
          -115.175045,36.127358,0
          -115.175054,36.127294,0
          -115.175056,36.127214,0
          -115.175036,36.127174,0
          -115.175007,36.127152,0
          -115.174975,36.127141,0
          -115.174845,36.127121,0
          -115.174637,36.127094,0
          -115.174565,36.127087,0
          -115.174496,36.12708,0
          -115.174385,36.12707,0
          -115.174045,36.127044,0
          -115.174003,36.127041,0
          -115.173928,36.127034,0
          -115.173914,36.127029,0
          -115.173896,36.127021,0
          -115.173885,36.127011,0
          -115.173879,36.127,0
          -115.173877,36.126991,0
          -115.173878,36.126981,0
          -115.173914,36.126801,0
          -115.173944,36.126586,0
          -115.173943,36.126543,0
          -115.173928,36.126512,0
          -115.173888,36.126486,0
          -115.173863,36.126474,0
          -115.173706,36.126444,0
          -115.173676,36.126437,0
          -115.173515,36.126394,0
          -115.173455,36.126379,0
          -115.173274,36.126326,0
          -115.173205,36.126304,0
          -115.1731,36.126272,0
          -115.172514,36.126052,0
          -115.172316,36.126042,0
          -115.172118,36.126048,0
          -115.171918,36.12606,0
          -115.171713,36.126077,0
          -115.171359,36.126115,0
          -115.170976,36.126132,0
          -115.170982,36.126216,0
          -115.170999,36.126266,0
          -115.171047,36.126287,0
          -115.171089,36.126304,0
          -115.171177,36.126306,0
          -115.171282,36.126275,0
        </coordinates>
      </LineString>
    </Placemark>
  </Document>
</kml>
