<?xml version="1.0" encoding="UTF-8"?>
<kml xmlns="http://www.opengis.net/kml/2.2">
  <Document>
    <name>F1 REURN  ZONE B TO KH</name>
    <Style id="icon-1899-DB4436-nodesc-normal">
      <IconStyle>
        <color>ff3644db</color>
        <scale>1</scale>
        <Icon>
          <href>https://www.gstatic.com/mapspro/images/stock/503-wht-blank_maps.png</href>
        </Icon>
        <hotSpot x="32" xunits="pixels" y="64" yunits="insetPixels"/>
      </IconStyle>
      <LabelStyle>
        <scale>0</scale>
      </LabelStyle>
      <BalloonStyle>
        <text><![CDATA[<h3>$[name]</h3>]]></text>
      </BalloonStyle>
    </Style>
    <Style id="icon-1899-DB4436-nodesc-highlight">
      <IconStyle>
        <color>ff3644db</color>
        <scale>1</scale>
        <Icon>
          <href>https://www.gstatic.com/mapspro/images/stock/503-wht-blank_maps.png</href>
        </Icon>
        <hotSpot x="32" xunits="pixels" y="64" yunits="insetPixels"/>
      </IconStyle>
      <LabelStyle>
        <scale>1</scale>
      </LabelStyle>
      <BalloonStyle>
        <text><![CDATA[<h3>$[name]</h3>]]></text>
      </BalloonStyle>
    </Style>
    <StyleMap id="icon-1899-DB4436-nodesc">
      <Pair>
        <key>normal</key>
        <styleUrl>#icon-1899-DB4436-nodesc-normal</styleUrl>
      </Pair>
      <Pair>
        <key>highlight</key>
        <styleUrl>#icon-1899-DB4436-nodesc-highlight</styleUrl>
      </Pair>
    </StyleMap>
    <Style id="line-1267FF-5000-nodesc-normal">
      <LineStyle>
        <color>ffff6712</color>
        <width>5</width>
      </LineStyle>
      <BalloonStyle>
        <text><![CDATA[<h3>$[name]</h3>]]></text>
      </BalloonStyle>
    </Style>
    <Style id="line-1267FF-5000-nodesc-highlight">
      <LineStyle>
        <color>ffff6712</color>
        <width>7.5</width>
      </LineStyle>
      <BalloonStyle>
        <text><![CDATA[<h3>$[name]</h3>]]></text>
      </BalloonStyle>
    </Style>
    <StyleMap id="line-1267FF-5000-nodesc">
      <Pair>
        <key>normal</key>
        <styleUrl>#line-1267FF-5000-nodesc-normal</styleUrl>
      </Pair>
      <Pair>
        <key>highlight</key>
        <styleUrl>#line-1267FF-5000-nodesc-highlight</styleUrl>
      </Pair>
    </StyleMap>
    <Placemark>
      <name>3500 S Las Vegas Blvd, Las Vegas, NV 89109, USA</name>
      <styleUrl>#icon-1899-DB4436-nodesc</styleUrl>
      <Point>
        <coordinates>
          -115.1780973,36.1181531,0
        </coordinates>
      </Point>
    </Placemark>
    <Placemark>
      <name>F1 REURN  ZONE B TO KH</name>
      <styleUrl>#line-1267FF-5000-nodesc</styleUrl>
      <LineString>
        <tessellate>1</tessellate>
        <coordinates>
          -115.1780879,36.1181686,0
          -115.1780805,36.118203,0
          -115.1780791,36.1182415,0
          -115.1780803,36.1183073,0
          -115.1780803,36.1183873,0
          -115.1786503,36.1184073,0
          -115.1792503,36.1184273,0
          -115.1798822,36.1184681,0
          -115.1798575,36.1191188,0
          -115.1798403,36.1197673,0
          -115.1798363,36.1200563,0
          -115.1798403,36.1202673,0
          -115.1798503,36.1203373,0
          -115.1798697,36.1203783,0
          -115.1798817,36.1204144,0
          -115.1798925,36.1204468,0
          -115.1799017,36.1204654,0
          -115.1799208,36.1205043,0
          -115.1799338,36.1205252,0
          -115.1799478,36.1205474,0
          -115.1799585,36.120563,0
          -115.1799691,36.1205771,0
          -115.1799811,36.1205906,0
          -115.1799955,36.1206033,0
          -115.1800415,36.1206411,0
          -115.1800787,36.1206773,0
          -115.1801187,36.1207144,0
          -115.1801512,36.1207429,0
          -115.1801884,36.1207413,0
          -115.1802077,36.1207313,0
          -115.1802318,36.1207227,0
          -115.1803169,36.1206741,0
          -115.1803682,36.12065,0
          -115.1803949,36.1206357,0
          -115.1804176,36.1206273,0
          -115.1805242,36.1205778,0
          -115.1805568,36.12056,0
          -115.1805889,36.1205419,0
          -115.1806781,36.1204925,0
          -115.1807062,36.1204724,0
          -115.1807529,36.1204419,0
          -115.1807974,36.1204135,0
          -115.1808407,36.1203813,0
          -115.1808835,36.1203516,0
          -115.1809148,36.1203313,0
          -115.1809602,36.1202975,0
          -115.1810015,36.1202678,0
          -115.1810482,36.1202237,0
          -115.1811369,36.1201313,0
          -115.181221,36.1200491,0
          -115.1812744,36.1199978,0
          -115.1813749,36.1198702,0
          -115.1814244,36.1198056,0
          -115.181447,36.1197481,0
          -115.1814797,36.1196889,0
          -115.1815216,36.1195877,0
          -115.1815569,36.1194838,0
          -115.1815809,36.1193921,0
          -115.1816043,36.1192959,0
          -115.1816109,36.1192397,0
          -115.1816136,36.119203,0
          -115.1816136,36.1191535,0
          -115.1816116,36.1190713,0
          -115.1816123,36.1189903,0
          -115.1816109,36.1189075,0
          -115.1816156,36.1188397,0
          -115.1816176,36.1187892,0
          -115.1816256,36.1187508,0
          -115.1816362,36.1186735,0
          -115.1816563,36.1186138,0
          -115.1816909,36.1185067,0
          -115.1817126,36.1184518,0
          -115.181741,36.1183997,0
          -115.1817656,36.1183364,0
          -115.181789,36.1183027,0
          -115.1818149,36.1182594,0
          -115.1818356,36.1182216,0
          -115.1818569,36.118194,0
          -115.1818836,36.1181524,0
          -115.1819236,36.1181002,0
          -115.1819566,36.1180616,0
          -115.1819929,36.1180138,0
          -115.1820659,36.1179219,0
          -115.1821169,36.1178562,0
          -115.1821643,36.1177889,0
          -115.1821853,36.1177551,0
          -115.1822139,36.1177173,0
          -115.1822309,36.117681,0
          -115.1822563,36.117637,0
          -115.1822753,36.1176065,0
          -115.1822962,36.1175594,0
          -115.1823766,36.1173914,0
          -115.1824592,36.1172375,0
          -115.1825447,36.1170831,0
          -115.1826393,36.1169045,0
          -115.1828442,36.1164989,0
          -115.1828888,36.1164119,0
          -115.1829362,36.1163183,0
          -115.1830194,36.1161493,0
          -115.1830596,36.1160713,0
          -115.1830968,36.1159908,0
          -115.1831618,36.1158635,0
          -115.1832318,36.1157332,0
          -115.1833025,36.1155908,0
          -115.1833595,36.1154811,0
          -115.1834058,36.1153897,0
          -115.1834265,36.115317,0
          -115.1834422,36.1152284,0
          -115.1834542,36.1151829,0
          -115.1834695,36.1150821,0
          -115.1834779,36.1149397,0
          -115.1834785,36.1148482,0
          -115.1834882,36.1146961,0
          -115.1834905,36.1144201,0
          -115.183492,36.1142834,0
          -115.1834955,36.1141564,0
          -115.1834902,36.1139998,0
          -115.1834876,36.1138497,0
          -115.1834845,36.1137278,0
          -115.1834748,36.1136108,0
          -115.1834435,36.1135048,0
          -115.1833703,36.1133873,0
          -115.1833203,36.1132973,0
          -115.1832103,36.1131173,0
          -115.1829403,36.1128773,0
          -115.1827703,36.1127573,0
          -115.1826903,36.1126973,0
          -115.1824103,36.1125073,0
          -115.1823103,36.1124373,0
          -115.1822462,36.1123916,0
          -115.1821406,36.1123205,0
          -115.1820346,36.1122478,0
          -115.1819303,36.1121773,0
          -115.1816797,36.111984,0
          -115.1816202,36.111943,0
          -115.1815958,36.1119159,0
          -115.1815741,36.1118734,0
          -115.1815338,36.1118164,0
          -115.1814944,36.1117585,0
          -115.1814671,36.1117245,0
          -115.1814463,36.1116801,0
          -115.1814231,36.1116258,0
          -115.1814005,36.1115772,0
          -115.1813772,36.1115185,0
          -115.1813671,36.1114899,0
          -115.1813491,36.111432,0
          -115.1813345,36.1113742,0
          -115.1813242,36.1113397,0
          -115.1813162,36.1112978,0
          -115.1813145,36.1112618,0
          -115.181339,36.111203,0
          -115.181332,36.1110727,0
          -115.1813299,36.1109439,0
          -115.1813187,36.1108117,0
          -115.1813074,36.1106006,0
          -115.1812994,36.1104602,0
          -115.1812911,36.1103222,0
          -115.1812824,36.110149,0
          -115.1812791,36.1100728,0
          -115.1812734,36.1099738,0
          -115.1812744,36.1099047,0
          -115.181273,36.1098322,0
          -115.1812818,36.1096573,0
          -115.1812829,36.1095572,0
          -115.1812824,36.1094577,0
          -115.181288,36.109166,0
          -115.1812996,36.1090467,0
          -115.1813598,36.1089534,0
          -115.1815134,36.1089139,0
          -115.1816107,36.1089063,0
          -115.1816864,36.1089055,0
          -115.1817546,36.1089055,0
          -115.1817963,36.1089052,0
          -115.181884,36.1089166,0
          -115.181976,36.1089301,0
          -115.1822479,36.1089623,0
          -115.1823491,36.1089666,0
          -115.1824458,36.1089663,0
          -115.1824892,36.108966,0
          -115.1825446,36.1089672,0
          -115.1826021,36.1089701,0
          -115.1827476,36.1089793,0
          -115.1828868,36.108976,0
          -115.1829281,36.1089695,0
          -115.1829624,36.1089628,0
          -115.1829914,36.1089536,0
          -115.1830455,36.1089498,0
          -115.1830776,36.1089428,0
          -115.1831236,36.1089311,0
          -115.1831946,36.1088984,0
          -115.1832325,36.108876,0
          -115.1832913,36.1087708,0
          -115.1833452,36.1086346,0
          -115.1834474,36.1083362,0
          -115.1835687,36.1082636,0
          -115.1836499,36.1082463,0
          -115.1837392,36.1082463,0
          -115.1839244,36.1082408,0
          -115.1843003,36.1082473,0
          -115.1844289,36.1082492,0
          -115.1848783,36.1082511,0
          -115.1851576,36.1082627,0
          -115.1855103,36.1082973,0
          -115.1859103,36.1083373,0
          -115.1860029,36.1083614,0
          -115.1860555,36.1083709,0
          -115.1861189,36.1083825,0
          -115.186174,36.1083947,0
          -115.1862915,36.1084101,0
          -115.1863835,36.1084179,0
          -115.1864681,36.1084263,0
          -115.1864942,36.1084322,0
          -115.1865209,36.1084411,0
          -115.1865403,36.1084473,0
          -115.1865643,36.1084505,0
          -115.1866004,36.1084589,0
          -115.1866417,36.1084694,0
          -115.1866857,36.1084854,0
          -115.1867717,36.1085217,0
          -115.1867924,36.1085343,0
          -115.1868351,36.1085652,0
          -115.1868584,36.10859,0
          -115.1868797,36.108624,0
          -115.186891,36.1086633,0
          -115.1868997,36.1087233,0
          -115.1869037,36.1087503,0
          -115.1869051,36.1087804,0
          -115.1869044,36.1087946,0
          -115.1869044,36.1088149,0
          -115.1869057,36.1088461,0
          -115.1869037,36.1088691,0
          -115.1869118,36.1089263,0
          -115.1869097,36.1090649,0
          -115.1869378,36.1091643,0
          -115.1869444,36.1091892,0
          -115.1870151,36.1092916,0
          -115.1870863,36.1093594,0
          -115.1871091,36.1093795,0
          -115.1871877,36.1094248,0
          -115.1872775,36.1094789,0
          -115.1873003,36.1094873,0
          -115.1873903,36.1095073,0
          -115.1874803,36.1095073,0
          -115.1875303,36.1095073,0
          -115.1875903,36.1094973,0
          -115.1877003,36.1094673,0
          -115.1877703,36.1094473,0
          -115.1878403,36.1094173,0
          -115.1879503,36.1093773,0
          -115.1879803,36.1093573,0
          -115.1879963,36.1093495,0
          -115.1880251,36.1093373,0
          -115.1881003,36.1092973,0
          -115.1882803,36.1091673,0
          -115.1883397,36.1091235,0
          -115.1883585,36.1091048,0
          -115.1884024,36.1090635,0
          -115.188481,36.1089868,0
          -115.1884924,36.1089711,0
          -115.1885051,36.1089573,0
          -115.1885197,36.1089406,0
          -115.1885397,36.1089178,0
          -115.188569,36.1088878,0
          -115.1885957,36.1088573,0
          -115.188609,36.1088368,0
          -115.1886637,36.1087689,0
          -115.188713,36.1086957,0
          -115.1887672,36.108605,0
          -115.1888244,36.1085113,0
          -115.1888803,36.1083873,0
          -115.188893,36.1083708,0
          -115.1889224,36.1083389,0
          -115.1889757,36.1082436,0
          -115.1890024,36.1081938,0
          -115.1890716,36.1080492,0
          -115.1891018,36.1080043,0
          -115.1891607,36.1078962,0
          -115.1891851,36.1078608,0
          -115.1892387,36.1077573,0
          -115.189248,36.1077387,0
          -115.1892643,36.1077081,0
          -115.189272,36.1076954,0
          -115.1893089,36.1076281,0
          -115.1893484,36.1075687,0
          -115.1893661,36.1075392,0
          -115.1894571,36.1073765,0
          -115.18953,36.1072416,0
          -115.1895467,36.1072092,0
          -115.1895624,36.1071789,0
          -115.1896157,36.1070654,0
          -115.1897303,36.1068273,0
          -115.1897653,36.1067411,0
          -115.1897903,36.1066873,0
          -115.1898103,36.1066273,0
          -115.1898301,36.1065273,0
          -115.189881,36.1063541,0
          -115.1898996,36.1062644,0
          -115.189911,36.1062052,0
          -115.189916,36.1061784,0
          -115.1899217,36.1061475,0
          -115.1899303,36.1060573,0
          -115.1899403,36.1059973,0
          -115.1899503,36.1058573,0
          -115.1899503,36.1057173,0
          -115.189951,36.1054698,0
          -115.189943,36.1050717,0
          -115.1899481,36.1048742,0
          -115.1899397,36.1046873,0
          -115.1899378,36.1046408,0
          -115.1899347,36.1045697,0
          -115.18993,36.1044568,0
          -115.189927,36.1043871,0
          -115.1899337,36.1042777,0
          -115.1899331,36.1041581,0
          -115.1899343,36.1039578,0
          -115.1899319,36.1037527,0
          -115.189934,36.1036148,0
          -115.1899312,36.1033864,0
          -115.1899306,36.1031632,0
          -115.1899206,36.1028806,0
          -115.1899233,36.1026145,0
          -115.1899296,36.1023722,0
          -115.1899366,36.1022871,0
          -115.1899443,36.1021681,0
          -115.1899403,36.1019581,0
          -115.1899404,36.1018905,0
          -115.1899381,36.1017116,0
          -115.1899454,36.101674,0
          -115.1899426,36.1016331,0
          -115.1899426,36.101537,0
          -115.1899443,36.1014476,0
          -115.189939,36.1013792,0
          -115.1899433,36.1013448,0
          -115.189941,36.1013137,0
          -115.1899319,36.1012076,0
          -115.1899229,36.1011598,0
          -115.1899185,36.1011118,0
          -115.1899168,36.1010694,0
          -115.1899085,36.1010146,0
          -115.1899077,36.1009973,0
          -115.1899283,36.1008416,0
          -115.1899364,36.1006889,0
          -115.1899337,36.100535,0
          -115.1899337,36.1002333,0
          -115.189931,36.1001943,0
          -115.1899355,36.1000326,0
          -115.189932,36.0999941,0
          -115.1899245,36.0998889,0
          -115.1899149,36.0997755,0
          -115.1899184,36.099641,0
          -115.1899055,36.0993557,0
          -115.1898906,36.099051,0
          -115.1898913,36.0988558,0
          -115.1898889,36.0986654,0
          -115.1898871,36.0983618,0
          -115.1898838,36.0981792,0
          -115.1898782,36.0979911,0
          -115.1898854,36.0976123,0
          -115.1898936,36.0972581,0
          -115.1898948,36.0970329,0
          -115.1898893,36.0968327,0
          -115.1898842,36.0967351,0
          -115.1898836,36.0965815,0
          -115.1898802,36.0964251,0
          -115.1898852,36.0961927,0
          -115.1898819,36.0960676,0
          -115.1898809,36.0959253,0
          -115.1898844,36.0956607,0
          -115.1898875,36.0954376,0
          -115.1898845,36.0952427,0
          -115.1898892,36.0950956,0
          -115.1898882,36.0949754,0
          -115.1898873,36.09476,0
          -115.1898862,36.0946105,0
          -115.1898852,36.0945273,0
          -115.1898703,36.0944473,0
          -115.1899156,36.0942678,0
          -115.1899139,36.0939294,0
          -115.1899123,36.0937992,0
          -115.1899149,36.0936705,0
          -115.1899303,36.0935873,0
          -115.1899303,36.0933473,0
          -115.1899303,36.0931873,0
          -115.1899303,36.0928773,0
          -115.189938,36.0928467,0
          -115.1899257,36.0927926,0
          -115.1899108,36.0927159,0
          -115.1899051,36.0926575,0
          -115.1899037,36.0926061,0
          -115.1898965,36.0924624,0
          -115.1898963,36.0923208,0
          -115.1898872,36.0918038,0
          -115.1898956,36.09152,0
          -115.1899027,36.0912365,0
          -115.1899087,36.0911216,0
          -115.1898943,36.0909697,0
          -115.1898956,36.0908556,0
          -115.1898926,36.0907262,0
          -115.1898973,36.0906359,0
          -115.189908,36.0903927,0
          -115.1899006,36.0902438,0
          -115.1899066,36.0902214,0
          -115.1899153,36.0901219,0
          -115.1899177,36.0899876,0
          -115.1899303,36.0897573,0
          -115.1899303,36.0896773,0
          -115.1899303,36.0895073,0
          -115.1899303,36.0891373,0
          -115.1899303,36.0889673,0
          -115.1899203,36.0886573,0
          -115.1899236,36.0883635,0
          -115.1899203,36.0882073,0
          -115.1899203,36.0881273,0
          -115.1899374,36.0876079,0
          -115.1899483,36.0874373,0
          -115.1899535,36.0872557,0
          -115.1899478,36.087183,0
          -115.1899505,36.0871038,0
          -115.1899556,36.0869535,0
          -115.1899656,36.086861,0
          -115.1899961,36.0867796,0
          -115.1899934,36.0866563,0
          -115.1899967,36.08653,0
          -115.1900205,36.0864549,0
          -115.1900356,36.0864474,0
          -115.1900674,36.086435,0
          -115.1906703,36.0863973,0
          -115.1910676,36.0863989,0
          -115.1911895,36.0863869,0
          -115.1915634,36.0863769,0
          -115.19166,36.0863769,0
          -115.1917167,36.0863771,0
          -115.1922182,36.0863574,0
          -115.192698,36.0863746,0
          -115.1930291,36.0863806,0
          -115.194259,36.0863665,0
          -115.194523,36.0863611,0
          -115.1948805,36.0863701,0
          -115.1951977,36.0863455,0
          -115.1953003,36.0863573,0
          -115.195581,36.0863696,0
          -115.1958671,36.086373,0
          -115.1964672,36.0863725,0
          -115.1967314,36.0863718,0
          -115.1969309,36.0863725,0
          -115.1974165,36.0863702,0
          -115.1978234,36.0863638,0
          -115.198061,36.0863636,0
          -115.1981365,36.0863627,0
          -115.1984302,36.0863622,0
          -115.1988147,36.0863655,0
          -115.1990092,36.0863655,0
          -115.1991944,36.0863628,0
          -115.1995981,36.0863699,0
          -115.1999904,36.0863763,0
          -115.2002085,36.0863717,0
          -115.2003461,36.0863676,0
          -115.2004262,36.086369,0
          -115.2007611,36.086376,0
          -115.2010433,36.0863798,0
          -115.2013113,36.0863795,0
          -115.2015248,36.0863782,0
          -115.2019339,36.0863771,0
          -115.2020187,36.0863793,0
          -115.2021678,36.0863785,0
          -115.202548,36.0863809,0
          -115.2027994,36.0863814,0
          -115.2030579,36.0863818,0
          -115.2033037,36.0863822,0
          -115.2038617,36.0863784,0
          -115.2041016,36.086382,0
          -115.2043456,36.0863822,0
          -115.204623,36.0863828,0
          -115.2047933,36.0863795,0
          -115.2049363,36.0863803,0
          -115.2053287,36.086379,0
          -115.2055308,36.0863794,0
          -115.2057364,36.0863819,0
          -115.2061589,36.0863895,0
          -115.206319,36.0863868,0
          -115.2063744,36.0863917,0
          -115.2064483,36.0863984,0
          -115.2064803,36.0864073,0
          -115.2065303,36.0864173,0
          -115.2065996,36.0864143,0
          -115.2066883,36.0864013,0
          -115.2067606,36.0864024,0
          -115.2068996,36.0864013,0
          -115.2071249,36.0864,0
          -115.2074673,36.0864035,0
          -115.207812,36.0864178,0
          -115.2080214,36.0864306,0
          -115.2081503,36.0864373,0
          -115.2082503,36.0864273,0
          -115.2085057,36.0863991,0
          -115.2091674,36.0863467,0
          -115.2091878,36.0863418,0
          -115.2092032,36.0863359,0
          -115.2092326,36.0863307,0
          -115.2092903,36.0863173,0
          -115.2093685,36.0863052,0
          -115.2096044,36.0862863,0
          -115.2097468,36.0862779,0
          -115.2100883,36.0862644,0
          -115.2105314,36.086239,0
          -115.210955,36.0862136,0
          -115.2111411,36.0862022,0
          -115.211584,36.0861804,0
          -115.2119226,36.0861725,0
          -115.2120932,36.0861594,0
          -115.2122654,36.0861495,0
          -115.212905,36.0861146,0
          -115.2131303,36.0860973,0
          -115.2133526,36.086088,0
          -115.213576,36.0860768,0
          -115.2137937,36.086063,0
          -115.2140103,36.0860473,0
          -115.2145133,36.0860179,0
          -115.2148598,36.086,0
          -115.2152154,36.0859876,0
          -115.2156614,36.0859671,0
          -115.2166094,36.0858984,0
          -115.2168026,36.0858945,0
          -115.2169939,36.0858825,0
          -115.217374,36.0858606,0
          -115.2176446,36.085847,0
          -115.2178944,36.0858328,0
          -115.2182594,36.085816,0
          -115.2187536,36.0857885,0
          -115.2194086,36.0857517,0
          -115.2197489,36.0857356,0
          -115.2200583,36.085716,0
          -115.2205184,36.0856956,0
          -115.2207585,36.0856789,0
          -115.2209661,36.0856601,0
          -115.22185,36.085613,0
          -115.222007,36.0856025,0
          -115.222069,36.0856011,0
          -115.222605,36.0855745,0
          -115.2228811,36.0855585,0
          -115.22314,36.0855465,0
          -115.2234902,36.0855343,0
          -115.2238383,36.0855109,0
          -115.2240754,36.0854968,0
          -115.2241513,36.0854943,0
          -115.2241803,36.0854973,0
          -115.2242267,36.0854975,0
          -115.2242433,36.085497,0
          -115.2244923,36.0854897,0
          -115.2252518,36.0854519,0
          -115.2253204,36.08545,0
          -115.2254104,36.0854497,0
          -115.2258553,36.0854446,0
          -115.2260792,36.0854443,0
          -115.2263104,36.085441,0
          -115.2266,36.0854424,0
          -115.2267537,36.0854211,0
          -115.2269698,36.0853846,0
          -115.2274934,36.0853703,0
          -115.2276828,36.0853833,0
          -115.2280862,36.0853826,0
          -115.2283886,36.0853799,0
          -115.2286757,36.0853768,0
          -115.2290647,36.0853655,0
          -115.2294301,36.0853697,0
          -115.229704,36.0853598,0
          -115.2302182,36.0853569,0
          -115.2305058,36.0853497,0
          -115.2307431,36.0853474,0
          -115.2313222,36.0853383,0
          -115.231611,36.0853392,0
          -115.231871,36.0853304,0
          -115.2325537,36.0853171,0
          -115.23296,36.0853167,0
          -115.2331776,36.0853116,0
          -115.23336,36.0852927,0
          -115.2334129,36.0852708,0
          -115.2335607,36.0852629,0
          -115.2337216,36.08526,0
          -115.2339148,36.0852546,0
          -115.2341284,36.0852527,0
          -115.2341267,36.0850138,0
          -115.2341115,36.0848473,0
          -115.2340736,36.0846589,0
          -115.2340105,36.0834329,0
          -115.2339604,36.082534,0
          -115.2339324,36.0820876,0
          -115.2339207,36.0818611,0
          -115.2339124,36.0816351,0
          -115.2338921,36.0812466,0
          -115.2338791,36.0808657,0
          -115.2338565,36.080369,0
          -115.2338445,36.0801003,0
          -115.2338368,36.0799641,0
          -115.2338325,36.0798265,0
          -115.2338285,36.0797886,0
          -115.2338088,36.0792623,0
          -115.2337997,36.0789872,0
          -115.2337852,36.0787127,0
          -115.2337745,36.0785278,0
          -115.2337568,36.0782579,0
          -115.2337456,36.0780563,0
          -115.2337975,36.0780225,0
          -115.2345057,36.0780076,0
          -115.2351713,36.0779949,0
          -115.235941,36.0780005,0
          -115.2375603,36.0779573,0
          -115.2381843,36.07795,0
          -115.2387903,36.0779373,0
          -115.2392503,36.0779273,0
          -115.2396103,36.0779173,0
          -115.2399658,36.0779079,0
          -115.2399494,36.0777841,0
          -115.2399482,36.0777457,0
          -115.2399474,36.0777098,0
        </coordinates>
      </LineString>
    </Placemark>
  </Document>
</kml>
