<?xml version="1.0" encoding="UTF-8"?>
<kml xmlns="http://www.opengis.net/kml/2.2">
  <Document>
    <name>F1 RETURN ZONE C TO KH</name>
    <Style id="icon-1899-DB4436-nodesc-normal">
      <IconStyle>
        <color>ff3644db</color>
        <scale>1</scale>
        <Icon>
          <href>https://www.gstatic.com/mapspro/images/stock/503-wht-blank_maps.png</href>
        </Icon>
        <hotSpot x="32" xunits="pixels" y="64" yunits="insetPixels"/>
      </IconStyle>
      <LabelStyle>
        <scale>0</scale>
      </LabelStyle>
      <BalloonStyle>
        <text><![CDATA[<h3>$[name]</h3>]]></text>
      </BalloonStyle>
    </Style>
    <Style id="icon-1899-DB4436-nodesc-highlight">
      <IconStyle>
        <color>ff3644db</color>
        <scale>1</scale>
        <Icon>
          <href>https://www.gstatic.com/mapspro/images/stock/503-wht-blank_maps.png</href>
        </Icon>
        <hotSpot x="32" xunits="pixels" y="64" yunits="insetPixels"/>
      </IconStyle>
      <LabelStyle>
        <scale>1</scale>
      </LabelStyle>
      <BalloonStyle>
        <text><![CDATA[<h3>$[name]</h3>]]></text>
      </BalloonStyle>
    </Style>
    <StyleMap id="icon-1899-DB4436-nodesc">
      <Pair>
        <key>normal</key>
        <styleUrl>#icon-1899-DB4436-nodesc-normal</styleUrl>
      </Pair>
      <Pair>
        <key>highlight</key>
        <styleUrl>#icon-1899-DB4436-nodesc-highlight</styleUrl>
      </Pair>
    </StyleMap>
    <Style id="line-1267FF-5000-nodesc-normal">
      <LineStyle>
        <color>ffff6712</color>
        <width>5</width>
      </LineStyle>
      <BalloonStyle>
        <text><![CDATA[<h3>$[name]</h3>]]></text>
      </BalloonStyle>
    </Style>
    <Style id="line-1267FF-5000-nodesc-highlight">
      <LineStyle>
        <color>ffff6712</color>
        <width>7.5</width>
      </LineStyle>
      <BalloonStyle>
        <text><![CDATA[<h3>$[name]</h3>]]></text>
      </BalloonStyle>
    </Style>
    <StyleMap id="line-1267FF-5000-nodesc">
      <Pair>
        <key>normal</key>
        <styleUrl>#line-1267FF-5000-nodesc-normal</styleUrl>
      </Pair>
      <Pair>
        <key>highlight</key>
        <styleUrl>#line-1267FF-5000-nodesc-highlight</styleUrl>
      </Pair>
    </StyleMap>
    <Placemark>
      <name>2600 W Harmon Ave, Las Vegas, NV 89158, USA</name>
      <styleUrl>#icon-1899-DB4436-nodesc</styleUrl>
      <Point>
        <coordinates>
          -115.1770599,36.1087707,0
        </coordinates>
      </Point>
    </Placemark>
    <Placemark>
      <name>6775 W Patrick Ln, Las Vegas, NV 89118, USA</name>
      <styleUrl>#icon-1899-DB4436-nodesc</styleUrl>
      <Point>
        <coordinates>
          -115.2399364,36.077672,0
        </coordinates>
      </Point>
    </Placemark>
    <Placemark>
      <name>F1 RETURN ZONE C TO KH</name>
      <styleUrl>#line-1267FF-5000-nodesc</styleUrl>
      <LineString>
        <tessellate>1</tessellate>
        <coordinates>
          -115.1770599,36.1087696,0
          -115.17707,36.1087889,0
          -115.17712,36.1088589,0
          -115.177177,36.1089193,0
          -115.17725,36.1089789,0
          -115.17732,36.1090289,0
          -115.177401,36.109067,0
          -115.17749,36.1090889,0
          -115.17755,36.1090989,0
          -115.17763,36.1090972,0
          -115.17771,36.1090889,0
          -115.1778457,36.1090309,0
          -115.17796,36.1089589,0
          -115.17802,36.1088689,0
          -115.1780966,36.1087046,0
          -115.17811,36.1086589,0
          -115.1781053,36.1085484,0
          -115.1781183,36.1085106,0
          -115.17814,36.1084789,0
          -115.178179,36.1084523,0
          -115.178222,36.1084316,0
          -115.17835,36.1083889,0
          -115.17849,36.1083489,0
          -115.1787103,36.108304,0
          -115.1789893,36.1082627,0
          -115.179109,36.1082256,0
          -115.1792081,36.1082062,0
          -115.1793478,36.1082019,0
          -115.1797086,36.1081911,0
          -115.179957,36.1081903,0
          -115.1801934,36.1081879,0
          -115.1804177,36.1081862,0
          -115.1806494,36.1081884,0
          -115.180989,36.1081935,0
          -115.18133,36.1082076,0
          -115.1818851,36.1082242,0
          -115.182306,36.1082349,0
          -115.18291,36.1082492,0
          -115.1834,36.1082536,0
          -115.1835967,36.108235,0
          -115.1838496,36.1082359,0
          -115.1842993,36.1082465,0
          -115.1848887,36.1082589,0
          -115.18517,36.1082689,0
          -115.18552,36.1082889,0
          -115.1859173,36.108363,0
          -115.1864033,36.108423,0
          -115.1865507,36.108444,0
          -115.186698,36.1084791,0
          -115.1868001,36.1085298,0
          -115.1868687,36.1085967,0
          -115.1869025,36.1086739,0
          -115.1869154,36.1089,0
          -115.1869167,36.1090225,0
          -115.1869327,36.1091473,0
          -115.1869566,36.1092185,0
          -115.18702,36.1092975,0
          -115.18709,36.1093689,0
          -115.18719,36.1094289,0
          -115.187291,36.1094726,0
          -115.1874,36.1094989,0
          -115.18749,36.1094989,0
          -115.18754,36.1094989,0
          -115.1876,36.1094889,0
          -115.18771,36.1094589,0
          -115.18778,36.1094389,0
          -115.18785,36.1094089,0
          -115.18796,36.1093689,0
          -115.18811,36.1092889,0
          -115.18829,36.1091589,0
          -115.1884,36.1090589,0
          -115.18857,36.1088789,0
          -115.18871,36.1086889,0
          -115.18882,36.1085089,0
          -115.1889787,36.1082205,0
          -115.18909,36.1080189,0
          -115.18924,36.1077489,0
          -115.1893501,36.1075611,0
          -115.189534,36.1072289,0
          -115.18961,36.1070689,0
          -115.1897293,36.1068108,0
          -115.1898281,36.1065322,0
          -115.1898854,36.10634,0
          -115.1899254,36.1061594,0
          -115.18995,36.1059889,0
          -115.18996,36.1058489,0
          -115.18996,36.1057089,0
          -115.1899547,36.1054478,0
          -115.1899474,36.1050516,0
          -115.1899434,36.1046611,0
          -115.1899363,36.1043534,0
          -115.1899383,36.10397,0
          -115.1899397,36.1036189,0
          -115.18994,36.1033754,0
          -115.189937,36.1031367,0
          -115.1899343,36.1028637,0
          -115.1899396,36.1025954,0
          -115.1899463,36.1022743,0
          -115.189956,36.1021053,0
          -115.1899524,36.1019373,0
          -115.1899431,36.1018174,0
          -115.1899499,36.1016997,0
          -115.1899541,36.1014833,0
          -115.1899731,36.1013233,0
          -115.189978,36.1012427,0
          -115.1899573,36.1011611,0
          -115.189946,36.1008284,0
          -115.1899374,36.1002178,0
          -115.1899443,36.100064,0
          -115.1899432,36.0999092,0
          -115.1899338,36.0996543,0
          -115.1899335,36.0993666,0
          -115.1899305,36.0990762,0
          -115.1899258,36.0987743,0
          -115.1899285,36.0985351,0
          -115.1899248,36.0982375,0
          -115.1899258,36.0979534,0
          -115.1899268,36.0975871,0
          -115.1899305,36.0972251,0
          -115.1899305,36.0968254,0
          -115.1899311,36.0963831,0
          -115.1899338,36.0960367,0
          -115.1899348,36.095697,0
          -115.1899317,36.0954219,0
          -115.1899297,36.0952602,0
          -115.1899358,36.095105,0
          -115.1899351,36.0947873,0
          -115.1899338,36.0945259,0
          -115.1899131,36.0943963,0
          -115.189938,36.0942689,0
          -115.1899421,36.09393,0
          -115.1899421,36.0936705,0
          -115.18994,36.0935789,0
          -115.18994,36.0933389,0
          -115.18994,36.0931789,0
          -115.1899501,36.0928551,0
          -115.1899406,36.0926099,0
          -115.1899399,36.092307,0
          -115.1899406,36.0920405,0
          -115.1899452,36.0917799,0
          -115.1899419,36.091493,0
          -115.1899432,36.0911254,0
          -115.1899445,36.0908584,0
          -115.1899475,36.0905143,0
          -115.1899512,36.0901867,0
          -115.1899474,36.089865,0
          -115.1899548,36.0895233,0
          -115.1899521,36.0892015,0
          -115.1899514,36.0889584,0
          -115.1899454,36.08865,0
          -115.1899548,36.0883589,0
          -115.1899468,36.0881194,0
          -115.1899531,36.0878569,0
          -115.1899582,36.0875856,0
          -115.1899662,36.0872394,0
          -115.189987,36.08687,0
          -115.1900017,36.0864986,0
          -115.1900047,36.086459,0
          -115.1900319,36.0864367,0
          -115.1901691,36.0864266,0
          -115.1906807,36.0864263,0
          -115.1910793,36.0863935,0
          -115.1913063,36.0863818,0
          -115.1915332,36.086382,0
          -115.1922353,36.0863836,0
          -115.1926987,36.0864074,0
          -115.1932721,36.0864031,0
          -115.1937724,36.086397,0
          -115.1942707,36.0863877,0
          -115.194856,36.0863915,0
          -115.1950109,36.0863865,0
          -115.1951604,36.0863707,0
          -115.1953241,36.086395,0
          -115.1958426,36.0864023,0
          -115.1964812,36.0863991,0
          -115.1969013,36.0863974,0
          -115.1973613,36.0863963,0
          -115.19782,36.0863963,0
          -115.1984487,36.086392,0
          -115.1991799,36.0863918,0
          -115.1996004,36.0863973,0
          -115.1999974,36.0863985,0
          -115.2003994,36.0863996,0
          -115.2010627,36.0864018,0
          -115.2015355,36.0864045,0
          -115.2021601,36.0864056,0
          -115.2027893,36.086408,0
          -115.2033013,36.086408,0
          -115.2038667,36.0864074,0
          -115.2043835,36.0864053,0
          -115.2049393,36.0864136,0
          -115.2057159,36.0864142,0
          -115.206178,36.086412,0
          -115.2063603,36.0864167,0
          -115.20654,36.0864355,0
          -115.2066264,36.0864332,0
          -115.2067087,36.0864222,0
          -115.207138,36.0864238,0
          -115.207369,36.0863963,0
          -115.20782,36.0864024,0
          -115.2082654,36.0863853,0
          -115.2088493,36.0863503,0
          -115.2091205,36.0863331,0
          -115.2093702,36.0863017,0
          -115.2098118,36.0862785,0
          -115.2102657,36.0862541,0
          -115.210952,36.0862188,0
          -115.2115813,36.086186,0
          -115.2121139,36.086166,0
          -115.2125099,36.0861281,0
          -115.2129207,36.0861146,0
          -115.21358,36.0860741,0
          -115.2140227,36.0860503,0
          -115.21452,36.0860211,0
          -115.2152093,36.0859852,0
          -115.21565,36.0859617,0
          -115.2161327,36.0859295,0
          -115.2166127,36.0859033,0
          -115.2169967,36.0858842,0
          -115.2173747,36.0858625,0
          -115.2178907,36.0858336,0
          -115.2182527,36.0858165,0
          -115.21877,36.085782,0
          -115.21942,36.0857461,0
          -115.22007,36.085712,0
          -115.2205271,36.0856872,0
          -115.2209613,36.0856587,0
          -115.2214084,36.0856363,0
          -115.221848,36.0856165,0
          -115.2222296,36.0855957,0
          -115.2226848,36.0855671,0
          -115.223144,36.0855471,0
          -115.2234967,36.0855303,0
          -115.2238467,36.0855125,0
          -115.2242507,36.0854929,0
          -115.2245,36.0854851,0
          -115.22524,36.0854489,0
          -115.2254341,36.0854245,0
          -115.2258828,36.0854205,0
          -115.2263422,36.0854158,0
          -115.2266,36.085408,0
          -115.2267593,36.085394,0
          -115.2268604,36.0853848,0
          -115.2269604,36.0853706,0
          -115.2270928,36.0853647,0
          -115.2272252,36.0853649,0
          -115.2273517,36.0853646,0
          -115.2274783,36.0853703,0
          -115.2277782,36.0853818,0
          -115.2280781,36.0853803,0
          -115.2283784,36.0853759,0
          -115.2286797,36.0853722,0
          -115.229056,36.085362,0
          -115.229378,36.0853594,0
          -115.2297013,36.085352,0
          -115.230216,36.0853485,0
          -115.2304961,36.0853459,0
          -115.2307384,36.0853409,0
          -115.2313025,36.0853301,0
          -115.2315893,36.0853285,0
          -115.2318734,36.0853247,0
          -115.2322144,36.0853156,0
          -115.2325406,36.0853114,0
          -115.2329553,36.0853056,0
          -115.2331855,36.0853019,0
          -115.2333024,36.0852802,0
          -115.2334498,36.0852716,0
          -115.23406,36.0852589,0
          -115.2341049,36.0852247,0
          -115.2341157,36.0851693,0
          -115.2341278,36.085118,0
          -115.2341292,36.0850613,0
          -115.2341209,36.0848971,0
          -115.2340965,36.0848003,0
          -115.2340856,36.0846735,0
          -115.2340697,36.084599,0
          -115.2340585,36.0845212,0
          -115.2340548,36.0843663,0
          -115.2340395,36.0840612,0
          -115.2340281,36.0837523,0
          -115.2340135,36.083447,0
          -115.2339869,36.0829914,0
          -115.2339651,36.0825358,0
          -115.233945,36.0820818,0
          -115.2339356,36.0818521,0
          -115.2339308,36.0816284,0
          -115.2339178,36.0815327,0
          -115.2339094,36.0814359,0
          -115.2338988,36.0812434,0
          -115.2338891,36.0810503,0
          -115.2338818,36.0808578,0
          -115.233859,36.0803376,0
          -115.2338456,36.080078,0
          -115.2338398,36.0799411,0
          -115.2338378,36.0797862,0
          -115.2338232,36.0795176,0
          -115.2338086,36.0792528,0
          -115.2337954,36.0789851,0
          -115.2337894,36.0788466,0
          -115.2337825,36.0787108,0
          -115.2337758,36.0785354,0
          -115.2337503,36.0782719,0
          -115.2337402,36.0781388,0
          -115.2337395,36.0780344,0
          -115.2338129,36.0780206,0
          -115.2339105,36.0780165,0
          -115.2342106,36.0780095,0
          -115.234512,36.0780033,0
          -115.234846,36.0779979,0
          -115.235179,36.0779922,0
          -115.2355611,36.0780007,0
          -115.2357556,36.078006,0
          -115.2359503,36.0780022,0
          -115.2363561,36.0779874,0
          -115.2367605,36.0779747,0
          -115.2371653,36.0779626,0
          -115.237369,36.0779563,0
          -115.2375713,36.0779554,0
          -115.23788,36.0779535,0
          -115.238192,36.0779468,0
          -115.238496,36.0779427,0
          -115.2388007,36.0779376,0
          -115.2390347,36.0779312,0
          -115.23926,36.0779189,0
          -115.23962,36.0779089,0
          -115.2398521,36.077906,0
          -115.2399053,36.0778681,0
          -115.2399345,36.0778031,0
          -115.2399364,36.077672,0
        </coordinates>
      </LineString>
    </Placemark>
  </Document>
</kml>
