<?xml version="1.0" encoding="UTF-8"?>
<kml xmlns="http://www.opengis.net/kml/2.2">
  <Document>
    <name>F1 RETURN ZONE C TO KH</name>
    <Style id="icon-1899-DB4436-nodesc-normal">
      <IconStyle>
        <color>ff3644db</color>
        <scale>1</scale>
        <Icon>
          <href>https://www.gstatic.com/mapspro/images/stock/503-wht-blank_maps.png</href>
        </Icon>
        <hotSpot x="32" xunits="pixels" y="64" yunits="insetPixels"/>
      </IconStyle>
      <LabelStyle>
        <scale>0</scale>
      </LabelStyle>
      <BalloonStyle>
        <text><![CDATA[<h3>$[name]</h3>]]></text>
      </BalloonStyle>
    </Style>
    <Style id="icon-1899-DB4436-nodesc-highlight">
      <IconStyle>
        <color>ff3644db</color>
        <scale>1</scale>
        <Icon>
          <href>https://www.gstatic.com/mapspro/images/stock/503-wht-blank_maps.png</href>
        </Icon>
        <hotSpot x="32" xunits="pixels" y="64" yunits="insetPixels"/>
      </IconStyle>
      <LabelStyle>
        <scale>1</scale>
      </LabelStyle>
      <BalloonStyle>
        <text><![CDATA[<h3>$[name]</h3>]]></text>
      </BalloonStyle>
    </Style>
    <StyleMap id="icon-1899-DB4436-nodesc">
      <Pair>
        <key>normal</key>
        <styleUrl>#icon-1899-DB4436-nodesc-normal</styleUrl>
      </Pair>
      <Pair>
        <key>highlight</key>
        <styleUrl>#icon-1899-DB4436-nodesc-highlight</styleUrl>
      </Pair>
    </StyleMap>
    <Style id="line-1267FF-5000-nodesc-normal">
      <LineStyle>
        <color>ffff6712</color>
        <width>5</width>
      </LineStyle>
      <BalloonStyle>
        <text><![CDATA[<h3>$[name]</h3>]]></text>
      </BalloonStyle>
    </Style>
    <Style id="line-1267FF-5000-nodesc-highlight">
      <LineStyle>
        <color>ffff6712</color>
        <width>7.5</width>
      </LineStyle>
      <BalloonStyle>
        <text><![CDATA[<h3>$[name]</h3>]]></text>
      </BalloonStyle>
    </Style>
    <StyleMap id="line-1267FF-5000-nodesc">
      <Pair>
        <key>normal</key>
        <styleUrl>#line-1267FF-5000-nodesc-normal</styleUrl>
      </Pair>
      <Pair>
        <key>highlight</key>
        <styleUrl>#line-1267FF-5000-nodesc-highlight</styleUrl>
      </Pair>
    </StyleMap>
    <Placemark>
      <name>F1 RETURN ZONE C TO KH</name>
      <styleUrl>#line-1267FF-5000-nodesc</styleUrl>
      <LineString>
        <tessellate>1</tessellate>
        <coordinates>
          -115.17707,36.10878,0
          -115.17707,36.10879,0
          -115.17708,36.1088,0
          -115.17712,36.10886,0
          -115.17715,36.10889,0
          -115.17716,36.1089,0
          -115.17717,36.10891,0
          -115.17725,36.10897,0
          -115.17725,36.10898,0
          -115.17727,36.10899,0
          -115.17732,36.10903,0
          -115.17734,36.10904,0
          -115.17739,36.10906,0
          -115.17744,36.10908,0
          -115.17749,36.10909,0
          -115.17755,36.1091,0
          -115.1776,36.1091,0
          -115.17766,36.1091,0
          -115.17771,36.10909,0
          -115.17782,36.10904,0
          -115.17792,36.109,0
          -115.17796,36.10896,0
          -115.17799,36.10892,0
          -115.17801,36.10889,0
          -115.17802,36.10887,0
          -115.17805,36.1088,0
          -115.17806,36.10879,0
          -115.17811,36.10871,0
          -115.17811,36.10868,0
          -115.17811,36.10866,0
          -115.17811,36.10864,0
          -115.1781,36.10861,0
          -115.1781,36.10859,0
          -115.1781,36.10856,0
          -115.17811,36.10855,0
          -115.17811,36.10852,0
          -115.17812,36.10851,0
          -115.17813,36.10849,0
          -115.17814,36.10848,0
          -115.17816,36.10846,0
          -115.17818,36.10845,0
          -115.17822,36.10843,0
          -115.17828,36.10841,0
          -115.17835,36.10839,0
          -115.1784,36.10837,0
          -115.17849,36.10835,0
          -115.17858,36.10833,0
          -115.17859,36.10833,0
          -115.17871,36.10831,0
          -115.17879,36.10829,0
          -115.17881,36.10829,0
          -115.17885,36.10828,0
          -115.17899,36.10827,0
          -115.17905,36.10826,0
          -115.17911,36.10823,0
          -115.17919,36.10819,0
          -115.17933,36.10818,0
          -115.17972,36.10817,0
          -115.17995,36.10817,0
          -115.18019,36.10817,0
          -115.18041,36.10817,0
          -115.18064,36.10817,0
          -115.18068,36.10817,0
          -115.18072,36.10818,0
          -115.18099,36.10818,0
          -115.18125,36.10818,0
          -115.18133,36.10819,0
          -115.18141,36.10819,0
          -115.18216,36.10821,0
          -115.1823,36.10821,0
          -115.18291,36.10822,0
          -115.1834,36.10822,0
          -115.18431,36.10824,0
          -115.18444,36.10825,0
          -115.18489,36.10826,0
          -115.18517,36.10827,0
          -115.18552,36.10829,0
          -115.18592,36.10833,0
          -115.18602,36.10834,0
          -115.18608,36.10835,0
          -115.18614,36.10836,0
          -115.18632,36.10838,0
          -115.18641,36.10839,0
          -115.18651,36.1084,0
          -115.18652,36.10842,0
          -115.18654,36.10843,0
          -115.18655,36.10844,0
          -115.18657,36.10846,0
          -115.1866,36.10847,0
          -115.18669,36.10849,0
          -115.18677,36.10853,0
          -115.18679,36.10854,0
          -115.18682,36.10856,0
          -115.18686,36.1086,0
          -115.18687,36.10862,0
          -115.18689,36.10865,0
          -115.1869,36.10871,0
          -115.1869,36.10875,0
          -115.1869,36.10876,0
          -115.1869,36.10877,0
          -115.1869,36.10878,0
          -115.1869,36.10879,0
          -115.1869,36.1089,0
          -115.18691,36.10903,0
          -115.18692,36.10915,0
          -115.18693,36.10917,0
          -115.18701,36.10928,0
          -115.18709,36.10937,0
          -115.1871,36.10937,0
          -115.18719,36.10943,0
          -115.18731,36.10947,0
          -115.18731,36.10948,0
          -115.1874,36.1095,0
          -115.18749,36.1095,0
          -115.18754,36.1095,0
          -115.1876,36.10949,0
          -115.18771,36.10946,0
          -115.18778,36.10944,0
          -115.18785,36.10941,0
          -115.18796,36.10937,0
          -115.18799,36.10935,0
          -115.188,36.10934,0
          -115.18802,36.10933,0
          -115.18811,36.10929,0
          -115.18829,36.10916,0
          -115.18834,36.10912,0
          -115.18834,36.10911,0
          -115.1884,36.10906,0
          -115.18848,36.10898,0
          -115.18849,36.10896,0
          -115.1885,36.10895,0
          -115.18852,36.10893,0
          -115.18854,36.10891,0
          -115.18857,36.10888,0
          -115.1886,36.10885,0
          -115.18861,36.10883,0
          -115.18866,36.10876,0
          -115.18871,36.10869,0
          -115.18874,36.10864,0
          -115.18882,36.10851,0
          -115.18889,36.10838,0
          -115.1889,36.10835,0
          -115.18891,36.10835,0
          -115.18897,36.10822,0
          -115.189,36.10818,0
          -115.18908,36.10802,0
          -115.18909,36.10802,0
          -115.18916,36.10789,0
          -115.18918,36.10786,0
          -115.18924,36.10775,0
          -115.18925,36.10773,0
          -115.18927,36.1077,0
          -115.18927,36.10769,0
          -115.18934,36.10756,0
          -115.18936,36.10753,0
          -115.18945,36.10737,0
          -115.18953,36.10723,0
          -115.18954,36.1072,0
          -115.18956,36.10717,0
          -115.18961,36.10707,0
          -115.18974,36.10682,0
          -115.18978,36.10674,0
          -115.1898,36.10668,0
          -115.18982,36.10662,0
          -115.18981,36.10653,0
          -115.18988,36.10634,0
          -115.18991,36.10622,0
          -115.18992,36.10618,0
          -115.18992,36.10617,0
          -115.18992,36.10616,0
          -115.18994,36.10605,0
          -115.18995,36.10599,0
          -115.18996,36.10585,0
          -115.18996,36.10571,0
          -115.18995,36.10545,0
          -115.18994,36.10505,0
          -115.18993,36.10466,0
          -115.18986,36.10461,0
          -115.18987,36.10457,0
          -115.18988,36.10445,0
          -115.18988,36.10438,0
          -115.18988,36.10397,0
          -115.18988,36.10375,0
          -115.18988,36.10362,0
          -115.18988,36.10316,0
          -115.18988,36.10288,0
          -115.18989,36.10234,0
          -115.18989,36.10227,0
          -115.18989,36.10216,0
          -115.18989,36.10194,0
          -115.18988,36.10189,0
          -115.18986,36.10171,0
          -115.18983,36.10154,0
          -115.18983,36.10146,0
          -115.18983,36.10137,0
          -115.18984,36.10114,0
          -115.18984,36.10108,0
          -115.18988,36.10102,0
          -115.18991,36.10098,0
          -115.18994,36.10083,0
          -115.18993,36.10022,0
          -115.18993,36.1002,0
          -115.18985,36.1001,0
          -115.18987,36.09999,0
          -115.18985,36.0999,0
          -115.18985,36.09967,0
          -115.18985,36.09908,0
          -115.18985,36.09879,0
          -115.18985,36.09867,0
          -115.18985,36.09798,0
          -115.18985,36.09725,0
          -115.18985,36.09684,0
          -115.18985,36.09674,0
          -115.18985,36.09642,0
          -115.18985,36.09618,0
          -115.18985,36.09604,0
          -115.18985,36.09595,0
          -115.18986,36.09543,0
          -115.18986,36.09524,0
          -115.18986,36.09497,0
          -115.18986,36.09461,0
          -115.18986,36.09452,0
          -115.18988,36.09444,0
          -115.18993,36.09427,0
          -115.18993,36.09393,0
          -115.18993,36.09367,0
          -115.18994,36.09358,0
          -115.18994,36.09334,0
          -115.18994,36.09318,0
          -115.18994,36.09287,0
          -115.18994,36.09286,0
          -115.18986,36.09281,0
          -115.18984,36.09273,0
          -115.18984,36.09268,0
          -115.18984,36.09263,0
          -115.18984,36.09232,0
          -115.18985,36.0918,0
          -115.18985,36.09123,0
          -115.18985,36.09112,0
          -115.18985,36.09097,0
          -115.18985,36.09086,0
          -115.18985,36.09072,0
          -115.18985,36.09063,0
          -115.18986,36.09039,0
          -115.18986,36.09025,0
          -115.18986,36.09019,0
          -115.18986,36.09011,0
          -115.18992,36.08998,0
          -115.18994,36.08975,0
          -115.18994,36.08967,0
          -115.18994,36.0895,0
          -115.18994,36.08913,0
          -115.18994,36.08896,0
          -115.18993,36.08865,0
          -115.18994,36.08836,0
          -115.18993,36.0882,0
          -115.18993,36.08812,0
          -115.18993,36.08759,0
          -115.18993,36.08724,0
          -115.18993,36.08717,0
          -115.18992,36.08709,0
          -115.18992,36.08694,0
          -115.18993,36.08687,0
          -115.18993,36.08674,0
          -115.18993,36.08651,0
          -115.18994,36.08644,0
          -115.18994,36.0864,0
          -115.18995,36.08639,0
          -115.19068,36.08639,0
          -115.19108,36.0864,0
          -115.19117,36.08633,0
          -115.19155,36.08633,0
          -115.19166,36.08633,0
          -115.19172,36.08633,0
          -115.19224,36.08633,0
          -115.1927,36.08635,0
          -115.19302,36.08635,0
          -115.19427,36.08634,0
          -115.19452,36.08633,0
          -115.1952,36.08631,0
          -115.19531,36.08635,0
          -115.19585,36.08634,0
          -115.1965,36.08634,0
          -115.1969,36.08634,0
          -115.19782,36.08634,0
          -115.19806,36.08634,0
          -115.19812,36.08634,0
          -115.19845,36.08634,0
          -115.19919,36.08633,0
          -115.19999,36.08634,0
          -115.20019,36.08634,0
          -115.20033,36.08634,0
          -115.20039,36.08634,0
          -115.20106,36.08634,0
          -115.20151,36.08634,0
          -115.20195,36.08634,0
          -115.20196,36.08634,0
          -115.20215,36.08634,0
          -115.20255,36.08635,0
          -115.20279,36.08635,0
          -115.2033,36.08635,0
          -115.20386,36.08635,0
          -115.20436,36.08635,0
          -115.20462,36.08635,0
          -115.2048,36.08636,0
          -115.20494,36.08636,0
          -115.20573,36.08636,0
          -115.20618,36.08636,0
          -115.20632,36.08636,0
          -115.20643,36.08636,0
          -115.20646,36.08638,0
          -115.20649,36.0864,0
          -115.20654,36.08641,0
          -115.20661,36.08641,0
          -115.2067,36.0864,0
          -115.20677,36.0864,0
          -115.20691,36.0864,0
          -115.20714,36.0864,0
          -115.20782,36.08641,0
          -115.20802,36.08642,0
          -115.20816,36.08643,0
          -115.20826,36.08642,0
          -115.20851,36.08641,0
          -115.20921,36.08636,0
          -115.20922,36.08636,0
          -115.20923,36.08636,0
          -115.20924,36.08636,0
          -115.2093,36.08631,0
          -115.20934,36.08626,0
          -115.20959,36.08625,0
          -115.20973,36.08624,0
          -115.21009,36.08622,0
          -115.21096,36.08617,0
          -115.21113,36.08617,0
          -115.21158,36.08614,0
          -115.21225,36.08612,0
          -115.21291,36.0861,0
          -115.21314,36.08609,0
          -115.21358,36.08606,0
          -115.2138,36.08605,0
          -115.21402,36.08604,0
          -115.21452,36.086,0
          -115.21521,36.08597,0
          -115.21565,36.08594,0
          -115.21661,36.08588,0
          -115.21737,36.08583,0
          -115.21789,36.0858,0
          -115.21825,36.08579,0
          -115.21877,36.08575,0
          -115.22007,36.08568,0
          -115.22096,36.08563,0
          -115.22185,36.08559,0
          -115.22201,36.08558,0
          -115.22207,36.08558,0
          -115.22314,36.08552,0
          -115.22384,36.08548,0
          -115.22412,36.08546,0
          -115.22416,36.08548,0
          -115.22419,36.08549,0
          -115.22422,36.0855,0
          -115.22425,36.0855,0
          -115.2245,36.08549,0
          -115.22524,36.08545,0
          -115.22532,36.08545,0
          -115.22541,36.08545,0
          -115.22631,36.08545,0
          -115.2266,36.08544,0
          -115.22676,36.08542,0
          -115.22695,36.08536,0
          -115.22749,36.08535,0
          -115.22868,36.08534,0
          -115.22906,36.08532,0
          -115.2297,36.08532,0
          -115.23073,36.0853,0
          -115.23187,36.08529,0
          -115.23255,36.08528,0
          -115.23337,36.08527,0
          -115.23343,36.08527,0
          -115.23406,36.08526,0
          -115.23403,36.08486,0
          -115.23404,36.08467,0
          -115.23399,36.08345,0
          -115.2339,36.08163,0
          -115.23386,36.08086,0
          -115.23381,36.07982,0
          -115.23381,36.07979,0
          -115.23376,36.07872,0
          -115.23375,36.07854,0
          -115.23371,36.07801,0
          -115.23451,36.07799,0
          -115.23518,36.07798,0
          -115.23595,36.078,0
          -115.23757,36.07795,0
          -115.23819,36.07793,0
          -115.2388,36.07793,0
          -115.23926,36.07792,0
          -115.23962,36.07791,0
          -115.23961,36.07766,0
          -115.23976,36.07766,0
        </coordinates>
      </LineString>
    </Placemark>
    <Placemark>
      <name>2600 W Harmon Ave, Las Vegas, NV 89158, USA</name>
      <styleUrl>#icon-1899-DB4436-nodesc</styleUrl>
      <Point>
        <coordinates>
          -115.1770695,36.108781,0
        </coordinates>
      </Point>
    </Placemark>
    <Placemark>
      <name>6775 W Patrick Ln, Las Vegas, NV 89118, USA</name>
      <styleUrl>#icon-1899-DB4436-nodesc</styleUrl>
      <Point>
        <coordinates>
          -115.23976,36.0776587,0
        </coordinates>
      </Point>
    </Placemark>
  </Document>
</kml>
